Id;ZipCode;Name;Lat;Long
1;1011;Budapest I. kerület;47,5011;19,0469
2;1012;Budapest I. kerület;47,5;19,0833
3;1013;Budapest I. kerület;47,4961;19,0309
4;1014;Budapest I. kerület;47,5034;19,0349
5;1015;Budapest I. kerület;47,5;19,0833
6;1016;Budapest I. kerület;47,48;19,02
7;1021;Budapest II. kerület;47,496;19,0771
8;1022;Budapest II. kerület;47,5;19,0833
9;1023;Budapest II. kerület;47,521;19,0347
10;1024;Budapest II. kerület;47,507;19,0569
11;1025;Budapest II. kerület;47,403;19,0915
12;1026;Budapest II. kerület;47,5117;19,0131
13;1027;Budapest II. kerület;47,5083;19,0386
14;1028;Budapest II. kerület;47,5;19,0833
15;1029;Budapest II. kerület;47,5;19,0833
16;1031;Budapest III. kerület;47,5729;19,0538
17;1032;Budapest III. kerület;47,5;19,0833
18;1033;Budapest III. kerület;47,5;19,0833
19;1034;Budapest III. kerület;47,5;19,0833
20;1035;Budapest III. kerület;47,5;19,0833
21;1036;Budapest III. kerület;47,5328;19,0419
22;1037;Budapest III. kerület;47,5;19,0833
23;1038;Budapest III. kerület;47,5915;19,0486
24;1039;Budapest III. kerület;47,5562;19,0684
25;1041;Budapest IV. kerület;47,5;19,0833
26;1042;Budapest IV. kerület;47,5;19,0833
27;1043;Budapest IV. kerület;47,5;19,0833
28;1044;Budapest IV. kerület;47,5;19,0833
29;1045;Budapest IV. kerület;47,5;19,0833
30;1046;Budapest IV. kerület;47,5;19,0833
31;1047;Budapest IV. kerület;47,5;19,0833
32;1048;Budapest IV. kerület;47,5;19,0833
33;1051;Budapest V. kerület;47,4986;19,0499
34;1052;Budapest V. kerület;47,4968;19,0555
35;1053;Budapest V. kerület;47,4839;19,0597
36;1054;Budapest V. kerület;47,5068;19,0526
37;1055;Budapest V. kerület;47,5;19,0833
38;1056;Budapest V. kerület;47,4926;19,0516
39;1061;Budapest VI. kerület;47,4996;19,0574
40;1062;Budapest VI. kerület;47,525;19,0766
41;1063;Budapest VI. kerület;47,5102;19,0702
42;1064;Budapest VI. kerület;47,5062;19,069
43;1065;Budapest VI. kerület;47,4767;19,0851
44;1066;Budapest VI. kerület;47,5075;19,0589
45;1067;Budapest VI. kerület;47,5077;19,0602
46;1068;Budapest VI. kerület;47,5096;19,0717
47;1071;Budapest VII. kerület;47,5;19,0833
48;1072;Budapest VII. kerület;47,4997;19,0716
49;1073;Budapest VII. kerület;47,4992;19,0718
50;1074;Budapest VII. kerület;47,4768;19,071
51;1075;Budapest VII. kerület;47,4971;19,0566
52;1076;Budapest VII. kerület;47,5;19,0833
53;1077;Budapest VII. kerület;47,5007;19,0786
54;1078;Budapest VII. kerület;47,5034;19,0821
55;1081;Budapest VIII. kerület;47,4946;19,0776
56;1082;Budapest VIII. kerület;47,514;19,0788
57;1083;Budapest VIII. kerület;47,5;19,0833
58;1084;Budapest VIII. kerület;47,5;19,0833
59;1085;Budapest VIII. kerület;47,497;19,0756
60;1086;Budapest VIII. kerület;47,5;19,0833
61;1087;Budapest VIII. kerület;47,4996;19,0817
62;1088;Budapest VIII. kerület;47,4902;19,0905
63;1089;Budapest VIII. kerület;47,4935;19,0882
64;1091;Budapest IX. kerület;47,5;19,0833
65;1092;Budapest IX. kerület;47,5;19,0833
66;1093;Budapest IX. kerület;47,4919;19,0691
67;1094;Budapest IX. kerület;47,481;19,0724
68;1095;Budapest IX. kerület;47,4845;19,0492
69;1096;Budapest IX. kerület;47,5;19,0833
70;1097;Budapest IX. kerület;47,4892;19,074
71;1098;Budapest IX. kerület;47,5;19,0833
72;1101;Budapest X. kerület;47,5;19,0833
73;1102;Budapest X. kerület;47,5;19,0833
74;1103;Budapest X. kerület;47,5;19,0833
75;1104;Budapest X. kerület;47,5;19,0833
76;1105;Budapest X. kerület;47,5;19,0833
77;1106;Budapest X. kerület;47,5032;19,1367
78;1107;Budapest X. kerület;47,5;19,0833
79;1108;Budapest X. kerület;47,5;19,0833
80;1111;Budapest XI. kerület;47,482;19,0536
81;1112;Budapest XI. kerület;47,4734;19,0076
82;1113;Budapest XI. kerület;47,4748;19,037
83;1114;Budapest XI. kerület;47,5;19,0833
84;1115;Budapest XI. kerület;47,5;19,0833
85;1116;Budapest XI. kerület;47,444;19,041
86;1117;Budapest XI. kerület;47,501;19,038
87;1118;Budapest XI. kerület;47,4846;19,0334
88;1119;Budapest XI. kerület;47,4571;19,0402
89;1121;Budapest XII. kerület;47,5014;19,0078
90;1122;Budapest XII. kerület;47,5;19,0833
91;1123;Budapest XII. kerület;47,4942;19,024
92;1124;Budapest XII. kerület;47,5;19,0833
93;1125;Budapest XII. kerület;47,5;19,0833
94;1126;Budapest XII. kerület;47,5;19,0833
95;1131;Budapest XIII. kerület;47,5;19,0833
96;1132;Budapest XIII. kerület;47,4968;19,0776
97;1133;Budapest XIII. kerület;47,5223;19,0564
98;1134;Budapest XIII. kerület;47,5243;19,0647
99;1135;Budapest XIII. kerület;47,5354;19,0818
100;1136;Budapest XIII. kerület;47,5;19,0833
101;1137;Budapest XIII. kerület;47,5086;19,0624
102;1138;Budapest XIII. kerület;47,5239;19,0455
103;1139;Budapest XIII. kerület;47,5;19,0833
104;1141;Budapest XIV. kerület;47,4992;19,0688
105;1142;Budapest XIV. kerület;47,515;19,0936
106;1143;Budapest XIV. kerület;47,5139;19,1268
107;1144;Budapest XIV. kerület;47,5;19,0833
108;1145;Budapest XIV. kerület;47,5141;19,1038
109;1146;Budapest XIV. kerület;47,5067;19,0836
110;1147;Budapest XIV. kerület;47,5;19,0833
111;1148;Budapest XIV. kerület;47,504;19,1192
112;1149;Budapest XIV. kerület;47,5139;19,1268
113;1151;Budapest XV. kerület;47,5;19,0833
114;1152;Budapest XV. kerület;47,5481;19,1306
115;1153;Budapest XV. kerület;47,5;19,0833
116;1154;Budapest XV. kerület;47,5;19,0833
117;1155;Budapest XV. kerület;47,5;19,0833
118;1156;Budapest XV. kerület;47,5;19,0833
119;1157;Budapest XV. kerület;47,5;19,0833
120;1158;Budapest XV. kerület;47,5;19,0833
121;1161;Budapest XVI. kerület;47,5;19,0833
122;1162;Budapest XVI. kerület;47,5;19,0833
123;1163;Budapest XVI. kerület;47,5;19,0833
124;1164;Budapest XVI. kerület;47,5;19,0833
125;1165;Budapest XVI. kerület;47,5;19,0833
126;1171;Budapest XVII. kerület;47,5;19,0833
127;1172;Budapest XVII. kerület;47,5;19,0833
128;1173;Budapest XVII. kerület;47,5231;19,0554
129;1174;Budapest XVII. kerület;47,5;19,0833
130;1181;Budapest XVIII. kerület;47,5;19,0833
131;1182;Budapest XVIII. kerület;47,5;19,0833
132;1183;Budapest XVIII. kerület;47,5;19,0833
133;1184;Budapest XVIII. kerület;47,5;19,0833
134;1185;Budapest XVIII. kerület;47,5;19,0833
135;1186;Budapest XVIII. kerület;47,5;19,0833
136;1188;Budapest XVIII. kerület;47,5;19,0833
137;1191;Budapest XIX. kerület;47,5;19,0833
138;1192;Budapest XIX. kerület;47,5;19,0833
139;1193;Budapest XIX. kerület;47,5;19,0833
140;1194;Budapest XIX. kerület;47,5;19,0833
141;1195;Budapest XIX. kerület;47,5;19,0833
142;1196;Budapest XIX. kerület;47,5;19,0833
143;1201;Budapest XX. kerület;47,5;19,0833
144;1202;Budapest XX. kerület;47,5;19,0833
145;1203;Budapest XX. kerület;47,5;19,0833
146;1204;Budapest XX. kerület;47,5;19,0833
147;1205;Budapest XX. kerület;47,5;19,0833
148;1211;Budapest XXI. kerület;47,5;19,0833
149;1212;Budapest XXI. kerület;47,484;19,123
150;1213;Budapest XXI. kerület;47,5;19,0833
151;1214;Budapest XXI. kerület;47,5;19,0833
152;1215;Budapest XXI. kerület;47,5;19,0833
153;1221;Budapest XXII. kerület;47,5;19,0833
154;1222;Budapest XXII. kerület;47,5;19,0833
155;1223;Budapest XXII. kerület;47,5;19,0833
156;1224;Budapest XXII. kerület;47,5;19,0833
157;1225;Budapest XXII. kerület;47,5;19,0833
158;1237;Budapest XXIII. kerület;47,5;19,0833
159;1238;Budapest XXIII. kerület;47,5;19,0833
160;1239;Budapest XXIII. kerület;47,5;19,0833
161;1529;Budapest XII. kerület;47,5;19,0833
162;2000;Szentendre;47,6667;19,0833
163;2001;Szentendre;47,6667;19,0833
164;2002;Szentendre;47,6667;19,0833
165;2003;Szentendre;47,6667;19,0833
166;2009;Pilisszentlászló;47,7167;19
167;2011;Budakalász;47,6167;19,05
168;2012;Budakalász;47,6167;19,05
169;2013;Budakalász;47,6167;19,05
170;2014;Csobánka;47,6333;18,9667
171;2015;Szigetmonostor;47,6833;19,1167
172;2016;Leányfalu;47,7167;19,0833
173;2017;Pócsmegyer;47,7167;19,1
174;2019;Pomáz;47,65;19,0333
175;2021;Tahitótfalu;47,75;19,1
176;2022;Tahitótfalu;47,75;19,1
177;2023;Dunabogdány;47,7833;19,0333
178;2024;Kisoroszi;47,8;19,0167
179;2025;Visegrád;47,7833;18,9833
180;2026;Visegrád;47,7833;18,9833
181;2027;Dömös;47,7667;18,9167
182;2028;Pilismarót;47,7833;18,8833
183;2030;Érd;47,3667;18,9333
184;2031;Érd;47,3667;18,9333
185;2032;Érd;47,3667;18,9333
186;2033;Érd;47,3667;18,9333
187;2035;Érd;47,3667;18,9333
188;2036;Érd;47,3667;18,9333
189;2038;Sóskút;47,4;18,8333
190;2039;Pusztazámor;47,4;18,7833
191;2040;Budaörs;47,4531;18,9602
192;2041;Budaörs;47,45;18,9667
193;2042;Budaörs;47,45;18,9667
194;2043;Budaörs;47,45;18,9667
195;2044;Budaörs;47,45;18,9667
196;2045;Törökbálint;47,4333;18,9167
197;2046;Törökbálint;47,4333;18,9167
198;2047;Törökbálint;47,4333;18,9167
199;2049;Diósd;47,4;18,95
200;2050;Diósd;47,4;18,95
201;2051;Biatorbágy;47,4667;18,8167
202;2052;Biatorbágy;47,4667;18,8167
203;2053;Herceghalom;47,5;18,75
204;2055;Herceghalom;47,5;18,75
205;2056;Herceghalom;47,5;18,75
206;2060;Bicske;47,4833;18,6333
207;2061;Bicske;47,4833;18,6333
208;2063;Bicske;47,4833;18,6333
209;2064;Csabdi;47,5167;18,6167
210;2065;Mány;47,5333;18,6667
211;2066;Újbarok;47,4833;18,5667
212;2066;Szár;47,4833;18,5167
213;2067;Szárliget;47,4952;18,6095
214;2071;Páty;47,5167;18,8333
215;2072;Zsámbék;47,55;18,7167
216;2073;Tök;47,5667;18,7333
217;2074;Perbál;47,6;18,7667
218;2080;Pilisjászfalu;47,6042;18,8521
219;2081;Piliscsaba;47,6167;18,8333
220;2082;Piliscsaba;47,6167;18,8333
221;2083;Solymár;47,5833;18,9333
222;2084;Pilisszentiván;47,6167;18,9
223;2085;Pilisvörösvár;47,6167;18,9167
224;2086;Tinnye;47,6167;18,7833
225;2087;Tinnye;47,6167;18,7833
226;2089;Telki;47,55;18,8333
227;2090;Remeteszőlős;47,6;18,8981
228;2091;Etyek;47,45;18,75
229;2092;Budakeszi;47,5167;18,9333
230;2093;Budajenő;47,55;18,8
231;2094;Nagykovácsi;47,5833;18,8833
232;2095;Pilisszántó;47,6667;18,9
233;2096;Üröm;47,6;19,0167
234;2097;Pilisborosjenő;47,6167;19
235;2098;Pilisszentkereszt;47,7;18,9
236;2099;Dobogókő;47,7167;18,9
237;2100;Gödöllő;47,6;19,3667
238;2101;Gödöllő;47,6;19,3667
239;2102;Gödöllő;47,6;19,3667
240;2103;Gödöllő;47,6;19,3667
241;2105;Gödöllő;47,6;19,3667
242;2111;Szada;47,6333;19,3167
243;2112;Veresegyház;47,65;19,2833
244;2113;Erdőkertes;47,6667;19,3167
245;2114;Valkó;47,5667;19,5167
246;2115;Vácszentlászló;47,5833;19,5333
247;2116;Zsámbok;47,55;19,6167
248;2117;Isaszeg;47,5333;19,4
249;2118;Dány;47,5167;19,55
250;2119;Pécel;47,4833;19,35
251;2120;Dunakeszi;47,6333;19,1333
252;2121;Dunakeszi;47,6333;19,1333
253;2122;Dunakeszi;47,6333;19,1333
254;2123;Dunakeszi;47,6333;19,1333
255;2131;Göd;47,7;19,1333
256;2132;Göd;47,6976;19,1539
257;2133;Sződliget;47,7333;19,15
258;2134;Sződ;47,7167;19,2
259;2135;Csörög;47,7333;19,1833
260;2141;Csömör;47,55;19,2333
261;2142;Nagytarcsa;47,5333;19,2833
262;2143;Kistarcsa;47,5333;19,2667
263;2144;Kerepes;47,5333;19,2667
264;2145;Kerepes;47,5333;19,2667
265;2146;Mogyoród;47,6;19,25
266;2151;Fót;47,6167;19,2
267;2152;Fót;47,6167;19,2
268;2153;Fót;47,6167;19,2
269;2161;Csomád;47,6667;19,2333
270;2162;Őrbottyán;47,6833;19,2667
271;2163;Vácrátót;47,7167;19,2333
272;2164;Váchartyán;47,7333;19,2667
273;2165;Kisnémedi;47,7333;19,3
274;2166;Püspökszilágy;47,7333;19,3167
275;2167;Vácduka;47,75;19,2167
276;2170;Aszód;47,65;19,5
277;2173;Kartal;47,6667;19,55
278;2174;Verseg;47,7167;19,55
279;2175;Kálló;47,75;19,5
280;2176;Erdőkürt;47,7667;19,4667
281;2177;Erdőtarcsa;47,7667;19,55
282;2181;Iklad;47,6667;19,45
283;2182;Domony;47,65;19,4333
284;2183;Galgamácsa;47,7;19,3833
285;2184;Vácegres;47,6833;19,3667
286;2185;Váckisújfalu;47,7;19,35
287;2191;Bag;47,6333;19,4833
288;2192;Hévízgyörk;47,6333;19,5167
289;2193;Galgahévíz;47,6167;19,5667
290;2194;Tura;47,6167;19,6
291;2200;Monor;47,35;19,45
292;2201;Monor;47,35;19,45
293;2202;Monor;47,35;19,45
294;2209;Péteri;47,3833;19,4167
295;2211;Vasad;47,3167;19,4
296;2212;Csévharaszt;47,3;19,4333
297;2213;Csévharaszt;47,3;19,4333
298;2214;Pánd;47,35;19,6333
299;2215;Káva;47,35;19,5833
300;2216;Bénye;47,35;19,55
301;2217;Gomba;47,3667;19,5333
302;2220;Vecsés;47,4018;19,2458
303;2221;Vecsés;47,4;19,2833
304;2222;Vecsés;47,4;19,2833
305;2225;Üllő;47,3833;19,35
306;2230;Gyömrő;47,4167;19,4
307;2233;Ecser;47,45;19,3333
308;2234;Maglód;47,45;19,3667
309;2235;Mende;47,4167;19,45
310;2241;Sülysáp;47,45;19,5583
311;2242;Sülysáp;47,45;19,5583
312;2243;Kóka;47,4833;19,5833
313;2244;Úri;47,4167;19,5333
314;2251;Tápiószecső;47,45;19,6
315;2252;Tóalmás;47,5167;19,6667
316;2253;Tápióság;47,4;19,6167
317;2254;Szentmártonkáta;47,45;19,7
318;2255;Szentlőrinckáta;47,5167;19,75
319;2300;Ráckeve;47,1667;18,95
320;2301;Ráckeve;47,1667;18,95
321;2309;Lórév;47,1167;18,9
322;2310;Szigetszentmiklós;47,35;19,05
323;2311;Szigetszentmiklós;47,35;19,05
324;2313;Szigetszentmiklós;47,35;19,05
325;2314;Halásztelek;47,3667;18,9833
326;2315;Szigethalom;47,3333;19
327;2316;Tököl;47,3104;19,0021
328;2317;Szigetcsép;47,2667;18,9833
329;2318;Szigetszentmárton;47,2333;18,9667
330;2319;Szigetújfalu;47,2333;18,9333
331;2321;Szigetbecse;47,1333;18,95
332;2322;Makád;47,0833;18,9333
333;2330;Dunaharaszti;47,35;19,0833
334;2331;Dunaharaszti;47,35;19,0833
335;2332;Dunaharaszti;47,35;19,0833
336;2335;Taksony;47,3333;19,0833
337;2336;Dunavarsány;47,2833;19,0667
338;2337;Délegyháza;47,25;19,0667
339;2338;Áporka;47,2333;19,0167
340;2339;Majosháza;47,2667;19
341;2340;Kiskunlacháza;47,2;19,0167
342;2341;Kiskunlacháza;47,2;19,0167
343;2342;Kiskunlacháza;47,2;19,0167
344;2344;Dömsöd;47,0833;19
345;2345;Apaj;47,1167;19,1
346;2347;Bugyi;47,2167;19,15
347;2351;Alsónémedi;47,3167;19,1667
348;2360;Gyál;47,3833;19,2333
349;2363;Felsőpakony;47,35;19,25
350;2364;Ócsa;47,3;19,2333
351;2365;Inárcs;47,2667;19,3333
352;2366;Kakucs;47,25;19,3667
353;2367;Újhartyán;47,2167;19,3833
354;2370;Dabas;47,1833;19,3167
355;2371;Dabas;47,1833;19,3167
356;2372;Dabas;47,1833;19,3167
357;2373;Dabas;47,1833;19,3167
358;2374;Dabas;47,1833;19,3167
359;2375;Tatárszentgyörgy;47,0667;19,3833
360;2376;Hernád;47,1667;19,4333
361;2377;Örkény;47,1333;19,4333
362;2378;Pusztavacs;47,1667;19,5
363;2381;Táborfalva;47,0833;19,4667
364;2400;Dunaújváros;46,9833;18,9333
365;2401;Dunaújváros;46,9833;18,9333
366;2402;Dunaújváros;46,9833;18,9333
367;2403;Dunaújváros;46,9833;18,9333
368;2404;Dunaújváros;46,9833;18,9333
369;2405;Dunaújváros;46,9833;18,9333
370;2406;Dunaújváros;46,9833;18,9333
371;2407;Dunaújváros;46,9833;18,9333
372;2408;Dunaújváros;46,9833;18,9333
373;2421;Nagyvenyim;46,9667;18,85
374;2422;Mezőfalva;46,9333;18,7667
375;2423;Daruszentmiklós;46,8952;18,8452
376;2424;Előszállás;46,8333;18,8167
377;2425;Nagykarácsony;46,8667;18,7833
378;2426;Baracs;46,8833;18,8833
379;2427;Baracs;46,8833;18,8833
380;2428;Kisapostag;46,9;18,9333
381;2431;Perkáta;47,05;18,8
382;2432;Szabadegyháza;47,0667;18,6833
383;2433;Sárosd;47,05;18,65
384;2434;Hantos;47;18,7
385;2435;Nagylók;46,9667;18,6667
386;2440;Százhalombatta;47,3333;18,9333
387;2441;Százhalombatta;47,3333;18,9333
388;2442;Százhalombatta;47,3333;18,9333
389;2443;Százhalombatta;47,3333;18,9333
390;2444;Százhalombatta;47,3333;18,9333
391;2451;Ercsi;47,25;18,9
392;2453;Ercsi;47,25;18,9
393;2454;Iváncsa;47,15;18,8167
394;2455;Beloiannisz;47,1667;18,8333
395;2456;Besnyő;47,1833;18,8167
396;2457;Adony;47,1167;18,8667
397;2458;Kulcs;47,05;18,9167
398;2459;Rácalmás;47,0167;18,95
399;2461;Tárnok;47,3667;18,85
400;2462;Martonvásár;47,3167;18,7833
401;2463;Tordas;47,35;18,75
402;2464;Gyúró;47,3833;18,7333
403;2465;Ráckeresztúr;47,2667;18,8333
404;2471;Baracska;47,2833;18,7667
405;2472;Kajászó;47,3167;18,7333
406;2473;Vál;47,3667;18,6833
407;2475;Kápolnásnyék;47,2333;18,6833
408;2476;Pázmánd;47,2833;18,6667
409;2477;Vereb;47,3167;18,6167
410;2481;Velence;47,2333;18,65
411;2482;Velence;47,2333;18,65
412;2483;Gárdony;47,2;18,65
413;2484;Gárdony;47,2;18,65
414;2485;Gárdony;47,2;18,65
415;2490;Pusztaszabolcs;47,1333;18,7667
416;2500;Esztergom;47,8;18,75
417;2501;Esztergom;47,8;18,75
418;2503;Esztergom;47,8;18,75
419;2508;Esztergom;47,8;18,75
420;2509;Esztergom;47,8;18,75
421;2510;Dorog;47,7167;18,7333
422;2511;Dorog;47,7167;18,7333
423;2512;Dorog;47,7167;18,7333
424;2517;Kesztölc;47,7167;18,8
425;2518;Leányvár;47,6833;18,7833
426;2519;Piliscsév;47,6833;18,8167
427;2521;Csolnok;47,7;18,7167
428;2522;Dág;47,6667;18,7167
429;2523;Sárisáp;47,6833;18,6833
430;2524;Nagysáp;47,6833;18,6
431;2525;Bajna;47,65;18,6
432;2526;Epöl;47,65;18,65
433;2527;Máriahalom;47,6333;18,7167
434;2528;Úny;47,6333;18,7333
435;2529;Annavölgy;47,6625;18,6771
436;2531;Tokod;47,7167;18,6667
437;2532;Tokodaltáró;47,7444;18,5972
438;2533;Bajót;47,7333;18,5667
439;2534;Tát;47,75;18,65
440;2535;Mogyorósbánya;47,7333;18,6
441;2536;Nyergesújfalu;47,7667;18,55
442;2537;Nyergesújfalu;47,7667;18,55
443;2541;Lábatlan;47,75;18,5
444;2542;Lábatlan;47,75;18,5
445;2543;Süttő;47,75;18,45
446;2544;Neszmély;47,7333;18,3667
447;2545;Dunaalmás;47,7333;18,3333
448;2600;Vác;47,7833;19,1333
449;2601;Vác;47,7833;19,1333
450;2602;Vác;47,7833;19,1333
451;2603;Vác;47,7833;19,1333
452;2610;Nőtincs;47,8833;19,15
453;2611;Felsőpetény;47,8833;19,2
454;2612;Kosd;47,8;19,1833
455;2613;Rád;47,8;19,2333
456;2614;Penc;47,8;19,25
457;2615;Csővár;47,8167;19,3333
458;2616;Ősagárd;47,8667;19,2
459;2616;Keszeg;47,8333;19,25
460;2617;Alsópetény;47,8833;19,25
461;2618;Nézsa;47,85;19,3
462;2619;Legénd;47,8833;19,3167
463;2621;Verőce;47,8333;19,0333
464;2623;Kismaros;47,8333;19,0333
465;2624;Szokolya;47,8667;19,0167
466;2625;Kóspallag;47,8833;18,9333
467;2626;Nagymaros;47,7833;18,9667
468;2627;Zebegény;47,8;18,9167
469;2628;Szob;47,8167;18,8667
470;2629;Márianosztra;47,8667;18,8833
471;2631;Ipolydamásd;47,85;18,8333
472;2632;Letkés;47,8833;18,7833
473;2633;Ipolytölgyes;47,9167;18,7833
474;2634;Nagybörzsöny;47,9333;18,8333
475;2635;Vámosmikola;47,9833;18,7833
476;2636;Tésa;48,0333;18,85
477;2637;Perőcsény;48;18,8667
478;2638;Kemence;48,0167;18,9
479;2639;Bernecebaráti;48,0333;18,9167
480;2640;Szendehely;47,85;19,1167
481;2641;Berkenye;47,8833;19,0833
482;2642;Nógrád;47,9167;19,05
483;2643;Diósjenő;47,95;19,05
484;2644;Borsosberény;47,9667;19,1167
485;2645;Nagyoroszi;48;19,1
486;2646;Drégelypalánk;48,05;19,05
487;2647;Hont;48,05;19
488;2648;Patak;48,0333;19,15
489;2649;Dejtár;48,0333;19,1667
490;2651;Rétság;47,9333;19,1333
491;2652;Tereske;47,95;19,2
492;2653;Bánk;47,9333;19,1833
493;2654;Romhány;47,9333;19,2667
494;2655;Kétbodony;47,9333;19,2667
495;2655;Kisecset;47,9333;19,3167
496;2655;Szente;47,9667;19,2833
497;2656;Szátok;47,95;19,2333
498;2657;Tolmács;47,9333;19,1333
499;2658;Horpács;48;19,1333
500;2658;Pusztaberki;47,9667;19,1667
501;2659;Érsekvadkert;48;19,2
502;2660;Balassagyarmat;48,0833;19,3
503;2661;Balassagyarmat;48,0833;19,3
504;2662;Balassagyarmat;48,0833;19,3
505;2668;Patvarc;48,0667;19,35
506;2669;Ipolyvece;48,0667;19,1167
507;2671;Őrhalom;48,0833;19,4167
508;2672;Hugyag;48,0833;19,4333
509;2673;Csitár;48,05;19,4333
510;2675;Iliny;48,0333;19,4333
511;2675;Nógrádmarcal;48,0333;19,4
512;2676;Cserhátsurány;47,9833;19,4333
513;2677;Herencsény;47,9833;19,4833
514;2678;Csesztve;48,0167;19,2833
515;2681;Galgagyörk;47,7333;19,3833
516;2682;Püspökhatvan;47,7667;19,3667
517;2683;Acsa;47,8;19,3833
518;2685;Nógrádsáp;47,8333;19,35
519;2686;Galgaguta;47,85;19,4
520;2687;Bercel;47,8667;19,4167
521;2688;Vanyarc;47,8333;19,45
522;2691;Nógrádkövesd;47,8667;19,3833
523;2692;Szécsénke;47,9;19,3333
524;2693;Becske;47,9167;19,3833
525;2694;Magyarnándor;47,9667;19,35
526;2694;Debercsény;47,9667;19,3167
527;2694;Cserháthaláp;47,9833;19,3667
528;2696;Terény;47,95;19,45
529;2697;Szanda;47,9333;19,45
530;2698;Mohora;47,9833;19,3333
531;2699;Szügy;48,0333;19,3333
532;2700;Cegléd;47,1667;19,8
533;2701;Cegléd;47,1667;19,8
534;2702;Cegléd;47,1667;19,8
535;2703;Cegléd;47,1667;19,8
536;2704;Cegléd;47,1667;19,8
537;2711;Tápiószentmárton;47,3333;19,75
538;2712;Nyársapát;47,1;19,8
539;2713;Csemő;47,1167;19,7
540;2721;Pilis;47,2833;19,55
541;2723;Nyáregyháza;47,25;19,5
542;2724;Újlengyel;47,2167;19,45
543;2730;Albertirsa;47,25;19,6167
544;2735;Dánszentmiklós;47,2167;19,55
545;2736;Mikebuda;47,1667;19,6333
546;2737;Ceglédbercel;47,2167;19,6833
547;2738;Ceglédbercel;47,2167;19,6833
548;2740;Abony;47,1833;20
549;2745;Kőröstetétlen;47,1;20,0333
550;2746;Jászkarajenő;47,05;20,0667
551;2747;Törtel;47,1167;19,9333
552;2750;Nagykőrös;47,0333;19,7833
553;2751;Nagykőrös;47,0333;19,7833
554;2752;Nagykőrös;47,0333;19,7833
555;2755;Kocsér;47,0053;19,9114
556;2760;Nagykáta;47,4167;19,75
557;2761;Nagykáta;47,4167;19,75
558;2764;Tápióbicske;47,3667;19,6833
559;2765;Farmos;47,3667;19,85
560;2766;Tápiószele;47,3333;19,8833
561;2767;Tápiógyörgye;47,3333;19,95
562;2768;Újszilvás;47,2833;19,9333
563;2769;Tápiószőlős;47,3;19,85
564;2800;Tatabánya;47,5667;18,4167
565;2801;Tatabánya;47,5667;18,4167
566;2802;Tatabánya;47,5667;18,4167
567;2803;Tatabánya;47,5667;18,4167
568;2804;Tatabánya;47,5667;18,4167
569;2805;Tatabánya;47,5667;18,4167
570;2806;Tatabánya;47,5667;18,4167
571;2807;Tatabánya;47,5667;18,4167
572;2808;Tatabánya;47,5667;18,4167
573;2809;Tatabánya;47,5667;18,4167
574;2821;Gyermely;47,6;18,65
575;2822;Szomor;47,5833;18,6667
576;2823;Vértessomló;47,5167;18,3667
577;2824;Várgesztes;47,4667;18,4
578;2831;Tarján;47,6167;18,5167
579;2832;Héreg;47,65;18,5167
580;2833;Vértestolna;47,6333;18,45
581;2834;Tardos;47,6667;18,45
582;2835;Tardos;47,6667;18,45
583;2836;Baj;47,65;18,3667
584;2837;Vértesszőlős;47,6167;18,3833
585;2840;Oroszlány;47,4833;18,3167
586;2841;Oroszlány;47,4833;18,3167
587;2842;Oroszlány;47,4833;18,3167
588;2851;Környe;47,55;18,3333
589;2852;Kecskéd;47,5167;18,3167
590;2853;Kömlőd;47,55;18,2667
591;2854;Dad;47,5167;18,2333
592;2855;Bokod;47,5;18,25
593;2856;Szákszend;47,55;18,1667
594;2858;Császár;47,5;18,15
595;2859;Vérteskethely;47,4833;18,0833
596;2861;Bakonysárkány;47,45;18,1
597;2862;Aka;47,4;18,0667
598;2870;Kisbér;47,5;18,0333
599;2879;Kisbér;47,5;18,0333
600;2881;Ászár;47,5042;18
601;2882;Kerékteleki;47,5167;17,9333
602;2883;Bársonyos;47,5167;17,9167
603;2884;Bakonyszombathely;47,4667;17,9667
604;2885;Bakonybánk;47,4667;17,9
605;2886;Réde;47,4333;17,9167
606;2887;Ácsteszér;47,4;18,0167
607;2888;Csatka;47,3667;17,9833
608;2889;Súr;47,3667;18,0333
609;2890;Tata;47,65;18,3167
610;2891;Tata;47,65;18,3167
611;2892;Tata;47,65;18,3167
612;2893;Tata;47,65;18,3167
613;2894;Tata;47,65;18,3167
614;2896;Szomód;47,6833;18,35
615;2897;Dunaszentmiklós;47,7;18,3833
616;2898;Kocs;47,6;18,2167
617;2899;Naszály;47,7;18,2667
618;2900;Komárom;47,7333;18,1167
619;2901;Komárom;47,7333;18,1167
620;2902;Komárom;47,7333;18,1167
621;2903;Komárom;47,7333;18,1167
622;2904;Komárom;47,7333;18,1167
623;2911;Mocsa;47,6667;18,1833
624;2921;Mocsa;47,6667;18,1833
625;2922;Mocsa;47,6667;18,1833
626;2931;Almásfüzitő;47,7167;18,2667
627;2932;Almásfüzitő;47,7167;18,2667
628;2941;Ács;47,7;18,0167
629;2942;Nagyigmánd;47,6333;18,0833
630;2943;Bábolna;47,6333;17,9833
631;2944;Bana;47,65;17,9167
632;2945;Tárkány;47,5833;18
633;2946;Csép;47,5833;18,0667
634;2947;Ete;47,5;18,0333
635;2948;Kisigmánd;47,65;18,1
636;2949;Csém;47,6833;18,1
637;3000;Hatvan;47,6667;19,6833
638;3001;Hatvan;47,6667;19,6833
639;3002;Hatvan;47,6667;19,6833
640;3003;Hatvan;47,6667;19,6833
641;3009;Hatvan;47,6667;19,6833
642;3011;Heréd;47,7;19,6333
643;3012;Nagykökényes;47,7333;19,6
644;3013;Ecséd;47,7333;19,7833
645;3014;Hort;47,7;19,7833
646;3015;Csány;47,65;19,8333
647;3016;Boldog;47,6;19,7
648;3021;Lőrinci;47,7333;19,6833
649;3022;Lőrinci;47,7333;19,6833
650;3023;Petőfibánya;47,7667;19,7167
651;3024;Petőfibánya;47,7667;19,7167
652;3031;Zagyvaszántó;47,7833;19,6833
653;3032;Apc;47,8;19,7
654;3033;Rózsaszentmárton;47,7833;19,75
655;3034;Szűcsi;47,8;19,7667
656;3035;Gyöngyöspata;47,8167;19,8
657;3036;Gyöngyöstarján;47,8;19,8667
658;3041;Héhalom;47,8;19,6
659;3042;Palotás;47,8;19,6
660;3043;Egyházasdengeleg;47,8;19,5667
661;3044;Szirák;47,8333;19,5333
662;3045;Bér;47,8667;19,5
663;3046;Kisbágyon;47,8167;19,5833
664;3047;Buják;47,8833;19,55
665;3051;Szarvasgede;47,8167;19,65
666;3052;Csécse;47,8667;19,6333
667;3053;Kozárd;47,9167;19,6167
668;3053;Ecseg;47,9;19,6
669;3060;Pásztó;47,9167;19,7
670;3061;Pásztó;47,9167;19,7
671;3062;Pásztó;47,9167;19,7
672;3063;Jobbágyi;47,8333;19,6833
673;3064;Szurdokpüspöki;47,85;19,6833
674;3065;Szurdokpüspöki;47,85;19,6833
675;3066;Kutasó;47,95;19,55
676;3066;Bokor;47,9333;19,55
677;3066;Cserhátszentiván;47,9333;19,5833
678;3067;Felsőtold;47,9667;19,6167
679;3067;Garáb;47,9833;19,65
680;3068;Mátraszőlős;47,9667;19,6833
681;3069;Alsótold;47,95;19,6
682;3070;Bátonyterenye;47,9667;19,8333
683;3071;Bátonyterenye;47,9667;19,8333
684;3072;Bátonyterenye;47,9667;19,8333
685;3073;Tar;47,95;19,75
686;3074;Sámsonháza;47,9833;19,7333
687;3075;Márkháza;48,0167;19,7333
688;3075;Kisbárkány;48,0167;19,6833
689;3075;Nagybárkány;48;19,7
690;3077;Mátraverebély;47,9833;19,7833
691;3078;Mátraverebély;47,9833;19,7833
692;3082;Mátraverebély;47,9833;19,7833
693;3100;Salgótarján;48,1167;19,8167
694;3101;Salgótarján;48,1167;19,8167
695;3102;Salgótarján;48,1167;19,8167
696;3103;Salgótarján;48,1167;19,8167
697;3104;Salgótarján;48,1167;19,8167
698;3107;Salgótarján;48,1167;19,8167
699;3109;Salgótarján;48,1167;19,8167
700;3110;Salgótarján;48,1167;19,8167
701;3121;Salgótarján;48,1167;19,8167
702;3123;Cered;48,15;19,9667
703;3124;Zabar;48,1333;20,05
704;3125;Szilaspogony;48,1167;20,0333
705;3126;Bárna;48,1;19,9333
706;3127;Kazár;48,05;19,8667
707;3128;Vizslás;48,05;19,8167
708;3129;Lucfalva;48,0333;19,7
709;3131;Sóshartyán;48,0667;19,6833
710;3132;Nógrádmegyer;48,0667;19,6333
711;3133;Magyargéc;48,0833;19,6167
712;3134;Piliny;48,15;19,6
713;3135;Szécsényfelfalu;48,15;19,5667
714;3136;Etes;48,1167;19,7167
715;3137;Karancsberény;48,1833;19,75
716;3138;Ipolytarnóc;48,2333;19,6333
717;3141;Ipolytarnóc;48,2333;19,6333
718;3142;Mátraszele;48,05;19,9
719;3143;Mátranovák;48,0333;19,9833
720;3144;Mátranovák;48,0333;19,9833
721;3145;Mátraterenye;48,0333;19,95
722;3146;Mátraterenye;48,0333;19,95
723;3147;Mátraterenye;48,0333;19,95
724;3151;Rákóczibánya;47,9875;19,9125
725;3152;Nemti;48,0167;19,9
726;3153;Dorogháza;47,9833;19,9
727;3154;Szuha;47,9833;19,9167
728;3155;Mátramindszent;47,9667;19,9333
729;3161;Kishartyán;48,0833;19,7167
730;3162;Ságújfalu;48,1;19,6833
731;3163;Karancsság;48,1167;19,6667
732;3163;Szalmatercs;48,1167;19,6333
733;3165;Endrefalva;48,1333;19,5833
734;3170;Szécsény;48,0833;19,5167
735;3175;Nagylóc;48,0333;19,5833
736;3176;Hollókő;48;19,6
737;3177;Rimóc;48,0333;19,5333
738;3178;Varsány;48,0333;19,5
739;3179;Nógrádsipek;48,0167;19,5
740;3181;Karancsalja;48,1333;19,75
741;3182;Karancslapujtő;48,15;19,7333
742;3183;Karancskeszi;48,1667;19,7
743;3184;Mihálygerge;48,2;19,6333
744;3185;Egyházasgerge;48,1833;19,65
745;3186;Litke;48,2167;19,6
746;3187;Nógrádszakál;48,1833;19,5333
747;3188;Ludányhalászi;48,1333;19,5167
748;3200;Gyöngyös;47,7833;19,9333
749;3201;Gyöngyös;47,7833;19,9333
750;3202;Gyöngyös;47,7833;19,9333
751;3211;Gyöngyösoroszi;47,8333;19,9
752;3212;Gyöngyöshalász;47,7333;19,9333
753;3213;Atkár;47,7167;19,9
754;3214;Nagyréde;47,7667;19,85
755;3221;Nagyréde;47,7667;19,85
756;3231;Gyöngyössolymos;47,8167;19,9333
757;3232;Gyöngyössolymos;47,8167;19,9333
758;3233;Gyöngyössolymos;47,8167;19,9333
759;3234;Gyöngyössolymos;47,8167;19,9333
760;3235;Mátraszentimre;47,9167;19,8833
761;3240;Parád;47,9167;20,0333
762;3242;Parádsasvár;47,9167;19,9833
763;3243;Bodony;47,95;20,0333
764;3244;Bodony;47,95;20,0333
765;3245;Recsk;47,9333;20,1167
766;3246;Mátraderecske;47,95;20,0833
767;3247;Mátraballa;47,9833;20,0333
768;3248;Ivád;48,0167;20,0667
769;3250;Pétervására;48,0167;20,1
770;3252;Erdőkövesd;48,0333;20,1
771;3253;Istenmezeje;48,0833;20,05
772;3254;Váraszó;48,0333;20,1167
773;3255;Fedémes;48,0333;20,2
774;3256;Kisfüzes;47,9833;20,1333
775;3257;Bükkszenterzsébet;48,05;20,1667
776;3258;Tarnalelesz;48,05;20,1833
777;3259;Szentdomonkos;48,0667;20,2
778;3261;Abasár;47,8;20
779;3262;Markaz;47,8167;20,0667
780;3263;Domoszló;47,8333;20,1167
781;3264;Kisnána;47,85;20,15
782;3265;Vécs;47,8167;20,1667
783;3271;Visonta;47,7833;20,0333
784;3272;Visonta;47,7833;20,0333
785;3273;Halmajugra;47,7667;20,0667
786;3274;Ludas;47,7333;20,1
787;3275;Detk;47,75;20,1
788;3281;Karácsond;47,7333;20,0333
789;3282;Nagyfüged;47,6833;20,1167
790;3283;Tarnazsadány;47,6667;20,1667
791;3284;Tarnaméra;47,65;20,1667
792;3291;Vámosgyörk;47,6833;19,9333
793;3292;Adács;47,7;19,9833
794;3293;Visznek;47,65;20,0333
795;3294;Tarnaörs;47,66;20,03
796;3295;Erk;47,6167;20,0833
797;3296;Zaránk;47,65;20,1167
798;3300;Eger;47,9058;20,3709
799;3301;Eger;47,9;20,3833
800;3302;Eger;47,9;20,3833
801;3303;Eger;47,9;20,3833
802;3304;Eger;47,9;20,3833
803;3305;Eger;47,9;20,3833
804;3321;Egerbakta;47,9333;20,3
805;3322;Hevesaranyos;48,0167;20,2333
806;3323;Szarvaskő;47,9;20,3833
807;3324;Felsőtárkány;47,9667;20,4167
808;3325;Noszvaj;47,9333;20,4833
809;3326;Ostoros;47,8667;20,4333
810;3327;Novaj;47,85;20,4833
811;3328;Egerszólát;47,8833;20,2667
812;3331;Tarnaszentmária;47,8833;20,2
813;3332;Sirok;47,9333;20,2
814;3333;Terpes;47,9667;20,15
815;3334;Szajla;47,9667;20,15
816;3335;Bükkszék;47,9833;20,1833
817;3336;Bátor;47,9833;20,2667
818;3337;Egerbocs;48,0333;20,2667
819;3341;Szúcs;48,05;20,25
820;3341;Egercsehi;48,05;20,2833
821;3343;Bekölce;48,0833;20,2833
822;3344;Mikófalva;48,05;20,3167
823;3345;Mónosbél;48,0333;20,35
824;3346;Bélapátfalva;48,05;20,3667
825;3346;Bükkszentmárton;48,0667;20,35
826;3347;Balaton;48,1;20,3167
827;3348;Szilvásvárad;48,1;20,4
828;3349;Nagyvisnyó;48,1333;20,4333
829;3350;Kál;47,7333;20,2667
830;3351;Verpelét;47,85;20,2333
831;3352;Feldebrő;47,8167;20,25
832;3353;Aldebrő;47,8;20,2333
833;3354;Tófalu;47,7833;20,25
834;3355;Kápolna;47,7667;20,25
835;3356;Kompolt;47,7333;20,25
836;3357;Nagyút;47,7167;20,1667
837;3358;Erdőtelek;47,6833;20,3167
838;3359;Tenk;47,65;20,35
839;3360;Heves;47,6;20,2833
840;3368;Boconád;47,6333;20,2
841;3369;Tarnabod;47,6833;20,2333
842;3371;Átány;47,6167;20,3667
843;3372;Kömlő;47,6;20,45
844;3373;Besenyőtelek;47,7;20,4333
845;3374;Dormánd;47,7167;20,4167
846;3375;Mezőtárkány;47,7167;20,4833
847;3377;Szihalom;47,7667;20,4833
848;3378;Mezőszemere;47,75;20,5333
849;3379;Egerfarmos;47,7167;20,55
850;3381;Pély;47,4833;20,35
851;3382;Tarnaszentmiklós;47,5333;20,3833
852;3383;Hevesvezekény;47,55;20,3667
853;3384;Kisköre;47,5;20,5
854;3385;Tiszanána;47,5667;20,5333
855;3386;Sarud;47,5833;20,6
856;3387;Újlőrincfalva;47,6333;20,6
857;3388;Poroszló;47,65;20,6667
858;3390;Füzesabony;47,75;20,4167
859;3392;Füzesabony;47,75;20,4167
860;3393;Füzesabony;47,75;20,4167
861;3394;Egerszalók;47,8667;20,3333
862;3395;Demjén;47,8333;20,3333
863;3396;Kerecsend;47,8;20,35
864;3397;Maklár;47,8;20,4167
865;3398;Nagytálya;47,8167;20,4167
866;3399;Andornaktálya;47,85;20,4167
867;3400;Mezőkövesd;47,8167;20,5833
868;3401;Mezőkövesd;47,8167;20,5833
869;3402;Mezőkövesd;47,8167;20,5833
870;3411;Szomolya;47,9;20,5
871;3412;Bogács;47,9;20,5333
872;3413;Cserépfalu;47,9333;20,5333
873;3414;Bükkzsérc;47,9667;20,5
874;3416;Tard;47,8833;20,6167
875;3417;Cserépváralja;47,9333;20,5667
876;3418;Szentistván;47,7667;20,6667
877;3421;Mezőnyárád;47,8667;20,6833
878;3422;Bükkábrány;47,8833;20,6833
879;3423;Tibolddaróc;47,9167;20,6333
880;3424;Kács;47,95;20,6167
881;3425;Sály;47,95;20,6667
882;3426;Borsodgeszt;47,95;20,7
883;3431;Vatta;47,9167;20,75
884;3432;Emőd;47,9333;20,8167
885;3433;Nyékládháza;47,9833;20,8333
886;3434;Mályi;48,0167;20,8333
887;3435;Mályi;48,0167;20,8333
888;3441;Mezőkeresztes;47,8333;20,7
889;3442;Csincse;47,8833;20,7667
890;3443;Mezőnagymihály;47,8167;20,7333
891;3444;Gelej;47,8333;20,7833
892;3450;Mezőcsát;47,8167;20,9167
893;3458;Tiszakeszi;47,7833;21
894;3459;Igrici;47,8667;20,8833
895;3461;Egerlövő;47,7167;20,6333
896;3462;Borsodivánka;47,7;20,6667
897;3463;Négyes;47,7;20,7167
898;3464;Tiszavalk;47,6833;20,75
899;3465;Tiszabábolna;47,6833;20,8167
900;3466;Tiszadorogma;47,6833;20,8667
901;3467;Ároktő;47,7333;20,95
902;3500;Miskolc;47,9804;20,9354
903;3501;Miskolc;47,9804;20,9354
904;3502;Miskolc;47,9804;20,9354
905;3503;Miskolc;47,9804;20,9354
906;3504;Miskolc;47,9804;20,9354
907;3505;Miskolc;47,9804;20,9354
908;3506;Miskolc;47,9804;20,9354
909;3507;Miskolc;47,9804;20,9354
910;3508;Miskolc;47,9804;20,9354
911;3509;Miskolc;47,9804;20,9354
912;3510;Miskolc;47,9804;20,9354
913;3511;Miskolc;47,9804;20,9354
914;3513;Miskolc;47,9804;20,9354
915;3514;Miskolc;47,9804;20,9354
916;3515;Miskolc;47,9804;20,9354
917;3516;Miskolc;47,9804;20,9354
918;3517;Miskolc;47,9804;20,9354
919;3518;Miskolc;47,9804;20,9354
920;3519;Miskolc;47,9804;20,9354
921;3521;Miskolc;47,9804;20,9354
922;3523;Miskolc;47,9804;20,9354
923;3524;Miskolc;47,9804;20,9354
924;3525;Miskolc;47,9804;20,9354
925;3526;Miskolc;47,9804;20,9354
926;3527;Miskolc;47,9804;20,9354
927;3528;Miskolc;47,9804;20,9354
928;3529;Miskolc;47,9804;20,9354
929;3530;Miskolc;47,9804;20,9354
930;3531;Miskolc;47,9804;20,9354
931;3532;Miskolc;47,9804;20,9354
932;3533;Miskolc;47,9804;20,9354
933;3534;Miskolc;47,9804;20,9354
934;3535;Miskolc;47,9804;20,9354
935;3542;Miskolc;47,9804;20,9354
936;3543;Miskolc;47,9804;20,9354
937;3544;Miskolc;47,9804;20,9354
938;3545;Miskolc;47,9804;20,9354
939;3546;Miskolc;47,9804;20,9354
940;3547;Miskolc;47,9804;20,9354
941;3548;Miskolc;47,9804;20,9354
942;3549;Miskolc;47,9804;20,9354
943;3551;Ónod;48;20,9167
944;3552;Muhi;47,9833;20,9333
945;3553;Kistokaj;48,05;20,85
946;3554;Bükkaranyos;47,9833;20,7833
947;3555;Harsány;47,9667;20,75
948;3556;Kisgyőr;48,0167;20,7
949;3557;Bükkszentkereszt;48,0667;20,6333
950;3559;Répáshuta;48,05;20,5333
951;3561;Felsőzsolca;48,1;20,8667
952;3562;Onga;48,1167;20,9167
953;3563;Hernádkak;48,0833;20,9667
954;3564;Hernádnémeti;48,0667;20,9833
955;3565;Tiszalúc;48,0333;21,0833
956;3571;Alsózsolca;48,0667;20,8833
957;3572;Sajólád;48,05;20,9
958;3573;Sajópetri;48,0333;20,9
959;3574;Bőcs;48,05;20,9667
960;3575;Berzék;48,0167;20,95
961;3576;Sajóhídvég;48;20,95
962;3577;Köröm;47,9833;20,95
963;3578;Girincs;47,9667;20,9833
964;3578;Kiscsécs;47,9667;21,0167
965;3579;Kesznyéten;47,9667;21,05
966;3580;Tiszaújváros;47,9333;21,0833
967;3581;Tiszaújváros;47,9333;21,0833
968;3582;Tiszaújváros;47,9333;21,0833
969;3585;Tiszaújváros;47,9333;21,0833
970;3586;Sajóörös;47,95;21,0333
971;3587;Tiszapalkonya;47,8833;21,0667
972;3588;Hejőkürt;47,8667;21
973;3589;Tiszatarján;47,8333;21,0167
974;3591;Oszlár;47,8833;21,0333
975;3592;Nemesbikk;47,8833;20,9667
976;3593;Hejőbába;47,9;20,95
977;3594;Hejőpapi;47,9;20,9167
978;3595;Hejőszalonta;47,9333;20,8833
979;3596;Szakáld;47,95;20,9167
980;3597;Hejőkeresztúr;47,9667;20,8833
981;3598;Nagycsécs;47,9667;20,95
982;3599;Sajószöged;47,95;21
983;3600;Ózd;48,2167;20,3
984;3601;Ózd;48,2167;20,3
985;3603;Ózd;48,2167;20,3
986;3604;Ózd;48,2167;20,3
987;3607;Ózd;48,2167;20,3
988;3608;Ózd;48,2167;20,3
989;3621;Ózd;48,2167;20,3
990;3622;Uppony;48,2167;20,4333
991;3623;Borsodszentgyörgy;48,1833;20,2
992;3625;Borsodszentgyörgy;48,1833;20,2
993;3626;Hangony;48,2333;20,2
994;3627;Kissikátor;48,2;20,1333
995;3627;Domaháza;48,1833;20,1167
996;3630;Putnok;48,3;20,4333
997;3635;Dubicsány;48,2833;20,5
998;3636;Sajógalgóc;48,3;20,5333
999;3636;Vadna;48,2667;20,5667
1000;3641;Nagybarca;48,25;20,5333
1001;3642;Bánhorváti;48,2333;20,5167
1002;3643;Dédestapolcsány;48,1833;20,4833
1003;3644;Tardona;48,1667;20,5333
1004;3645;Mályinka;48,15;20,5
1005;3646;Nekézseny;48,1667;20,4333
1006;3647;Csokvaomány;48,1667;20,3833
1007;3648;Lénárddaróc;48,15;20,3833
1008;3648;Bükkmogyorósd;48,1333;20,3667
1009;3648;Csernely;48,15;20,35
1010;3651;Lénárddaróc;48,15;20,3833
1011;3652;Sajónémeti;48,2667;20,3833
1012;3653;Sajópüspöki;48,2833;20,35
1013;3654;Bánréve;48,3;20,3667
1014;3655;Hét;48,2833;20,3833
1015;3656;Sajómercse;48,25;20,4167
1016;3656;Sajóvelezd;48,2667;20,4667
1017;3657;Királd;48,25;20,4
1018;3658;Borsodbóta;48,2167;20,4
1019;3659;Sáta;48,1833;20,4
1020;3661;Sáta;48,1833;20,4
1021;3662;Sáta;48,1833;20,4
1022;3663;Arló;48,1833;20,2667
1023;3664;Járdánháza;48,15;20,25
1024;3671;Borsodnádasd;48,1167;20,25
1025;3672;Borsodnádasd;48,1167;20,25
1026;3700;Kazincbarcika;48,25;20,6333
1027;3701;Kazincbarcika;48,25;20,6333
1028;3702;Kazincbarcika;48,25;20,6333
1029;3703;Kazincbarcika;48,25;20,6333
1030;3704;Kazincbarcika;48,25;20,6333
1031;3705;Kazincbarcika;48,25;20,6333
1032;3711;Szirmabesenyő;48,15;20,8
1033;3712;Sajósenye;48,2;20,8333
1034;3712;Sajóvámos;48,1833;20,85
1035;3713;Arnót;48,1333;20,8667
1036;3714;Sajópálfala;48,1667;20,85
1037;3715;Gesztely;48,1;20,9667
1038;3716;Újcsanálos;48,1333;21,0167
1039;3716;Sóstófalva;48,15;21
1040;3717;Alsódobsza;48,1833;21
1041;3718;Megyaszó;48,1833;21,05
1042;3720;Sajókaza;48,2833;20,5833
1043;3720;Sajóivánka;48,2667;20,5833
1044;3721;Felsőnyárád;48,3333;20,6
1045;3721;Jákfalva;48,3333;20,5833
1046;3721;Dövény;48,35;20,55
1047;3722;Felsőkelecsény;48,3667;20,6
1048;3723;Zubogy;48,3833;20,5833
1049;3724;Imola;48,4167;20,55
1050;3724;Ragály;48,4;20,5167
1051;3724;Trizs;48,4333;20,5
1052;3726;Alsószuha;48,3667;20,5167
1053;3726;Szuhafő;48,4167;20,45
1054;3726;Zádorfalva;48,3833;20,4833
1055;3728;Gömörszőlős;48,3833;20,4333
1056;3728;Kelemér;48,35;20,4333
1057;3729;Serényfalva;48,3167;20,4
1058;3731;Szuhakálló;48,2833;20,6667
1059;3732;Kurityán;48,3167;20,6333
1060;3733;Rudabánya;48,3833;20,6333
1061;3734;Szuhogy;48,3833;20,6833
1062;3735;Kánó;48,4333;20,6
1063;3735;Felsőtelekes;48,4;20,6333
1064;3735;Alsótelekes;48,4167;20,6667
1065;3741;Izsófalva;48,3;20,6667
1066;3742;Rudolftelep;48,3167;20,6833
1067;3743;Ormosbánya;48,35;20,65
1068;3744;Múcsony;48,2667;20,6833
1069;3751;Szendrőlád;48,35;20,75
1070;3752;Galvács;48,4167;20,7833
1071;3752;Szendrő;48,4;20,7333
1072;3753;Abod;48,4;20,8
1073;3754;Szalonna;48,45;20,75
1074;3754;Meszes;48,4333;20,8
1075;3755;Martonyi;48,4667;20,7667
1076;3756;Varbóc;48,4667;20,65
1077;3756;Perkupa;48,4667;20,7
1078;3757;Égerszög;48,45;20,5833
1079;3757;Teresztenye;48,45;20,6167
1080;3757;Szőlősardó;48,45;20,6333
1081;3758;Jósvafő;48,4833;20,5667
1082;3759;Aggtelek;48,4667;20,5167
1083;3761;Szin;48,5;20,6667
1084;3761;Tornakápolna;48,4667;20,6167
1085;3761;Szinpetri;48,4833;20,6333
1086;3762;Szögliget;48,5167;20,6833
1087;3763;Bódvaszilas;48,5333;20,7333
1088;3764;Bódvarákó;48,5167;20,75
1089;3765;Tornaszentandrás;48,5167;20,7833
1090;3765;Komjáti;48,55;20,7667
1091;3765;Tornabarakony;48,5;20,8167
1092;3767;Tornanádaska;48,5667;20,7833
1093;3768;Hidvégardó;48,5667;20,85
1094;3768;Bódvalenke;48,55;20,8167
1095;3768;Becskeháza;48,5333;20,85
1096;3769;Tornaszentjakab;48,5167;20,8833
1097;3770;Sajószentpéter;48,2167;20,7167
1098;3773;Sajókápolna;48,2;20,7
1099;3773;Sajólászlófalva;48,1833;20,6833
1100;3775;Kondó;48,2;20,65
1101;3776;Radostyán;48,1833;20,6667
1102;3777;Parasznya;48,1667;20,65
1103;3778;Varbó;48,1667;20,6333
1104;3779;Alacska;48,2167;20,65
1105;3780;Ládbesenyő;48,3;20,7333
1106;3780;Damak;48,3167;20,8333
1107;3780;Balajt;48,3;20,7333
1108;3780;Edelény;48,3;20,7333
1109;3783;Ládbesenyő;48,3;20,7333
1110;3786;Irota;48,4;20,8833
1111;3786;Szakácsi;48,3833;20,8667
1112;3786;Hegymeg;48,3333;20,8667
1113;3786;Lak;48,35;20,8667
1114;3787;Tomor;48,3333;20,8833
1115;3791;Sajókeresztúr;48,1667;20,7833
1116;3792;Sajóbábony;48,1667;20,7333
1117;3793;Sajóecseg;48,2;20,7833
1118;3794;Boldva;48,2167;20,8
1119;3794;Ziliz;48,25;20,8
1120;3795;Hangács;48,3;20,8333
1121;3795;Nyomár;48,2833;20,8167
1122;3796;Borsodszirák;48,2667;20,7667
1123;3800;Szikszó;48,2;20,9333
1124;3809;Abaújszolnok;48,3667;20,9833
1125;3809;Nyésta;48,3667;20,95
1126;3809;Selyeb;48,3333;20,9667
1127;3811;Alsóvadász;48,25;20,9167
1128;3812;Monaj;48,3;20,95
1129;3812;Homrogd;48,2833;20,9167
1130;3813;Kupa;48,3333;20,9167
1131;3814;Felsővadász;48,3667;20,9333
1132;3815;Gadna;48,4;20,9333
1133;3815;Abaújlak;48,4;20,9667
1134;3816;Gagyvendégi;48,4333;20,9833
1135;3817;Gagybátor;48,4333;20,95
1136;3821;Pamlény;48,5;20,9333
1137;3821;Büttös;48,4833;21,0167
1138;3821;Szászfa;48,4667;20,95
1139;3821;Kány;48,5167;21,0167
1140;3821;Perecse;48,5;21
1141;3821;Krasznokvajda;48,4667;20,9833
1142;3821;Keresztéte;48,5;20,95
1143;3825;Debréte;48,5;20,8667
1144;3825;Rakaca;48,4667;20,9
1145;3825;Viszló;48,5;20,9
1146;3826;Rakacaszend;48,4667;20,85
1147;3831;Kázsmárk;48,2833;20,9833
1148;3832;Léh;48,2833;20,9833
1149;3833;Rásonysápberencs;48,3167;21
1150;3834;Beret;48,35;21,0333
1151;3834;Detek;48,3333;21,0333
1152;3836;Baktakék;48,3833;21,0333
1153;3837;Felsőgagy;48,4333;21,0167
1154;3837;Gagyapáti;48,4167;21
1155;3837;Alsógagy;48,4;21,0333
1156;3837;Csenyéte;48,4333;21,05
1157;3841;Aszaló;48,2167;20,9667
1158;3842;Halmaj;48,25;21
1159;3843;Kiskinizs;48,25;21,05
1160;3844;Szentistvánbaksa;48,2167;21,0333
1161;3844;Nagykinizs;48,2333;21,0333
1162;3846;Hernádkércs;48,25;21,05
1163;3847;Felsődobsza;48,2667;21,0667
1164;3848;Csobád;48,2833;21,0333
1165;3849;Forró;48,3167;21,0833
1166;3851;Ináncs;48,2833;21,0667
1167;3852;Hernádszentandrás;48,2833;21,1
1168;3853;Pere;48,2833;21,1333
1169;3853;Hernádbűd;48,3;21,1333
1170;3854;Hernádbűd;48,3;21,1333
1171;3855;Fancsal;48,35;21,0667
1172;3860;Encs;48,3333;21,1333
1173;3861;Encs;48,3333;21,1333
1174;3863;Szalaszend;48,3833;21,1333
1175;3864;Fulókércs;48,4333;21,1167
1176;3865;Fáj;48,4167;21,0833
1177;3866;Szemere;48,4667;21,1
1178;3866;Litka;48,45;21,0667
1179;3871;Méra;48,35;21,15
1180;3872;Novajidrány;48,4;21,1833
1181;3873;Garadna;48,4167;21,1833
1182;3874;Pusztaradvány;48,4667;21,1333
1183;3874;Hernádvécse;48,45;21,1667
1184;3874;Hernádpetri;48,4833;21,1667
1185;3875;Hernádszurdok;48,4833;21,2167
1186;3876;Hidasnémeti;48,5;21,2333
1187;3877;Tornyosnémeti;48,5167;21,2667
1188;3881;Abaújszántó;48,2833;21,2
1189;3881;Sima;48,3;21,3
1190;3881;Baskó;48,3333;21,3333
1191;3882;Abaújalpár;48,3167;21,2333
1192;3882;Abaújkér;48,3;21,2
1193;3884;Boldogkőújfalu;48,3167;21,25
1194;3885;Boldogkőváralja;48,3333;21,2333
1195;3885;Arka;48,35;21,25
1196;3886;Korlát;48,3833;21,25
1197;3887;Hernádcéce;48,35;21,2
1198;3888;Vizsoly;48,3833;21,2167
1199;3891;Vilmány;48,4167;21,2333
1200;3892;Hejce;48,4333;21,2833
1201;3893;Regéc;48,4;21,35
1202;3893;Fony;48,4;21,3
1203;3893;Mogyoróska;48,3833;21,3333
1204;3894;Göncruszka;48,45;21,25
1205;3895;Gönc;48,4667;21,2833
1206;3896;Telkibánya;48,4833;21,3667
1207;3897;Zsujta;48,5;21,2833
1208;3898;Abaújvár;48,5333;21,3167
1209;3898;Pányok;48,5333;21,3667
1210;3899;Kéked;48,55;21,35
1211;3900;Szerencs;48,1667;21,2
1212;3901;Szerencs;48,1667;21,2
1213;3903;Bekecs;48,15;21,1833
1214;3904;Legyesbénye;48,1667;21,15
1215;3905;Monok;48,2167;21,15
1216;3906;Golop;48,2333;21,2
1217;3907;Tállya;48,2333;21,2333
1218;3908;Rátka;48,2167;21,2333
1219;3909;Mád;48,2;21,2833
1220;3910;Tokaj;48,1167;21,4167
1221;3911;Tokaj;48,1167;21,4167
1222;3915;Tarcal;48,1333;21,35
1223;3916;Bodrogkeresztúr;48,1667;21,3667
1224;3917;Bodrogkisfalud;48,1833;21,3667
1225;3918;Szegi;48,2;21,3833
1226;3918;Szegilong;48,2167;21,4
1227;3921;Taktaszada;48,1167;21,1833
1228;3922;Taktaharkány;48,0833;21,1333
1229;3923;Taktaharkány;48,0833;21,1333
1230;3924;Taktakenéz;48,05;21,2167
1231;3925;Prügy;48,0833;21,25
1232;3926;Taktabáj;48,0667;21,3167
1233;3927;Csobaj;48,05;21,35
1234;3928;Tiszatardos;48,05;21,3833
1235;3929;Tiszaladány;48,0667;21,4167
1236;3931;Mezőzombor;48,15;21,2667
1237;3932;Erdőbénye;48,2667;21,3667
1238;3933;Olaszliszka;48,25;21,4333
1239;3934;Tolcsva;48,2833;21,45
1240;3935;Erdőhorváti;48,3167;21,4333
1241;3936;Háromhuta;48,3833;21,4333
1242;3937;Komlóska;48,3333;21,4667
1243;3941;Vámosújfalu;48,2667;21,4667
1244;3942;Sárazsadány;48,2667;21,5
1245;3943;Bodrogolaszi;48,2833;21,5167
1246;3944;Bodrogolaszi;48,2833;21,5167
1247;3945;Bodrogolaszi;48,2833;21,5167
1248;3950;Sárospatak;48,3167;21,5833
1249;3954;Györgytarló;48,2;21,6667
1250;3955;Kenézlő;48,2;21,5333
1251;3956;Viss;48,2167;21,5167
1252;3957;Zalkod;48,1833;21,4667
1253;3958;Hercegkút;48,3333;21,5333
1254;3959;Makkoshotyka;48,35;21,5167
1255;3961;Vajdácska;48,3167;21,6667
1256;3962;Karos;48,3333;21,75
1257;3963;Karcsa;48,3167;21,8
1258;3964;Pácin;48,3333;21,8333
1259;3965;Kisrozvágy;48,35;21,95
1260;3965;Nagyrozvágy;48,3333;21,9167
1261;3967;Lácacséke;48,3667;22
1262;3971;Tiszakarád;48,2;21,7167
1263;3972;Tiszacsermely;48,2333;21,7833
1264;3973;Cigánd;48,25;21,9
1265;3974;Ricse;48,3333;21,9667
1266;3974;Semjén;48,35;21,9667
1267;3976;Révleányvár;48,3167;22,05
1268;3977;Zemplénagárd;48,35;22,0833
1269;3978;Dámóc;48,3667;22,0333
1270;3980;Sátoraljaújhely;48,4;21,6667
1271;3981;Sátoraljaújhely;48,4;21,6667
1272;3985;Felsőberecki;48,3667;21,7
1273;3985;Alsóberecki;48,35;21,7
1274;3987;Bodroghalom;48,3;21,7167
1275;3988;Bodroghalom;48,3;21,7167
1276;3989;Mikóháza;48,475;21,6167
1277;3989;Felsőregmec;48,4833;21,6167
1278;3989;Alsóregmec;48,4667;21,6167
1279;3991;Vilyvitány;48,5;21,5667
1280;3992;Vágáshuta;48,4167;21,55
1281;3992;Kovácsvágás;48,45;21,5333
1282;3993;Füzérradvány;48,4833;21,5333
1283;3994;Kishuta;48,45;21,4833
1284;3994;Filkeháza;48,5;21,5
1285;3994;Nagyhuta;48,4333;21,5
1286;3994;Füzérkajata;48,5167;21,5
1287;3994;Pálháza;48,4667;21,5167
1288;3994;Bózsva;48,4667;21,4667
1289;3995;Pusztafalu;48,55;21,5
1290;3996;Füzér;48,55;21,4667
1291;3997;Füzérkomlós;48,5167;21,4667
1292;3998;Nyíri;48,5;21,45
1293;3999;Hollóháza;48,55;21,4167
1294;4000;Debrecen;47,7675;21,24
1295;4001;Debrecen;47,7675;21,24
1296;4002;Debrecen;47,7675;21,24
1297;4003;Debrecen;47,7675;21,24
1298;4004;Debrecen;47,7675;21,24
1299;4005;Debrecen;47,7675;21,24
1300;4006;Debrecen;47,7675;21,24
1301;4007;Debrecen;47,7675;21,24
1302;4008;Debrecen;47,7675;21,24
1303;4009;Debrecen;47,7675;21,24
1304;4010;Debrecen;47,7675;21,24
1305;4011;Debrecen;47,7675;21,24
1306;4012;Debrecen;47,7675;21,24
1307;4013;Debrecen;47,7675;21,24
1308;4014;Debrecen;47,7675;21,24
1309;4015;Debrecen;47,7675;21,24
1310;4017;Debrecen;47,7675;21,24
1311;4021;Debrecen;47,7675;21,24
1312;4022;Debrecen;47,7675;21,24
1313;4024;Debrecen;47,7675;21,24
1314;4025;Debrecen;47,7675;21,24
1315;4026;Debrecen;47,7675;21,24
1316;4027;Debrecen;47,7675;21,24
1317;4028;Debrecen;47,7675;21,24
1318;4029;Debrecen;47,7675;21,24
1319;4030;Debrecen;47,7675;21,24
1320;4031;Debrecen;47,7675;21,24
1321;4032;Debrecen;47,7675;21,24
1322;4033;Debrecen;47,7675;21,24
1323;4034;Debrecen;47,7675;21,24
1324;4040;Debrecen;47,7675;21,24
1325;4041;Debrecen;47,7675;21,24
1326;4042;Debrecen;47,7675;21,24
1327;4044;Debrecen;47,7675;21,24
1328;4045;Debrecen;47,7675;21,24
1329;4046;Debrecen;47,7675;21,24
1330;4047;Debrecen;47,7675;21,24
1331;4048;Debrecen;47,7675;21,24
1332;4060;Balmazújváros;47,6167;21,35
1333;4063;Balmazújváros;47,6167;21,35
1334;4063;Debrecen;47,6167;21,35
1335;4064;Nagyhegyes;47,5167;21,4167
1336;4065;Újszentmargita;47,7333;21,1
1337;4066;Tiszacsege;47,7;21
1338;4067;Tiszacsege;47,7;21
1339;4069;Egyek;47,6333;20,9
1340;4071;Hortobágy;47,5833;21,1667
1341;4074;Tarnalelesz;47,7708;21,2167
1342;4075;Görbeháza;47,8333;21,2333
1343;4078;Görbeháza;47,8333;21,2333
1344;4079;Görbeháza;47,8333;21,2333
1345;4080;Hajdúnánás;47,85;21,4333
1346;4081;Hajdúnánás;47,85;21,4333
1347;4085;Hajdúnánás;47,85;21,4333
1348;4086;Hajdúnánás;47,85;21,4333
1349;4087;Hajdúdorog;47,8167;21,5
1350;4090;Polgár;47,8667;21,1167
1351;4090;Folyás;47,8;21,1333
1352;4096;Újtikos;47,9167;21,1833
1353;4097;Tiszagyulaháza;47,95;21,15
1354;4100;Berettyóújfalu;47,2167;21,55
1355;4101;Berettyóújfalu;47,2167;21,55
1356;4103;Berettyóújfalu;47,2167;21,55
1357;4110;Biharkeresztes;47,1333;21,7167
1358;4114;Bojt;47,2;21,7333
1359;4115;Ártánd;47,1167;21,7667
1360;4116;Berekböszörmény;47,0667;21,6833
1361;4117;Told;47,1167;21,65
1362;4118;Mezőpeterd;47,1667;21,6167
1363;4119;Váncsod;47,2;21,65
1364;4121;Szentpéterszeg;47,2333;21,6167
1365;4122;Gáborján;47,2333;21,6667
1366;4123;Hencida;47,25;21,7
1367;4124;Esztár;47,2833;21,7833
1368;4125;Pocsaj;47,2833;21,8167
1369;4126;Kismarja;47,25;21,8333
1370;4127;Nagykereki;47,1833;21,8
1371;4128;Bedő;47,1667;21,75
1372;4130;Derecske;47,35;21,5667
1373;4131;Derecske;47,35;21,5667
1374;4132;Tépe;47,3167;21,5833
1375;4133;Konyár;47,3167;21,6667
1376;4134;Mezősas;47,1167;21,5667
1377;4135;Körösszegapáti;47,0333;21,6333
1378;4136;Körösszakál;47,0167;21,6
1379;4137;Magyarhomorog;47,0167;21,55
1380;4138;Komádi;47;21,5
1381;4141;Furta;47,1333;21,4667
1382;4142;Zsáka;47,1333;21,4333
1383;4143;Vekerd;47,1;21,4
1384;4144;Darvas;47,1;21,35
1385;4145;Csökmő;47,0333;21,3
1386;4146;Újiráz;46,9833;21,3667
1387;4150;Püspökladány;47,3167;21,1167
1388;4151;Püspökladány;47,3167;21,1167
1389;4152;Püspökladány;47,3167;21,1167
1390;4155;Püspökladány;47,3167;21,1167
1391;4161;Báránd;47,3;21,2333
1392;4162;Báránd;47,3;21,2333
1393;4163;Szerep;47,2333;21,15
1394;4164;Bakonszeg;47,1833;21,45
1395;4171;Sárrétudvari;47,2333;21,2
1396;4172;Biharnagybajom;47,2167;21,2333
1397;4173;Nagyrábé;47,2;21,3333
1398;4174;Bihartorda;47,2167;21,3667
1399;4175;Bihardancsháza;47,2333;21,3167
1400;4176;Sáp;47,25;21,3667
1401;4177;Földes;47,3;21,3667
1402;4181;Nádudvar;47,4167;21,1667
1403;4183;Kaba;47,35;21,2833
1404;4184;Tetétlen;47,3167;21,3
1405;4200;Hajdúszoboszló;47,4467;21,3924
1406;4201;Hajdúszoboszló;47,45;21,4
1407;4202;Hajdúszoboszló;47,45;21,4
1408;4211;Ebes;47,4667;21,5
1409;4212;Hajdúszovát;47,3833;21,4833
1410;4220;Hajdúböszörmény;47,6667;21,5167
1411;4221;Hajdúböszörmény;47,6667;21,5167
1412;4224;Hajdúböszörmény;47,6667;21,5167
1413;4225;Hajdúböszörmény;47,6667;21,5167
1414;4225;Debrecen;47,6667;21,5167
1415;4231;Bököny;47,7333;21,75
1416;4232;Geszteréd;47,7667;21,7833
1417;4233;Balkány;47,7667;21,8667
1418;4234;Szakoly;47,7667;21,9167
1419;4235;Biri;47,8167;21,85
1420;4241;Bocskaikert;47,4333;21,9167
1421;4242;Hajdúhadház;47,6833;21,6667
1422;4243;Téglás;47,7167;21,6833
1423;4244;Újfehértó;47,8;21,6833
1424;4245;Érpatak;47,8;21,7667
1425;4246;Érpatak;47,8;21,7667
1426;4251;Hajdúsámson;47,6;21,7667
1427;4252;Hajdúsámson;47,6;21,7667
1428;4253;Hajdúsámson;47,6;21,7667
1429;4254;Nyíradony;47,6833;21,9167
1430;4262;Nyíracsád;47,6;21,9833
1431;4263;Nyírmártonfalva;47,5833;21,9
1432;4264;Nyírábrány;47,55;22,0333
1433;4266;Fülöp;47,6;22,0667
1434;4267;Penészlek;47,6333;22,15
1435;4271;Mikepércs;47,45;21,6333
1436;4272;Sáránd;47,4;21,6333
1437;4273;Hajdúbagos;47,4;21,6667
1438;4274;Hosszúpályi;47,4;21,75
1439;4275;Monostorpályi;47,4;21,7833
1440;4281;Létavértes;47,3833;21,9
1441;4283;Létavértes;47,3833;21,9
1442;4284;Kokad;47,4;21,95
1443;4285;Álmosd;47,4167;21,9833
1444;4286;Bagamér;47,45;22
1445;4287;Vámospércs;47,5333;21,9
1446;4288;Újléta;47,4667;21,8833
1447;4300;Nyírbátor;47,8333;22,1333
1448;4301;Nyírbátor;47,8333;22,1333
1449;4311;Nyírgyulaj;47,8833;22,1
1450;4320;Nagykálló;47,8833;21,85
1451;4321;Nagykálló;47,8833;21,85
1452;4324;Kállósemjén;47,8667;21,9333
1453;4325;Kisléta;47,8333;22,0167
1454;4326;Máriapócs;47,8833;22,0333
1455;4327;Pócspetri;47,8833;22
1456;4331;Nyírcsászári;47,8667;22,1833
1457;4332;Nyírderzs;47,9;22,1667
1458;4333;Nyírkáta;47,8667;22,2667
1459;4334;Hodász;47,9167;22,2167
1460;4335;Kántorjánosi;47,9333;22,15
1461;4336;Őr;47,9833;22,2
1462;4337;Jármi;47,9667;22,25
1463;4338;Papos;47,9833;22,25
1464;4341;Nyírvasvári;47,8167;22,1833
1465;4342;Terem;47,8;22,3167
1466;4343;Bátorliget;47,8083;22,25
1467;4351;Vállaj;47,7667;22,3833
1468;4352;Mérk;47,7833;22,3667
1469;4353;Tiborszállás;47,8167;22,4167
1470;4354;Fábiánháza;47,8333;22,3667
1471;4355;Nagyecsed;47,8667;22,4
1472;4356;Nyírcsaholy;47,9;22,3333
1473;4361;Nyírbogát;47,8;22,0667
1474;4362;Nyírgelse;47,75;21,9833
1475;4363;Nyírmihálydi;47,7333;21,9833
1476;4371;Nyírlugos;47,7;22,05
1477;4372;Nyírbéltek;47,7;22,1333
1478;4373;Ömböly;47,7;22,2167
1479;4374;Encsencs;47,7333;22,1167
1480;4375;Piricse;47,7667;22,15
1481;4376;Nyírpilis;47,7833;22,1833
1482;4400;Nyíregyháza;47,95;21,7167
1483;4401;Nyíregyháza;47,95;21,7167
1484;4402;Nyíregyháza;47,95;21,7167
1485;4403;Nyíregyháza;47,95;21,7167
1486;4404;Nyíregyháza;47,95;21,7167
1487;4405;Nyíregyháza;47,95;21,7167
1488;4406;Nyíregyháza;47,95;21,7167
1489;4407;Nyíregyháza;47,95;21,7167
1490;4410;Nyíregyháza;47,95;21,7167
1491;4411;Nyíregyháza;47,95;21,7167
1492;4412;Nyíregyháza;47,95;21,7167
1493;4413;Nyíregyháza;47,95;21,7167
1494;4431;Nyíregyháza;47,95;21,7167
1495;4432;Nyíregyháza;47,95;21,7167
1496;4433;Nyíregyháza;47,95;21,7167
1497;4434;Kálmánháza;47,8833;21,5833
1498;4435;Nyíregyháza;47,95;21,7167
1499;4440;Tiszavasvári;47,9667;21,35
1500;4441;Szorgalmatos;47,9667;21,4875
1501;4444;Szorgalmatos;47,9667;21,4875
1502;4445;Nagycserkesz;47,9667;21,5333
1503;4446;Nagycserkesz;47,9667;21,5333
1504;4447;Nagycserkesz;47,9667;21,5333
1505;4450;Tiszalök;48,0167;21,3833
1506;4455;Tiszadada;48,0333;21,25
1507;4456;Tiszadob;48,0167;21,1667
1508;4461;Nyírtelek;48,0167;21,6333
1509;4463;Tiszanagyfalu;48,1;21,4833
1510;4464;Tiszaeszlár;48,05;21,4667
1511;4465;Rakamaz;48,1333;21,4667
1512;4466;Timár;48,1667;21,4667
1513;4467;Szabolcs;48,1833;21,5
1514;4468;Balsa;48,1833;21,55
1515;4471;Gávavencsellő;48,1667;21,6
1516;4472;Gávavencsellő;48,1667;21,6
1517;4474;Tiszabercel;48,15;21,65
1518;4475;Paszab;48,15;21,6833
1519;4481;Paszab;48,15;21,6833
1520;4482;Kótaj;48,05;21,7167
1521;4483;Buj;48,1;21,65
1522;4484;Ibrány;48,1333;21,7167
1523;4485;Nagyhalász;48,1333;21,7667
1524;4486;Nagyhalász;48,1333;21,7667
1525;4487;Tiszatelek;48,2;21,8
1526;4488;Beszterec;48,15;21,85
1527;4491;Újdombrád;48,2333;21,9333
1528;4492;Dombrád;48,2333;21,9333
1529;4493;Tiszakanyár;48,25;21,9667
1530;4494;Kékcse;48,25;22
1531;4495;Döge;48,2667;22,0833
1532;4496;Szabolcsveresmart;48,3;22,0167
1533;4501;Kemecse;48,0667;21,8
1534;4502;Vasmegyer;48,1167;21,8167
1535;4503;Tiszarád;48,1167;21,8
1536;4511;Nyírbogdány;48,05;21,8833
1537;4512;Nyírbogdány;48,05;21,8833
1538;4515;Kék;48,1167;21,8833
1539;4516;Demecser;48,1167;21,9167
1540;4517;Gégény;48,15;21,95
1541;4521;Berkesz;48,1;21,9833
1542;4522;Nyírtass;48,1167;22,0333
1543;4523;Pátroha;48,1667;22
1544;4524;Ajak;48,1833;22,0667
1545;4525;Rétközberencs;48,2;22,0167
1546;4531;Nyírpazony;47,9833;21,8
1547;4532;Nyírtura;48,0167;21,8333
1548;4533;Sényő;48;21,8833
1549;4534;Székely;48,0667;21,95
1550;4535;Nyíribrony;48,0167;21,9667
1551;4536;Ramocsaháza;48,05;22
1552;4537;Nyírkércs;48,0167;22,05
1553;4541;Nyírjákó;48,0333;22,0833
1554;4542;Petneháza;48,0667;22,0833
1555;4543;Laskod;48,05;22,05
1556;4544;Nyírkarász;48,1;22,1
1557;4545;Gyulaháza;48,1333;22,1167
1558;4546;Anarcs;48,1833;22,1167
1559;4547;Szabolcsbáka;48,15;22,15
1560;4551;Szabolcsbáka;48,15;22,15
1561;4552;Napkor;47,9333;21,8833
1562;4553;Apagy;47,9667;21,9333
1563;4554;Nyírtét;48,0167;21,9333
1564;4555;Levelek;47,9667;22
1565;4556;Magy;47,9333;21,9833
1566;4557;Besenyőd;47,9667;22,0167
1567;4558;Ófehértó;47,9333;22,05
1568;4561;Baktalórántháza;48;22,0833
1569;4562;Vaja;48;22,1667
1570;4563;Rohod;48,0333;22,1333
1571;4564;Nyírmada;48,0667;22,2
1572;4565;Pusztadobos;48,0667;22,2333
1573;4566;Ilk;48,1167;22,2333
1574;4567;Gemzse;48,1333;22,2
1575;4600;Kisvárda;48,2167;22,0833
1576;4601;Kisvárda;48,2167;22,0833
1577;4603;Kisvárda;48,2167;22,0833
1578;4611;Jéke;48,2333;22,1667
1579;4621;Fényeslitke;48,2667;22,1
1580;4622;Komoró;48,3;22,1167
1581;4623;Tuzsér;48,35;22,1333
1582;4624;Tiszabezdéd;48,3667;22,15
1583;4625;Győröcske;48,3833;22,15
1584;4625;Záhony;48,4167;22,1833
1585;4627;Zsurk;48,4167;22,2167
1586;4628;Tiszaszentmárton;48,3833;22,2333
1587;4631;Pap;48,2167;22,15
1588;4632;Nyírlövő;48,2;22,1833
1589;4633;Lövőpetri;48,1833;22,2
1590;4634;Aranyosapáti;48,2;22,2667
1591;4635;Újkenéz;48,25;22,2333
1592;4641;Mezőladány;48,2833;22,2167
1593;4642;Tornyospálca;48,2667;22,1833
1594;4643;Benk;48,3;22,2333
1595;4644;Mándok;48,3167;22,2
1596;4645;Tiszamogyorós;48,3167;22,2333
1597;4646;Eperjeske;48,35;22,2167
1598;4700;Mátészalka;47,95;22,3333
1599;4701;Mátészalka;47,95;22,3333
1600;4702;Mátészalka;47,95;22,3333
1601;4721;Szamoskér;48,0167;22,4167
1602;4722;Nyírmeggyes;47,9167;22,2667
1603;4731;Tunyogmatolcs;47,9667;22,4667
1604;4732;Cégénydányád;47,9333;22,55
1605;4733;Gyügye;47,9333;22,5667
1606;4734;Szamosújlak;47,9167;22,6
1607;4735;Hermánszeg;47,9;22,6333
1608;4735;Szamossályi;47,9;22,6167
1609;4737;Darnó;47,9667;22,6667
1610;4737;Kisnamény;47,95;22,7
1611;4741;Jánkmajtis;47,95;22,65
1612;4742;Csegöld;47,8875;22,6875
1613;4743;Csengersima;47,8667;22,7333
1614;4745;Szamosbecs;47,8667;22,7
1615;4746;Szamostatárfalva;47,8667;22,6667
1616;4751;Kocsord;47,95;22,3833
1617;4752;Győrtelek;47,9333;22,4333
1618;4754;Géberjén;47,9333;22,4667
1619;4754;Fülpösdaróc;47,9333;22,5
1620;4755;Ököritófülpös;47,9167;22,5167
1621;4756;Rápolt;47,9167;22,5667
1622;4761;Porcsalma;47,8833;22,5667
1623;4762;Tyukod;47,85;22,55
1624;4763;Ura;47,8167;22,6167
1625;4764;Csengerújfalu;47,8;22,6333
1626;4765;Komlódtótfalu;47,85;22,7
1627;4765;Csenger;47,8333;22,6833
1628;4766;Pátyod;47,8667;22,6167
1629;4767;Szamosangyalos;47,8667;22,6667
1630;4800;Vásárosnamény;48,1333;22,3167
1631;4801;Vásárosnamény;48,1333;22,3167
1632;4803;Vásárosnamény;48,1333;22,3167
1633;4804;Vásárosnamény;48,1333;22,3167
1634;4811;Kisvarsány;48,15;22,3
1635;4812;Nagyvarsány;48,1667;22,2833
1636;4813;Gyüre;48,1833;22,2833
1637;4821;Ópályi;48;22,3167
1638;4822;Nyírparasznya;48,0333;22,2833
1639;4823;Nagydobos;48,05;22,3167
1640;4824;Szamosszeg;48,05;22,3667
1641;4826;Olcsva;48,0833;22,3333
1642;4831;Tiszaszalka;48,1833;22,3167
1643;4832;Tiszavid;48,2;22,3
1644;4833;Tiszaadony;48,2333;22,3
1645;4834;Tiszakerecseny;48,2667;22,3
1646;4835;Mátyus;48,2833;22,2833
1647;4836;Lónya;48,3167;22,2833
1648;4841;Jánd;48,1167;22,3833
1649;4842;Gulács;48,0833;22,4667
1650;4843;Hetefejércse;48,1167;22,4833
1651;4844;Csaroda;48,1667;22,4667
1652;4845;Tákos;48,15;22,4333
1653;4900;Fehérgyarmat;47,9833;22,5167
1654;4901;Fehérgyarmat;47,9833;22,5167
1655;4911;Nábrád;48;22,45
1656;4912;Kérsemjén;48,0167;22,4167
1657;4913;Panyola;48,05;22,4
1658;4914;Olcsvaapáti;48,0833;22,35
1659;4921;Tivadar;48,0667;22,5167
1660;4921;Kisar;48,05;22,5167
1661;4922;Nagyar;48,05;22,5667
1662;4931;Tarpa;48,1;22,5333
1663;4932;Márokpapi;48,15;22,5167
1664;4933;Beregsurány;48,1667;22,55
1665;4934;Beregdaróc;48,2;22,5333
1666;4935;Gelénes;48,2;22,45
1667;4936;Vámosatya;48,2;22,4167
1668;4937;Barabás;48,2333;22,4333
1669;4941;Penyige;47,9833;22,5667
1670;4942;Mánd;48;22,6167
1671;4942;Nemesborzova;47,9833;22,6333
1672;4943;Kömörő;48,0167;22,5833
1673;4944;Túristvándi;48,05;22,65
1674;4945;Szatmárcseke;48,0833;22,6333
1675;4946;Tiszakóród;48,1;22,7167
1676;4947;Tiszacsécse;48,1;22,75
1677;4948;Milota;48,1;22,7833
1678;4951;Tiszabecs;48,1;22,8167
1679;4952;Uszka;48,0667;22,8667
1680;4953;Magosliget;48,05;22,8667
1681;4954;Sonkád;48,05;22,75
1682;4955;Botpalád;48,0333;22,8
1683;4956;Kispalád;48,0167;22,8333
1684;4961;Zsarolyán;47,95;22,6
1685;4962;Nagyszekeres;47,9667;22,6167
1686;4963;Kisszekeres;47,9667;22,6333
1687;4964;Fülesd;48,0167;22,6833
1688;4965;Kölcse;48,05;22,7167
1689;4966;Vámosoroszi;47,9833;22,6833
1690;4967;Csaholc;47,9833;22,7333
1691;4968;Túrricse;47,9667;22,7667
1692;4969;Tisztaberek;47,95;22,8
1693;4971;Rozsály;47,9167;22,8
1694;4972;Gacsály;47,9333;22,7667
1695;4973;Császló;47,9167;22,7333
1696;4974;Zajta;47,9;22,8
1697;4975;Méhtelek;47,9333;22,85
1698;4976;Garbolc;47,95;22,8667
1699;4977;Kishódos;47,9667;22,8333
1700;4977;Nagyhódos;47,9667;22,85
1701;5000;Szolnok;47,1833;20,2
1702;5001;Szolnok;47,1833;20,2
1703;5002;Szolnok;47,1833;20,2
1704;5003;Szolnok;47,1833;20,2
1705;5004;Szolnok;47,1833;20,2
1706;5005;Szolnok;47,1833;20,2
1707;5006;Szolnok;47,1833;20,2
1708;5007;Szolnok;47,1833;20,2
1709;5008;Szolnok;47,1833;20,2
1710;5009;Szolnok;47,1833;20,2
1711;5051;Zagyvarékas;47,2667;20,1333
1712;5052;Újszász;47,3;20,0833
1713;5053;Szászberek;47,3167;20,1
1714;5054;Jászalsószentgyörgy;47,3667;20,1
1715;5055;Jászladány;47,3667;20,1667
1716;5061;Tiszasüly;47,3833;20,4
1717;5062;Kőtelek;47,3333;20,45
1718;5063;Hunyadfalva;47,3167;20,3833
1719;5064;Csataszög;47,2833;20,4
1720;5065;Nagykörű;47,2667;20,45
1721;5071;Besenyszög;47,3;20,2667
1722;5081;Szajol;47,1833;20,3
1723;5082;Tiszatenyő;47,1333;20,3833
1724;5083;Kengyel;47,0833;20,3333
1725;5084;Rákócziújfalu;47,0667;20,2667
1726;5085;Rákóczifalva;47,0833;20,2333
1727;5091;Tószeg;47,1;20,15
1728;5092;Tiszavárkony;47,0667;20,1833
1729;5093;Vezseny;47,0333;20,2167
1730;5094;Tiszajenő;47,0333;20,15
1731;5095;Tiszajenő;47,0333;20,15
1732;5100;Jászberény;47,5;19,9167
1733;5101;Jászberény;47,5;19,9167
1734;5102;Jászberény;47,5;19,9167
1735;5111;Jászfelsőszentgyörgy;47,5;19,8
1736;5121;Jászjákóhalma;47,5167;20
1737;5122;Jászdózsa;47,5667;20,0167
1738;5123;Jászárokszállás;47,6333;19,9833
1739;5124;Jászágó;47,6;19,8667
1740;5125;Pusztamonostor;47,55;19,8
1741;5126;Jászfényszaru;47,5667;19,7167
1742;5130;Jászapáti;47,5167;20,15
1743;5131;Jászapáti;47,5167;20,15
1744;5135;Jászivány;47,5333;20,25
1745;5136;Jászszentandrás;47,5833;20,1833
1746;5137;Jászkisér;47,45;20,2167
1747;5141;Jásztelek;47,4833;20
1748;5142;Alattyán;47,4333;20,05
1749;5143;Jánoshida;47,3833;20,0667
1750;5144;Jászboldogháza;47,3667;20
1751;5152;Jászboldogháza;47,3667;20
1752;5200;Törökszentmiklós;47,1833;20,4167
1753;5201;Törökszentmiklós;47,1833;20,4167
1754;5211;Tiszapüspöki;47,2167;20,3167
1755;5212;Tiszapüspöki;47,2167;20,3167
1756;5213;Tiszapüspöki;47,2167;20,3167
1757;5222;Örményes;47,2;20,5833
1758;5231;Fegyvernek;47,2667;20,5333
1759;5232;Tiszabő;47,3;20,4833
1760;5233;Tiszagyenda;47,3833;20,5167
1761;5234;Tiszaroff;47,4;20,45
1762;5235;Tiszabura;47,45;20,4667
1763;5241;Abádszalók;47,4667;20,6
1764;5243;Tiszaderzs;47,5167;20,65
1765;5244;Tiszaszőlős;47,6167;20,7667
1766;5300;Karcag;47,3167;20,9333
1767;5301;Karcag;47,3167;20,9333
1768;5302;Karcag;47,3167;20,9333
1769;5309;Berekfürdő;47,3833;20,85
1770;5310;Kisújszállás;47,2167;20,7667
1771;5311;Kisújszállás;47,2167;20,7667
1772;5321;Kunmadaras;47,4333;20,8
1773;5322;Tiszaszentimre;47,4833;20,7333
1774;5323;Tiszaszentimre;47,4833;20,7333
1775;5324;Tomajmonostora;47,4333;20,7167
1776;5331;Kenderes;47,25;20,6833
1777;5340;Kunhegyes;47,3667;20,6333
1778;5341;Kunhegyes;47,3667;20,6333
1779;5349;Kunhegyes;47,3667;20,6333
1780;5350;Tiszafüred;47,6167;20,7667
1781;5351;Tiszafüred;47,6167;20,7667
1782;5358;Tiszafüred;47,6167;20,7667
1783;5359;Tiszafüred;47,6167;20,7667
1784;5361;Tiszaigar;47,5333;20,8
1785;5362;Tiszaörs;47,5167;20,8333
1786;5363;Nagyiván;47,4833;20,9333
1787;5400;Mezőtúr;47;20,6333
1788;5401;Mezőtúr;47;20,6333
1789;5403;Mezőtúr;47;20,6333
1790;5404;Mezőtúr;47;20,6333
1791;5411;Kétpó;47,0833;20,4667
1792;5412;Kuncsorba;47,1333;20,5667
1793;5420;Túrkeve;47,1;20,75
1794;5421;Túrkeve;47,1;20,75
1795;5430;Tiszaföldvár;46,9833;20,25
1796;5431;Tiszaföldvár;46,9833;20,25
1797;5432;Tiszaföldvár;46,9833;20,25
1798;5435;Martfű;47,0167;20,2833
1799;5440;Kunszentmárton;46,8333;20,2833
1800;5441;Kunszentmárton;46,8333;20,2833
1801;5449;Kunszentmárton;46,8333;20,2833
1802;5451;Öcsöd;46,9;20,4
1803;5452;Mesterszállás;46,95;20,4333
1804;5453;Mezőhék;47;20,4
1805;5461;Mezőhék;47;20,4
1806;5462;Cibakháza;46,9667;20,2
1807;5463;Nagyrév;46,95;20,15
1808;5464;Tiszainoka;46,9;20,15
1809;5465;Cserkeszőlő;46,8667;20,1833
1810;5471;Tiszakürt;46,8833;20,1167
1811;5473;Tiszaug;46,8333;20,1542
1812;5474;Tiszasas;46,8167;20,0833
1813;5475;Csépa;46,8;20,1333
1814;5476;Szelevény;46,8333;20,2833
1815;5500;Gyomaendrőd;46,9333;20,8333
1816;5501;Gyomaendrőd;46,9333;20,8333
1817;5502;Gyomaendrőd;46,9333;20,8333
1818;5510;Dévaványa;47,0333;20,9667
1819;5515;Ecsegfalva;47,15;20,9167
1820;5516;Körösladány;46,9667;21,0833
1821;5520;Szeghalom;47,0333;21,1667
1822;5521;Szeghalom;47,0333;21,1667
1823;5525;Füzesgyarmat;47,1;21,2167
1824;5526;Kertészsziget;47,15;21,0667
1825;5527;Bucsa;47,2;21
1826;5530;Vésztő;46,9167;21,2667
1827;5534;Okány;46,9;21,35
1828;5536;Körösújfalu;46,9667;21,4
1829;5537;Zsadány;46,9167;21,5
1830;5538;Biharugra;46,9667;21,6
1831;5539;Körösnagyharsány;47;21,65
1832;5540;Szarvas;46,8667;20,55
1833;5541;Szarvas;46,8667;20,55
1834;5551;Csabacsűd;46,8333;20,65
1835;5552;Kardos;46,8167;20,7708
1836;5553;Kondoros;46,7667;20,8
1837;5555;Hunya;46,8167;20,85
1838;5556;Örménykút;46,85;20,7833
1839;5561;Békésszentandrás;46,8667;20,4833
1840;5600;Békéscsaba;46,6833;21,1
1841;5601;Békéscsaba;46,6833;21,1
1842;5602;Békéscsaba;46,6833;21,1
1843;5603;Békéscsaba;46,6833;21,1
1844;5604;Békéscsaba;46,6833;21,1
1845;5605;Békéscsaba;46,6833;21,1
1846;5609;Csabaszabadi;46,6833;21,0833
1847;5621;Csárdaszállás;46,8667;20,9333
1848;5622;Köröstarcsa;46,8833;21,0333
1849;5623;Köröstarcsa;46,8833;21,0333
1850;5624;Doboz;46,7333;21,25
1851;5630;Békés;46,7667;21,1333
1852;5631;Békés;46,7667;21,1333
1853;5641;Tarhos;46,8167;21,2167
1854;5643;Bélmegyer;46,8667;21,1833
1855;5650;Mezőberény;46,8167;21,0333
1856;5661;Újkígyós;46,5833;21,0333
1857;5662;Csanádapáca;46,55;20,8833
1858;5663;Medgyesbodzás;46,5167;20,9667
1859;5664;Medgyesbodzás;46,5167;20,9667
1860;5665;Pusztaottlaka;46,55;20,9833
1861;5666;Medgyesegyháza;46,5;21,0333
1862;5667;Magyarbánhegyes;46,45;20,9667
1863;5668;Nagybánhegyes;46,4667;20,9
1864;5671;Nagybánhegyes;46,4667;20,9
1865;5672;Murony;46,7667;21,05
1866;5673;Kamut;46,7667;20,9833
1867;5674;Kétsoprony;46,7167;20,8667
1868;5675;Telekgerendás;46,65;20,9667
1869;5700;Gyula;46,6474;21,2773
1870;5701;Gyula;46,65;21,2833
1871;5702;Gyula;46,65;21,2833
1872;5703;Gyula;46,65;21,2833
1873;5711;Gyula;46,65;21,2833
1874;5712;Szabadkígyós;46,6167;21,1
1875;5720;Sarkad;46,75;21,3833
1876;5721;Sarkad;46,75;21,3833
1877;5722;Sarkad;46,75;21,3833
1878;5725;Kötegyán;46,7333;21,4833
1879;5726;Méhkerék;46,7833;21,45
1880;5727;Újszalonta;46,8;21,5
1881;5731;Sarkadkeresztúr;46,8;21,3833
1882;5732;Mezőgyán;46,8667;21,5333
1883;5734;Geszt;46,8833;21,5833
1884;5741;Kétegyháza;46,5333;21,1833
1885;5742;Elek;46,5333;21,25
1886;5743;Lőkösháza;46,4333;21,2333
1887;5744;Kevermes;46,4167;21,1833
1888;5745;Dombiratos;46,4167;21,1167
1889;5746;Kunágota;46,4333;21,05
1890;5747;Almáskamarás;46,4667;21,1
1891;5751;Nagykamarás;46,4667;21,1167
1892;5752;Nagykamarás;46,4667;21,1167
1893;5800;Mezőkovácsháza;46,4;20,9167
1894;5801;Mezőkovácsháza;46,4;20,9167
1895;5802;Mezőkovácsháza;46,4;20,9167
1896;5811;Végegyháza;46,3833;20,8667
1897;5820;Mezőhegyes;46,3167;20,8167
1898;5830;Battonya;46,2833;21,0167
1899;5836;Dombegyház;46,3333;21,1333
1900;5837;Kisdombegyház;46,3667;21,1
1901;5838;Magyardombegyház;46,3833;21,0667
1902;5900;Orosháza;46,5667;20,6667
1903;5901;Orosháza;46,5667;20,6667
1904;5902;Orosháza;46,5667;20,6667
1905;5903;Orosháza;46,5667;20,6667
1906;5904;Orosháza;46,5667;20,6667
1907;5905;Orosháza;46,5667;20,6667
1908;5919;Pusztaföldvár;46,5333;20,8
1909;5920;Csorvás;46,6333;20,8333
1910;5925;Gerendás;46,6;20,8667
1911;5931;Nagyszénás;46,6833;20,6667
1912;5932;Gádoros;46,6667;20,6
1913;5940;Tótkomlós;46,4167;20,7333
1914;5945;Kardoskút;46,4833;20,6667
1915;5946;Békéssámson;46,4167;20,6333
1916;5948;Kaszaper;46,4667;20,8333
1917;6000;Kecskemét;46,9;19,7833
1918;6001;Kecskemét;46,9;19,7833
1919;6002;Kecskemét;46,9;19,7833
1920;6003;Kecskemét;46,9;19,7833
1921;6004;Kecskemét;46,9;19,7833
1922;6005;Kecskemét;46,9;19,7833
1923;6006;Kecskemét;46,9;19,7833
1924;6007;Kecskemét;46,9;19,7833
1925;6008;Kecskemét;46,9;19,7833
1926;6010;Kecskemét;46,9;19,7833
1927;6031;Szentkirály;46,9167;19,9333
1928;6032;Nyárlőrinc;46,8622;19,8733
1929;6033;Városföld;46,8167;19,7667
1930;6034;Helvécia;46,8333;19,6167
1931;6035;Ballószög;46,8667;19,5833
1932;6041;Kerekegyháza;46,9372;19,4781
1933;6042;Fülöpháza;46,8833;19,4167
1934;6043;Kunbaracs;46,9833;19,4167
1935;6044;Kunbaracs;46,9833;19,4167
1936;6045;Ladánybene;47,0333;19,45
1937;6050;Lajosmizse;47,0167;19,55
1938;6055;Felsőlajos;47,0667;19,5167
1939;6060;Tiszakécske;46,9333;20,1
1940;6061;Tiszakécske;46,9333;20,1
1941;6062;Tiszakécske;46,9333;20,1
1942;6063;Tiszakécske;46,9333;20,1
1943;6064;Tiszaug;46,8515;20,0553
1944;6065;Lakitelek;46,8761;19,9889
1945;6066;Tiszaalpár;46,8217;19,9842
1946;6067;Tiszaalpár;46,8217;19,9842
1947;6070;Izsák;46,8014;19,3547
1948;6075;Páhi;46,7167;19,4
1949;6076;Ágasegyháza;46,8333;19,45
1950;6077;Orgovány;46,7486;19,4736
1951;6078;Jakabszállás;46,7603;19,6072
1952;6080;Szabadszállás;46,8728;19,2242
1953;6085;Fülöpszállás;46,8178;19,2386
1954;6086;Szalkszentmárton;46,9742;19,02
1955;6087;Dunavecse;46,9167;18,9833
1956;6088;Apostag;46,8833;18,95
1957;6090;Kunszentmiklós;47,0333;19,1333
1958;6093;Kunszentmiklós;47,0333;19,1333
1959;6096;Kunpeszér;47,0667;19,2833
1960;6097;Kunadacs;46,95;19,3167
1961;6098;Tass;47,0167;19,0333
1962;6100;Kiskunfélegyháza;46,7136;19,8522
1963;6101;Kiskunfélegyháza;46,7136;19,8522
1964;6102;Kiskunfélegyháza;46,7136;19,8522
1965;6111;Gátér;46,6833;19,9667
1966;6112;Pálmonostora;46,6278;19,9422
1967;6113;Petőfiszállás;46,6167;19,8333
1968;6114;Bugac;46,6889;19,6794
1969;6114;Bugacpusztaháza;46,6889;19,6794
1970;6115;Kunszállás;46,7667;19,75
1971;6116;Fülöpjakab;46,6767;19,8343
1972;6120;Kiskunmajsa;46,4903;19,74
1973;6131;Szank;46,5544;19,6722
1974;6132;Móricgát;46,4915;19,7487
1975;6133;Jászszentlászló;46,5681;19,7611
1976;6134;Kömpöc;46,4667;19,8667
1977;6135;Csólyospálos;46,4183;19,8436
1978;6136;Harkakötöny;46,45;19,6
1979;6200;Kiskőrös;46,6206;19,2886
1980;6201;Kiskőrös;46,6206;19,2886
1981;6211;Kaskantyú;46,6667;19,4
1982;6221;Akasztó;46,6917;19,2081
1983;6222;Csengőd;46,7167;19,2667
1984;6223;Soltszentimre;46,7697;19,2831
1985;6224;Tabdi;46,6833;19,3
1986;6230;Soltvadkert;46,5781;19,3958
1987;6235;Bócsa;46,6;19,5
1988;6236;Tázlár;46,5486;19,5203
1989;6237;Kecel;46,5253;19,2519
1990;6238;Imrehegy;46,4833;19,3167
1991;6239;Császártöltés;46,4219;19,1836
1992;6300;Kalocsa;46,5339;18,9861
1993;6301;Kalocsa;46,5264;18,9858
1994;6311;Öregcsertő;46,5139;19,1117
1995;6320;Solt;46,7997;19,0161
1996;6321;Újsolt;46,8667;19,1167
1997;6323;Dunaegyháza;46,8333;18,95
1998;6325;Dunatetétlen;46,75;19,1167
1999;6326;Harta;46,6936;19,0314
2000;6327;Harta;46,6936;19,0314
2001;6328;Dunapataj;46,64;19,0022
2002;6331;Foktő;46,5167;18,9167
2003;6332;Uszód;46,5667;18,9167
2004;6333;Dunaszentbenedek;46,6;18,9
2005;6334;Géderlak;46,6167;18,9167
2006;6335;Ordas;46,6333;18,95
2007;6336;Szakmár;46,5522;19,0742
2008;6337;Újtelek;46,59;19,0586
2009;6341;Homokmégy;46,4869;19,0744
2010;6342;Drágszél;46,4667;19,05
2011;6343;Miske;46,4417;19,0322
2012;6344;Hajós;46,3986;19,1206
2013;6345;Nemesnádudvar;46,3356;19,0531
2014;6346;Sükösd;46,2833;19
2015;6347;Érsekcsanád;46,25;18,9833
2016;6348;Érsekhalma;46,35;19,1167
2017;6351;Bátya;46,4833;18,95
2018;6352;Fajsz;46,4167;18,9167
2019;6353;Dusnok;46,3833;18,9667
2020;6400;Kiskunhalas;46,4314;19,4875
2021;6401;Kiskunhalas;46,4314;19,4875
2022;6402;Kiskunhalas;46,4314;19,4875
2023;6411;Zsana;46,4167;19,6833
2024;6412;Balotaszállás;46,35;19,5333
2025;6413;Kunfehértó;46,35;19,4167
2026;6414;Pirtó;46,5167;19,4333
2027;6421;Kisszállás;46,2783;19,4961
2028;6422;Tompa;46,2178;19,5422
2029;6423;Kelebia;46,1939;19,6119
2030;6424;Csikéria;46,1222;19,4789
2031;6425;Bácsszőlős;46,15;19,45
2032;6430;Bácsalmás;46,1253;19,3361
2033;6435;Kunbaja;46,0836;19,4278
2034;6440;Jánoshalma;46,2986;19,3258
2035;6444;Kéleshalom;46,3667;19,25
2036;6445;Borota;46,2631;19,2253
2037;6446;Rém;46,2431;19,1461
2038;6447;Felsőszentiván;46,195;19,1903
2039;6448;Csávoly;46,1892;19,1467
2040;6449;Mélykút;46,2111;19,3869
2041;6451;Tataháza;46,1742;19,3061
2042;6452;Mátételke;46,1667;19,2833
2043;6453;Bácsbokod;46,1219;19,1589
2044;6454;Bácsborsód;46,0964;19,1581
2045;6455;Katymár;46,0322;19,2108
2046;6456;Madaras;46,055;19,2667
2047;6500;Baja;46,1833;18,9667
2048;6501;Baja;46,1833;18,9667
2049;6502;Baja;46,1833;18,9667
2050;6503;Baja;46,1833;18,9667
2051;6511;Bácsszentgyörgy;45,9722;19,0389
2052;6512;Szeremle;46,15;18,8833
2053;6513;Dunafalva;46,0611;18,9611
2054;6521;Vaskút;46,1167;18,9833
2055;6522;Gara;46,0319;19,0428
2056;6523;Csátalja;46,0333;18,95
2057;6524;Dávod;45,995;18,9172
2058;6525;Hercegszántó;45,95;18,9392
2059;6527;Nagybaracska;46,05;18,9
2060;6528;Bátmonostor;46,1;18,9333
2061;6600;Szentes;46,65;20,2667
2062;6601;Szentes;46,65;20,2667
2063;6602;Szentes;46,65;20,2667
2064;6603;Szentes;46,65;20,2667
2065;6612;Nagytőke;46,7;20,2833
2066;6621;Derekegyház;46,5833;20,3667
2067;6622;Nagymágocs;46,5833;20,5
2068;6623;Árpádhalom;46,6167;20,55
2069;6624;Eperjes;46,6833;20,5667
2070;6625;Fábiánsebestyén;46,6833;20,4667
2071;6630;Mindszent;46,5333;20,2
2072;6635;Szegvár;46,5833;20,2333
2073;6636;Mártély;46,4833;20,2167
2074;6640;Csongrád;46,7;20,15
2075;6641;Csongrád;46,7;20,15
2076;6642;Csongrád;46,7;20,15
2077;6645;Felgyő;46,65;20,1
2078;6646;Tömörkény;46,6167;20,0333
2079;6647;Csanytelek;46,6;20,1167
2080;6648;Csanytelek;46,6;20,1167
2081;6700;Szeged;46,318;20,027
2082;6701;Szeged;46,318;20,027
2083;6702;Szeged;46,318;20,027
2084;6703;Szeged;46,318;20,027
2085;6704;Szeged;46,318;20,027
2086;6705;Szeged;46,318;20,027
2087;6706;Szeged;46,318;20,027
2088;6707;Szeged;46,318;20,027
2089;6708;Szeged;46,318;20,027
2090;6709;Szeged;46,318;20,027
2091;6710;Szeged;46,318;20,027
2092;6712;Szeged;46,318;20,027
2093;6713;Szeged;46,318;20,027
2094;6717;Szeged;46,318;20,027
2095;6718;Szeged;46,318;20,027
2096;6719;Szeged;46,318;20,027
2097;6720;Szeged;46,318;20,027
2098;6721;Szeged;46,318;20,027
2099;6722;Szeged;46,318;20,027
2100;6723;Szeged;46,318;20,027
2101;6724;Szeged;46,318;20,027
2102;6725;Szeged;46,318;20,027
2103;6726;Szeged;46,318;20,027
2104;6727;Szeged;46,318;20,027
2105;6728;Szeged;46,318;20,027
2106;6729;Szeged;46,318;20,027
2107;6740;Szeged;46,318;20,027
2108;6741;Szeged;46,318;20,027
2109;6742;Szeged;46,318;20,027
2110;6743;Szeged;46,318;20,027
2111;6744;Szeged;46,318;20,027
2112;6745;Szeged;46,318;20,027
2113;6746;Szeged;46,318;20,027
2114;6747;Szeged;46,318;20,027
2115;6748;Szeged;46,318;20,027
2116;6750;Algyő;46,17;20,17
2117;6750;Szeged;46,17;20,17
2118;6753;Algyő;46,17;20,17
2119;6753;Szeged;46,17;20,17
2120;6754;Újszentiván;46,1833;20,1833
2121;6755;Kübekháza;46,15;20,2833
2122;6756;Tiszasziget;46,1667;20,1667
2123;6757;Tiszasziget;46,1667;20,1667
2124;6757;Szeged;46,1667;20,1667
2125;6758;Röszke;46,1833;20,05
2126;6760;Kistelek;46,4725;19,9797
2127;6762;Sándorfalva;46,3667;20,1
2128;6763;Szatymaz;46,35;20,05
2129;6764;Balástya;46,4167;20,0167
2130;6765;Csengele;46,5333;19,8667
2131;6766;Dóc;46,4333;20,1333
2132;6767;Ópusztaszer;46,4833;20,0833
2133;6768;Baks;46,55;20,1
2134;6769;Pusztaszer;46,55;19,9833
2135;6771;Pusztaszer;46,55;19,9833
2136;6771;Szeged;46,55;19,9833
2137;6772;Deszk;46,2167;20,25
2138;6773;Klárafalva;46,2167;20,3333
2139;6774;Ferencszállás;46,2167;20,35
2140;6775;Kiszombor;46,1833;20,4333
2141;6781;Domaszék;46,2492;20,0111
2142;6782;Mórahalom;46,2194;19,8911
2143;6783;Ásotthalom;46,2006;19,7906
2144;6784;Öttömös;46,2833;19,6833
2145;6785;Pusztamérges;46,3333;19,6833
2146;6786;Ruzsa;46,2897;19,7544
2147;6787;Zákányszék;46,2667;19,9167
2148;6791;Szeged;46,2667;19,9167
2149;6791;Zákányszék;46,2667;19,9167
2150;6792;Zsombó;46,3333;19,9833
2151;6793;Forráskút;46,3667;19,9167
2152;6794;Üllés;46,3381;19,8519
2153;6795;Bordány;46,3217;19,925
2154;6800;Hódmezővásárhely;46,4167;20,3333
2155;6801;Hódmezővásárhely;46,4167;20,3333
2156;6802;Hódmezővásárhely;46,4167;20,3333
2157;6803;Hódmezővásárhely;46,4167;20,3333
2158;6804;Hódmezővásárhely;46,4167;20,3333
2159;6806;Hódmezővásárhely;46,4167;20,3333
2160;6808;Hódmezővásárhely;46,4167;20,3333
2161;6811;Hódmezővásárhely;46,4167;20,3333
2162;6821;Székkutas;46,5;20,5333
2163;6900;Makó;46,2167;20,4833
2164;6901;Makó;46,2167;20,4833
2165;6902;Makó;46,2167;20,4833
2166;6903;Makó;46,2167;20,4833
2167;6911;Királyhegyes;46,2667;20,6167
2168;6912;Kövegy;46,2167;20,6833
2169;6913;Csanádpalota;46,25;20,7333
2170;6914;Pitvaros;46,2972;20,7028
2171;6915;Csanádalberti;46,3333;20,7167
2172;6916;Ambrózfalva;46,35;20,7333
2173;6917;Nagyér;46,3667;20,7333
2174;6921;Maroslele;46,2667;20,35
2175;6922;Földeák;46,3167;20,5
2176;6923;Óföldeák;46,3;20,45
2177;6931;Apátfalva;46,1667;20,5833
2178;6932;Magyarcsanád;46,1667;20,6167
2179;6933;Nagylak;46,1667;20,7167
2180;7000;Sárbogárd;46,8833;18,6333
2181;7001;Sárbogárd;46,8833;18,6333
2182;7002;Sárbogárd;46,8833;18,6333
2183;7003;Sárbogárd;46,8833;18,6333
2184;7011;Alap;46,8;18,7
2185;7012;Alsószentiván;46,7833;18,7333
2186;7013;Cece;46,7667;18,65
2187;7014;Sáregres;46,7833;18,6
2188;7015;Igar;46,7833;18,5167
2189;7016;Igar;46,7833;18,5167
2190;7017;Mezőszilas;46,8167;18,4833
2191;7018;Mezőszilas;46,8167;18,4833
2192;7019;Mezőszilas;46,8167;18,4833
2193;7020;Dunaföldvár;46,8;18,9333
2194;7021;Dunaföldvár;46,8;18,9333
2195;7025;Bölcske;46,7333;18,9667
2196;7026;Madocsa;46,6833;18,9667
2197;7027;Madocsa;46,6833;18,9667
2198;7030;Paks;46,6333;18,8667
2199;7031;Paks;46,6333;18,8667
2200;7032;Paks;46,6333;18,8667
2201;7038;Pusztahencse;46,6;18,7167
2202;7039;Németkér;46,7167;18,7667
2203;7041;Vajta;46,7167;18,6667
2204;7042;Pálfa;46,7167;18,6333
2205;7043;Bikács;46,6833;18,6667
2206;7044;Nagydorog;46,6333;18,6667
2207;7045;Györköny;46,6333;18,7
2208;7047;Sárszentlőrinc;46,6333;18,6167
2209;7051;Kajdacs;46,5667;18,6333
2210;7052;Kölesd;46,5167;18,5833
2211;7054;Tengelic;46,5333;18,7167
2212;7056;Szedres;46,4833;18,6833
2213;7057;Medina;46,4667;18,65
2214;7061;Belecska;46,65;18,4167
2215;7062;Keszőhidegkút;46,6167;18,4333
2216;7063;Szárazd;46,5667;18,4333
2217;7064;Gyönk;46,55;18,4833
2218;7065;Miszla;46,6333;18,4833
2219;7066;Udvari;46,6;18,5167
2220;7067;Varsád;46,5333;18,5167
2221;7068;Kistormás;46,5;18,5667
2222;7071;Szakadát;46,5333;18,4833
2223;7072;Diósberény;46,5333;18,45
2224;7081;Simontornya;46,75;18,55
2225;7082;Kisszékely;46,6833;18,55
2226;7083;Tolnanémedi;46,7167;18,4833
2227;7084;Pincehely;46,6833;18,45
2228;7085;Nagyszékely;46,65;18,5333
2229;7086;Ozora;46,75;18,4
2230;7087;Fürged;46,7167;18,3
2231;7090;Tamási;46,6333;18,2833
2232;7091;Tamási;46,6333;18,2833
2233;7092;Nagykónyi;46,5833;18,2
2234;7093;Értény;46,6167;18,1333
2235;7094;Koppányszántó;46,6;18,1167
2236;7095;Iregszemcse;46,7;18,1833
2237;7095;Újireg;46,65;18,1833
2238;7097;Nagyszokoly;46,7167;18,2167
2239;7098;Magyarkeszi;46,75;18,2333
2240;7099;Felsőnyék;46,7833;18,3
2241;7100;Szekszárd;46,35;18,7167
2242;7101;Szekszárd;46,35;18,7167
2243;7102;Szekszárd;46,35;18,7167
2244;7103;Szekszárd;46,35;18,7167
2245;7121;Szálka;46,2833;18,6333
2246;7122;Kakasd;46,35;18,6
2247;7130;Tolna;46,4333;18,7833
2248;7131;Tolna;46,4333;18,7833
2249;7132;Bogyiszló;46,3833;18,8333
2250;7133;Fadd;46,4667;18,8333
2251;7134;Gerjen;46,5;18,9
2252;7135;Dunaszentgyörgy;46,5333;18,8333
2253;7136;Fácánkert;46,45;18,7333
2254;7140;Bátaszék;46,1833;18,7333
2255;7142;Pörböly;46,2;18,8167
2256;7143;Őcsény;46,3167;18,7667
2257;7144;Decs;46,2833;18,7667
2258;7145;Sárpilis;46,25;18,75
2259;7146;Várdomb;46,25;18,7
2260;7147;Alsónána;46,25;18,6667
2261;7148;Alsónyék;46,2;18,7333
2262;7149;Báta;46,1333;18,7833
2263;7150;Bonyhád;46,3;18,5333
2264;7151;Bonyhád;46,3;18,5333
2265;7153;Bonyhád;46,3;18,5333
2266;7158;Bonyhádvarasd;46,3667;18,4833
2267;7159;Kisdorog;46,3833;18,5
2268;7161;Cikó;46,25;18,5667
2269;7162;Grábóc;46,2833;18,6167
2270;7163;Mőcsény;46,2667;18,6
2271;7164;Bátaapáti;46,2167;18,6
2272;7165;Mórágy;46,2167;18,65
2273;7171;Sióagárd;46,4;18,65
2274;7172;Harc;46,4;18,6333
2275;7173;Zomba;46,4;18,5667
2276;7174;Kéty;46,4333;18,5333
2277;7175;Felsőnána;46,4667;18,5333
2278;7176;Murga;46,4667;18,4833
2279;7181;Tevel;46,4167;18,45
2280;7182;Závod;46,4;18,4167
2281;7183;Kisvejke;46,3833;18,4167
2282;7184;Lengyel;46,3786;18,4357
2283;7184;Szárász;46,3786;18,4357
2284;7185;Mucsfa;46,35;18,4167
2285;7186;Aparhant;46,3333;18,45
2286;7186;Nagyvejke;46,3833;18,45
2287;7187;Nagyvejke;46,3833;18,45
2288;7188;Szárász;46,34;18,4046
2289;7191;Hőgyész;46,4833;18,4167
2290;7192;Szakály;46,5333;18,3833
2291;7193;Regöly;46,5833;18,4167
2292;7194;Kalaznó;46,5;18,4833
2293;7195;Mucsi;46,4333;18,4
2294;7200;Dombóvár;46,3833;18,1167
2295;7201;Dombóvár;46,3833;18,1167
2296;7202;Dombóvár;46,3833;18,1167
2297;7203;Dombóvár;46,3833;18,1167
2298;7211;Dalmand;46,5;18,1833
2299;7212;Kocsola;46,5333;18,1833
2300;7213;Szakcs;46,5133;18,11
2301;7214;Várong;46,5333;18,05
2302;7214;Lápafő;46,5167;18,0667
2303;7215;Nak;46,4833;18,0667
2304;7224;Dúzs;46,4833;18,3833
2305;7225;Csibrák;46,4667;18,35
2306;7226;Kurd;46,45;18,3167
2307;7227;Gyulaj;46,5;18,3
2308;7228;Döbrököz;46,4167;18,25
2309;7251;Kapospula;46,3524;18,0143
2310;7252;Attala;46,3524;18,0143
2311;7253;Csoma;46,3667;18,05
2312;7253;Szabadi;46,3667;18,0333
2313;7255;Nagyberki;46,3667;18,0167
2314;7256;Kercseliget;46,3333;18,0667
2315;7257;Mosdós;46,35;18
2316;7258;Kaposkeresztúr;46,3333;17,9667
2317;7258;Baté;46,35;17,9667
2318;7261;Kaposhomok;46,3667;17,9167
2319;7261;Taszár;46,3667;17,9167
2320;7271;Fonó;46,4;17,95
2321;7272;Gölle;46,4333;18,0167
2322;7273;Büssü;46,4667;17,9667
2323;7274;Kazsok;46,4833;17,9667
2324;7275;Igal;46,5333;17,95
2325;7276;Somogyszil;46,5167;18
2326;7276;Gadács;46,5333;18,0167
2327;7279;Kisgyalán;46,4167;17,9833
2328;7281;Bonnya;46,5833;17,9
2329;7282;Kisbárapáti;46,6;17,8667
2330;7282;Fiad;46,6333;17,85
2331;7283;Somogyacsa;46,5833;17,95
2332;7284;Somogydöröcske;46,5833;18
2333;7285;Kára;46,6167;18,0167
2334;7285;Szorosad;46,6;18,0333
2335;7285;Törökkoppány;46,6;18,05
2336;7286;Miklósi;46,65;18
2337;7300;Mecsekpölöske;46,2167;18,2167
2338;7300;Komló;46,2;18,2667
2339;7301;Mecsekpölöske;46,2167;18,2167
2340;7302;Mecsekpölöske;46,2167;18,2167
2341;7303;Mecsekpölöske;46,2167;18,2167
2342;7304;Mánfa;46,1667;18,25
2343;7305;Mánfa;46,1667;18,25
2344;7306;Mánfa;46,1667;18,25
2345;7309;Mánfa;46,1667;18,25
2346;7331;Liget;46,2333;18,2
2347;7332;Magyaregregy;46,25;18,3167
2348;7333;Kárász;46,2667;18,3167
2349;7333;Vékény;46,2667;18,35
2350;7334;Köblény;46,3;18,3
2351;7334;Szalatnak;46,2833;18,2833
2352;7341;Csikóstőttős;46,3333;18,1667
2353;7342;Mágocs;46,35;18,2333
2354;7343;Nagyhajmás;46,3278;18,2944
2355;7344;Mekényes;46,3833;18,3333
2356;7345;Alsómocsolád;46,3167;18,25
2357;7346;Bikal;46,3333;18,2833
2358;7347;Egyházaskozár;46,3333;18,3167
2359;7348;Tófű;46,3167;18,3667
2360;7348;Hegyhátmaróc;46,3167;18,3333
2361;7349;Szászvár;46,2667;18,3667
2362;7351;Máza;46,2667;18,4
2363;7352;Györe;46,3;18,4
2364;7353;Izmény;46,3167;18,4167
2365;7354;Váralja;46,2667;18,4333
2366;7355;Nagymányok;46,2833;18,4667
2367;7356;Kismányok;46,2667;18,4833
2368;7357;Jágónak;46,3167;18,0833
2369;7361;Kaposszekcső;46,3333;18,1333
2370;7362;Gerényes;46,3;18,1833
2371;7362;Vásárosdombó;46,3;18,15
2372;7362;Tarrós;46,3056;18,1389
2373;7362;Jágónak;46,3167;18,0833
2374;7370;Felsőegerszeg;46,25;18,1333
2375;7370;Oroszló;46,2167;18,1333
2376;7370;Palé;46,2667;18,0667
2377;7370;Sásd;46,25;18,1167
2378;7370;Varga;46,2333;18,15
2379;7370;Vázsnok;46,2667;18,1333
2380;7370;Meződ;46,2833;18,1
2381;7381;Ág;46,2833;18,2
2382;7381;Kisvaszar;46,2833;18,2167
2383;7381;Tékes;46,2833;18,1667
2384;7383;Baranyaszentgyörgy;46,2333;18,0167
2385;7383;Tormás;46,2333;18
2386;7383;Szágy;46,2333;17,95
2387;7384;Baranyajenő;46,2667;18,05
2388;7385;Gödre;46,2833;17,9833
2389;7386;Gödre;46,2833;17,9833
2390;7391;Kisbeszterce;46,2;18,0333
2391;7391;Kishajmás;46,2;18,0833
2392;7391;Mindszentgodisa;46,2167;18,0667
2393;7393;Bakóca;46,2167;18
2394;7394;Magyarhertelend;46,1833;18,15
2395;7394;Bodolyabér;46,2;18,1167
2396;7396;Magyarszék;46,2;18,2
2397;7400;Kaposvár;46,3667;17,8
2398;7400;Orci;46,4;17,8667
2399;7400;Zselickislak;46,3167;17,8167
2400;7401;Zselickislak;46,3167;17,8167
2401;7402;Zselickislak;46,3167;17,8167
2402;7403;Zselickislak;46,3167;17,8167
2403;7404;Zselickislak;46,3167;17,8167
2404;7405;Zselickislak;46,3167;17,8167
2405;7406;Zselickislak;46,3167;17,8167
2406;7407;Zselickislak;46,3167;17,8167
2407;7408;Zselickislak;46,3167;17,8167
2408;7409;Zselickislak;46,3167;17,8167
2409;7431;Juta;46,4;17,75
2410;7432;Csombárd;46,45;17,6833
2411;7432;Hetes;46,4167;17,7
2412;7434;Mezőcsokonya;46,4333;17,65
2413;7435;Somogysárd;46,4167;17,6
2414;7436;Újvárfalva;46,4333;17,5833
2415;7439;Bodrog;46,4667;17,6667
2416;7441;Magyaregres;46,45;17,7833
2417;7442;Várda;46,45;17,7333
2418;7443;Alsóbogát;46,5;17,75
2419;7443;Somogyjád;46,5;17,7
2420;7443;Edde;46,5167;17,7167
2421;7444;Osztopán;46,5167;17,6667
2422;7452;Somogyaszaló;46,45;17,8167
2423;7453;Mernye;46,5;17,8333
2424;7454;Somodor;46,4833;17,85
2425;7455;Somogygeszti;46,5167;17,7833
2426;7456;Felsőmocsolád;46,5833;17,8333
2427;7457;Ecseny;46,55;17,85
2428;7458;Polány;46,55;17,7833
2429;7463;Magyaratád;46,4667;17,9
2430;7463;Patalom;46,45;17,9167
2431;7464;Ráksi;46,5167;17,9167
2432;7465;Szentgáloskér;46,5;17,8833
2433;7471;Zimány;46,4167;17,9167
2434;7472;Cserénfa;46,3167;17,8833
2435;7472;Szentbalázs;46,3167;17,9
2436;7473;Gálosfa;46,25;17,9
2437;7473;Kaposgyarmat;46,2833;17,8833
2438;7473;Hajmás;46,2833;17,9167
2439;7474;Zselicszentpál;46,3;17,8333
2440;7474;Simonfa;46,2833;17,8333
2441;7475;Bőszénfa;46,2333;17,85
2442;7476;Kaposszerdahely;46,3167;17,75
2443;7477;Patca;46,2833;17,7167
2444;7477;Szenna;46,3;17,7333
2445;7477;Zselickisfalud;46,2667;17,7333
2446;7477;Szilvásszentmárton;46,2667;17,7333
2447;7478;Bárdudvarnok;46,3333;17,6833
2448;7479;Sántos;46,35;17,8833
2449;7500;Nagyatád;46,2167;17,3667
2450;7501;Nagyatád;46,2167;17,3667
2451;7511;Ötvöskónyi;46,2167;17,3667
2452;7512;Mike;46,2333;17,5333
2453;7513;Rinyaszentkirály;46,15;17,4
2454;7514;Tarany;46,1833;17,3
2455;7515;Somogyudvarhely;46,1667;17,2
2456;7516;Berzence;46,2;17,15
2457;7517;Bolhás;46,2667;17,2833
2458;7521;Kaposmérő;46,3667;17,7167
2459;7522;Kaposújlak;46,3667;17,7333
2460;7523;Kisasszond;46,3333;17,6333
2461;7523;Kaposfő;46,3667;17,6667
2462;7524;Kiskorpád;46,35;17,6167
2463;7525;Jákó;46,3333;17,55
2464;7526;Csököly;46,3;17,55
2465;7527;Rinyakovácsi;46,2833;17,6
2466;7527;Gige;46,3;17,6167
2467;7530;Kőkút;46,1833;17,5833
2468;7530;Kadarkút;46,2333;17,6333
2469;7532;Hencse;46,2;17,6333
2470;7533;Visnye;46,1833;17,6833
2471;7533;Hedrehely;46,1833;17,6667
2472;7535;Lad;46,15;17,65
2473;7536;Patosfa;46,1333;17,6667
2474;7537;Homokszentgyörgy;46,1167;17,5833
2475;7538;Kálmáncsa;46,0667;17,6167
2476;7539;Szulok;46,05;17,55
2477;7541;Kutas;46,3333;17,45
2478;7542;Kisbajom;46,3;17,5
2479;7543;Beleg;46,3167;17,4167
2480;7544;Szabás;46,2833;17,45
2481;7545;Nagykorpád;46,2667;17,4667
2482;7551;Lábod;46,2;17,45
2483;7552;Rinyabesenyő;46,1667;17,5167
2484;7553;Görgeteg;46,15;17,4333
2485;7555;Csokonyavisonta;46,0833;17,45
2486;7556;Rinyaújlak;46,0833;17,4167
2487;7557;Rinyaújlak;46,0833;17,4167
2488;7561;Nagybajom;46,3833;17,5167
2489;7561;Pálmajor;46,3833;17,5667
2490;7562;Segesd;46,35;17,35
2491;7563;Somogyszob;46,3;17,3
2492;7564;Kaszó;46,3542;17,4333
2493;7570;Barcs;45,96;17,4586
2494;7571;Barcs;45,96;17,4586
2495;7582;Komlósd;46,0167;17,3833
2496;7582;Péterhida;46,0167;17,3667
2497;7584;Babócsa;46,0333;17,3667
2498;7584;Rinyaújnép;46,0833;17,35
2499;7584;Somogyaracs;46,05;17,4
2500;7585;Háromfa;46,1;17,3333
2501;7585;Bakháza;46,1;17,3667
2502;7586;Bolhó;46,0333;17,3
2503;7587;Heresznye;46,05;17,2833
2504;7588;Vízvár;46,0833;17,2333
2505;7589;Bélavár;46,1167;17,2167
2506;7600;Pécs;46,0967;18,2068
2507;7601;Pécs;46,0967;18,2068
2508;7602;Pécs;46,0967;18,2068
2509;7603;Pécs;46,0967;18,2068
2510;7604;Pécs;46,0967;18,2068
2511;7605;Pécs;46,0967;18,2068
2512;7606;Pécs;46,0967;18,2068
2513;7607;Pécs;46,0967;18,2068
2514;7608;Pécs;46,0967;18,2068
2515;7610;Pécs;46,0967;18,2068
2516;7611;Pécs;46,0967;18,2068
2517;7612;Pécs;46,0967;18,2068
2518;7613;Pécs;46,0967;18,2068
2519;7614;Pécs;46,0967;18,2068
2520;7615;Pécs;46,0967;18,2068
2521;7616;Pécs;46,0967;18,2068
2522;7617;Pécs;46,0967;18,2068
2523;7618;Pécs;46,0967;18,2068
2524;7619;Pécs;46,0967;18,2068
2525;7621;Pécs;46,0967;18,2068
2526;7622;Pécs;46,0967;18,2068
2527;7623;Pécs;46,0967;18,2068
2528;7624;Pécs;46,0967;18,2068
2529;7625;Pécs;46,0967;18,2068
2530;7626;Pécs;46,0967;18,2068
2531;7627;Pécs;46,0967;18,2068
2532;7628;Pécs;46,0967;18,2068
2533;7629;Pécs;46,0967;18,2068
2534;7630;Pécs;46,0967;18,2068
2535;7631;Pécs;46,0967;18,2068
2536;7632;Pécs;46,0967;18,2068
2537;7633;Pécs;46,0967;18,2068
2538;7634;Pécs;46,0967;18,2068
2539;7635;Pécs;46,0967;18,2068
2540;7636;Pécs;46,0967;18,2068
2541;7639;Pécs;46,0967;18,2068
2542;7643;Pécs;46,0967;18,2068
2543;7644;Pécs;46,0967;18,2068
2544;7645;Pécs;46,0967;18,2068
2545;7646;Pécs;46,0967;18,2068
2546;7647;Pécs;46,0967;18,2068
2547;7648;Pécs;46,0967;18,2068
2548;7650;Pécs;46,0967;18,2068
2549;7661;Erzsébet;46,1;18,4667
2550;7661;Kékesd;46,1;18,4667
2551;7661;Kátoly;46,0667;18,45
2552;7661;Szellő;46,0667;18,4667
2553;7663;Máriakéménd;46,0333;18,4667
2554;7664;Berkesd;46,0667;18,4167
2555;7664;Szilágy;46,1;18,4167
2556;7664;Pereked;46,1;18,3833
2557;7666;Pogány;45,98;18,26
2558;7668;Gyód;45,9958;18,1786
2559;7668;Keszü;46,0167;18,1833
2560;7668;Kökény;45,9969;18,2028
2561;7671;Bicsérd;46,0167;18,0833
2562;7671;Zók;46;18,1
2563;7671;Aranyosgadány;46;18,1167
2564;7672;Boda;46,0833;18,05
2565;7673;Kővágószőlős;46,0833;18,1333
2566;7673;Cserkút;46,0667;18,1333
2567;7675;Kővágótöttös;46,0833;18,0833
2568;7675;Bakonya;46,0833;18,0833
2569;7677;Orfű;46,1333;18,15
2570;7678;Abaliget;46,15;18,1167
2571;7678;Kovácsszénája;46,1667;18,1167
2572;7678;Husztót;46,1667;18,0833
2573;7681;Okorvölgy;46,15;18,0667
2574;7681;Hetvehely;46,1333;18,05
2575;7681;Szentkatalin;46,1667;18,05
2576;7682;Bükkösd;46,1;17,9833
2577;7683;Helesfa;46,0833;17,9833
2578;7683;Dinnyeberki;46,0833;17,95
2579;7683;Cserdi;46,0667;18
2580;7691;Pécs;46,0833;17,95
2581;7691;Dinnyeberki;46,0833;17,95
2582;7693;Pécs;46,0833;17,95
2583;7693;Dinnyeberki;46,0833;17,95
2584;7694;Hosszúhetény;46,15;18,35
2585;7695;Ófalu;46,2167;18,5333
2586;7695;Mecseknádasd;46,2167;18,4667
2587;7695;Óbánya;46,2167;18,4167
2588;7696;Hidas;46,2667;18,5
2589;7700;Mohács;45,9931;18,6831
2590;7701;Mohács;45,9931;18,6831
2591;7702;Mohács;45,9931;18,6831
2592;7711;Bár;46,05;18,7167
2593;7712;Dunaszekcső;46,0833;18,7667
2594;7714;Dunaszekcső;46,0833;18,7667
2595;7715;Dunaszekcső;46,0833;18,7667
2596;7716;Homorúd;45,9814;18,7922
2597;7717;Kölked;45,9503;18,7078
2598;7718;Udvar;45,9006;18,6597
2599;7720;Apátvarasd;46,1833;18,4833
2600;7720;Martonfa;46,1167;18,3833
2601;7720;Lovászhetény;46,1667;18,4833
2602;7720;Zengővárkony;46,1667;18,4333
2603;7720;Pécsvárad;46,15;18,4167
2604;7723;Erdősmecske;46,1833;18,5167
2605;7724;Feked;46,1667;18,5667
2606;7725;Szebény;46,1333;18,6
2607;7726;Véménd;46,15;18,6167
2608;7727;Palotabozsok;46,1333;18,65
2609;7728;Görcsönydoboka;46,0667;18,6333
2610;7728;Somberek;46,0833;18,6667
2611;7731;Nagypall;46,15;18,45
2612;7732;Fazekasboda;46,1167;18,4833
2613;7733;Maráza;46,0667;18,5167
2614;7733;Geresdlak;46,1;18,5333
2615;7735;Szűr;46,1;18,5833
2616;7735;Erdősmárok;46,05;18,55
2617;7735;Himesháza;46,0833;18,5667
2618;7737;Székelyszabar;46,05;18,6
2619;7741;Bogád;46,0833;18,3333
2620;7741;Nagykozár;46,0667;18,3333
2621;7741;Romonya;46,0833;18,35
2622;7742;Bogád;46,0833;18,3333
2623;7743;Romonya;46,0833;18,35
2624;7744;Ellend;46,05;18,3833
2625;7745;Olasz;46,0167;18,4167
2626;7745;Hásságy;46,0333;18,3833
2627;7747;Belvárdgyula;45,9722;18,4339
2628;7747;Birján;45,9978;18,3747
2629;7751;Szederkény;45,9969;18,4578
2630;7751;Monyoród;46;18,4833
2631;7752;Versend;45,9953;18,5114
2632;7753;Szajk;45,9906;18,5314
2633;7754;Bóly;45,9672;18,5183
2634;7755;Töttös;45,9156;18,5422
2635;7756;Borjád;45,9339;18,4672
2636;7756;Pócsa;45,9097;18,4708
2637;7756;Kisbudmér;45,9125;18,4475
2638;7756;Nagybudmér;45,9361;18,4456
2639;7757;Babarc;45,9981;18,5547
2640;7757;Liptód;46,05;18,5167
2641;7759;Lánycsók;46;18,6333
2642;7759;Kisnyárád;46,0333;18,5667
2643;7761;Lothárd;45,9989;18,3525
2644;7761;Kozármisleny;46,0333;18,3
2645;7761;Magyarsarlós;46,0333;18,3667
2646;7762;Pécsudvard;46,0167;18,2833
2647;7763;Áta;45,9364;18,2947
2648;7763;Szemely;46,0167;18,3333
2649;7763;Egerág;45,9839;18,3047
2650;7763;Szőkéd;45,9667;18,2869
2651;7763;Kisherend;45,9661;18,3297
2652;7766;Pécsdevecser;45,9567;18,3842
2653;7766;Újpetre;45,9367;18,3625
2654;7766;Peterd;45,9742;18,3589
2655;7766;Kiskassa;45,9531;18,3978
2656;7768;Kistótfalu;45,9075;18,3075
2657;7768;Vokány;45,9094;18,3361
2658;7771;Palkonya;45,8967;18,3897
2659;7772;Ivánbattyán;45,9072;18,4181
2660;7772;Villánykövesd;45,8822;18,4253
2661;7773;Villány;45,8689;18,4539
2662;7773;Kisjakabfalva;45,8958;18,4347
2663;7774;Márok;45,8736;18,5086
2664;7775;Illocska;45,8003;18,5225
2665;7775;Magyarbóly;45,8419;18,4914
2666;7775;Kislippó;45,8272;18,5297
2667;7775;Lapáncsa;45,8192;18,4978
2668;7781;Ivándárda;45,8306;18,5903
2669;7781;Lippó;45,8628;18,57
2670;7781;Sárok;45,8411;18,6114
2671;7782;Bezedek;45,8647;18,5864
2672;7783;Majs;45,9092;18,6003
2673;7784;Nagynyárád;45,9433;18,5781
2674;7785;Sátorhely;45,9408;18,6344
2675;7800;Kisharsány;45,8586;18,3642
2676;7800;Siklós;45,8553;18,2986
2677;7800;Nagytótfalu;45,8639;18,3453
2678;7801;Nagytótfalu;45,8639;18,3453
2679;7802;Nagytótfalu;45,8639;18,3453
2680;7811;Bisse;45,9078;18,2581
2681;7811;Szalánta;45,9486;18,2375
2682;7811;Bosta;45,9483;18,2092
2683;7811;Szilvás;45,9622;18,2
2684;7811;Csarnóta;45,8953;18,2147
2685;7811;Túrony;45,9044;18,2317
2686;7812;Garé;45,9189;18,1933
2687;7813;Szava;45,9022;18,1761
2688;7814;Babarcszőlős;45,9;18,1364
2689;7814;Ócsárd;45,9342;18,1519
2690;7814;Kisdér;45,9406;18,1281
2691;7814;Siklósbodony;45,9103;18,1203
2692;7815;Harkány;45,8478;18,2375
2693;7817;Rádfalva;45,8597;18,1258
2694;7817;Diósviszló;45,8772;18,1633
2695;7817;Márfa;45,86;18,1853
2696;7822;Nagyharsány;45,8464;18,3922
2697;7823;Kistapolca;45,8219;18,3847
2698;7823;Siklósnagyfalu;45,8197;18,3614
2699;7824;Egyházasharaszti;45,8094;18,3336
2700;7824;Old;45,7881;18,3522
2701;7826;Alsószentmárton;45,7892;18,3056
2702;7827;Kásád;45,7783;18,3989
2703;7827;Beremend;45,7853;18,4347
2704;7831;Pellérd;46,0333;18,15
2705;7833;Görcsöny;45,9694;18,1358
2706;7833;Szőke;45,96;18,1858
2707;7833;Regenye;45,9692;18,1681
2708;7834;Baksa;45,9536;18,0889
2709;7834;Tengeri;45,9261;18,0881
2710;7834;Téseny;45,9399;18,0885
2711;7836;Bogádmindszent;45,9069;18,0406
2712;7836;Ózdfalu;45,9292;18,0217
2713;7837;Hegyszentmárton;45,9039;18,09
2714;7838;Nagycsány;45,8667;17,95
2715;7838;Hirics;45,8167;18
2716;7838;Piskó;45,8167;17,95
2717;7838;Besence;45,9;17,9667
2718;7838;Vajszló;45,8633;17,9761
2719;7838;Lúzsok;45,8333;17,95
2720;7838;Páprád;45,8925;18,0097
2721;7838;Vejti;45,8167;17,9667
2722;7839;Kemse;45,8167;17,9167
2723;7839;Zaláta;45,8167;17,8833
2724;7841;Baranyahídvég;45,8464;18,0233
2725;7841;Sámod;45,8544;18,0375
2726;7841;Adorjás;45,8506;18,0628
2727;7841;Kisszentmárton;45,8242;18,0242
2728;7841;Kórós;45,8669;18,0844
2729;7843;Cún;45,8125;18,0669
2730;7843;Kémes;45,8242;18,1011
2731;7843;Drávapiski;45,84;18,1011
2732;7843;Tésenfa;45,8131;18,1183
2733;7843;Szaporca;45,8136;18,1044
2734;7846;Drávacsepely;45,8292;18,1386
2735;7847;Kovácshida;45,8342;18,1814
2736;7847;Drávaszerdahely;45,8358;18,1633
2737;7847;Ipacsfa;45,8347;18,2033
2738;7849;Drávacsehi;45,8128;18,1672
2739;7850;Drávapalkonya;45,8031;18,1789
2740;7851;Drávapalkonya;45,8031;18,1789
2741;7851;Drávacsehi;45,8128;18,1672
2742;7851;Drávaszabolcs;45,8058;18,2114
2743;7853;Gordisa;45,7964;18,2333
2744;7854;Matty;45,7981;18,2661
2745;7900;Botykapeterd;46,05;17,8667
2746;7900;Szigetvár;46,05;17,8
2747;7900;Csertő;46,1;17,8167
2748;7901;Csertő;46,1;17,8167
2749;7912;Nyugotszenterzsébet;46,0833;17,9167
2750;7912;Nagyváty;46,0667;17,9333
2751;7912;Nagypeterd;46,05;17,9
2752;7913;Szentdénes;46;17,9333
2753;7914;Katádfa;46;17,8667
2754;7914;Rózsafa;46,0167;17,8833
2755;7914;Bánfa;45,9833;17,8833
2756;7915;Szentegát;45,9667;17,8333
2757;7915;Dencsháza;46;17,8333
2758;7918;Tótújfalu;45,8994;17,6556
2759;7918;Szentborbás;45,8833;17,6667
2760;7918;Lakócsa;45,8964;17,6839
2761;7921;Somogyhatvan;46,1167;17,7167
2762;7922;Basal;46,0667;17,7833
2763;7922;Somogyapáti;46,0833;17,75
2764;7922;Somogyviszló;46,1167;17,7667
2765;7922;Patapoklosi;46,0667;17,75
2766;7923;Basal;46,0667;17,7833
2767;7924;Somogyviszló;46,1167;17,7667
2768;7925;Magyarlukafa;46,1667;17,7667
2769;7925;Somogyhárságy;46,1667;17,7833
2770;7926;Vásárosbéc;46,1833;17,7333
2771;7932;Almáskeresztúr;46,1167;17,9
2772;7932;Szulimán;46,1333;17,8
2773;7932;Mozsgó;46,1167;17,85
2774;7934;Almamellék;46,15;17,8833
2775;7935;Horváthertelend;46,1667;17,9167
2776;7935;Csebény;46,1833;17,9333
2777;7935;Ibafa;46,15;17,9167
2778;7936;Szentlászló;46,15;17,8333
2779;7937;Boldogasszonyfa;46,1833;17,8333
2780;7940;Szentlőrinc;46,05;17,9833
2781;7940;Csonkamindszent;46,05;17,9667
2782;7940;Kacsóta;46,0333;17,95
2783;7951;Gerde;45,9897;18,0242
2784;7951;Pécsbagota;45,9903;18,0733
2785;7951;Szabadszentkirály;46,0167;18,0333
2786;7951;Velény;45,9803;18,0533
2787;7953;Királyegyháza;46;17,9667
2788;7954;Gilvánfa;45,9167;17,9667
2789;7954;Magyartelek;45,9333;17,9833
2790;7954;Gyöngyfa;45,9667;17,95
2791;7954;Kisasszonyfa;45,9467;18,0061
2792;7954;Magyarmecske;45,95;17,9667
2793;7957;Okorág;45,9167;17,8833
2794;7958;Kákics;45,9025;17,8528
2795;7960;Marócsa;45,9167;17,8167
2796;7960;Drávaiványi;45,85;17,8167
2797;7960;Sellye;45,8747;17,8439
2798;7960;Drávasztára;45,8167;17,8167
2799;7960;Sósvertike;45,8333;17,8667
2800;7960;Sumony;45,9714;17,9058
2801;7964;Csányoszró;45,8819;17,9019
2802;7966;Bogdása;45,8833;17,8
2803;7967;Markóc;45,8667;17,7667
2804;7967;Drávafok;45,8864;17,76
2805;7967;Drávakeresztúr;45,8333;17,7667
2806;7968;Felsőszentmárton;45,8522;17,7
2807;7971;Hobol;46,0167;17,7667
2808;7972;Gyöngyösmellék;45,9833;17,7
2809;7972;Pettend;46;17,7
2810;7973;Bürüs;45,9667;17,7667
2811;7973;Teklafalu;45,95;17,7333
2812;7973;Endrőc;45,9294;17,7586
2813;7973;Várad;45,9667;17,75
2814;7975;Kétújfalu;45,9669;17,705
2815;7976;Zádor;45,9667;17,6653
2816;7976;Szörény;45,9667;17,6833
2817;7977;Drávagárdony;45,95;17,6167
2818;7977;Potony;45,9303;17,6433
2819;7977;Kastélyosdombó;45,9544;17,6133
2820;7979;Drávatamási;45,9444;17,5694
2821;7980;Pettend;46;17,7
2822;7981;Kistamási;46,0167;17,7333
2823;7981;Merenye;46,0667;17,7
2824;7981;Tótszentgyörgy;46,0333;17,725
2825;7981;Molvány;46,0333;17,75
2826;7981;Nemeske;46,0167;17,7167
2827;7985;Kisdobsza;46,0333;17,6667
2828;7985;Nagydobsza;46,0333;17,6667
2829;7987;Istvándi;46,0167;17,6333
2830;7988;Darány;45,9803;17,5853
2831;8000;Székesfehérvár;47,2;18,4166
2832;8001;Székesfehérvár;47,2;18,4167
2833;8002;Székesfehérvár;47,2;18,4167
2834;8003;Székesfehérvár;47,2;18,4167
2835;8004;Székesfehérvár;47,2;18,4167
2836;8005;Székesfehérvár;47,2;18,4167
2837;8006;Székesfehérvár;47,2;18,4167
2838;8007;Székesfehérvár;47,2;18,4167
2839;8008;Székesfehérvár;47,2;18,4167
2840;8011;Székesfehérvár;47,2;18,4167
2841;8019;Székesfehérvár;47,2;18,4167
2842;8020;Székesfehérvár;47,2;18,4167
2843;8041;Csór;47,2;18,2667
2844;8042;Moha;47,25;18,3333
2845;8043;Iszkaszentgyörgy;47,2333;18,3
2846;8044;Kincsesbánya;47,25;18,2667
2847;8045;Isztimér;47,2833;18,2
2848;8046;Bakonykúti;47,25;18,2
2849;8051;Sárkeresztes;47,25;18,35
2850;8052;Fehérvárcsurgó;47,3;18,2667
2851;8053;Bodajk;47,3167;18,2333
2852;8054;Bodajk;47,3167;18,2333
2853;8055;Balinka;47,3167;18,1833
2854;8056;Bakonycsernye;47,3167;18,0833
2855;8060;Mór;47,3833;18,2
2856;8061;Mór;47,3833;18,2
2857;8062;Mór;47,3833;18,2
2858;8065;Nagyveleg;47,3667;18,1167
2859;8066;Pusztavám;47,4333;18,2333
2860;8071;Magyaralmás;47,3;18,3333
2861;8072;Söréd;47,3167;18,2833
2862;8073;Csákberény;47,35;18,3333
2863;8074;Csókakő;47,35;18,2667
2864;8080;Bodmér;47,45;18,55
2865;8081;Zámoly;47,3167;18,4167
2866;8082;Gánt;47,3833;18,4
2867;8083;Csákvár;47,4;18,45
2868;8084;Csákvár;47,4;18,45
2869;8085;Vértesboglár;47,4333;18,5333
2870;8086;Felcsút;47,45;18,5833
2871;8087;Alcsútdoboz;47,4167;18,6167
2872;8088;Tabajd;47,4;18,6333
2873;8089;Vértesacsa;47,3667;18,5833
2874;8092;Pátka;47,2833;18,5
2875;8093;Lovasberény;47,3;18,55
2876;8095;Pákozd;47,2167;18,55
2877;8096;Sukoró;47,2333;18,6167
2878;8097;Nadap;47,2667;18,6167
2879;8100;Várpalota;47,2;18,1333
2880;8101;Várpalota;47,2;18,1333
2881;8102;Várpalota;47,2;18,1333
2882;8103;Várpalota;47,2;18,1333
2883;8104;Várpalota;47,2;18,1333
2884;8105;Pétfürdő;47,1667;18,1167
2885;8109;Tés;47,2667;18,0333
2886;8111;Seregélyes;47,1;18,5833
2887;8112;Zichyújfalu;47,1333;18,6833
2888;8121;Tác;47,0833;18,4
2889;8122;Csősz;47,0333;18,4167
2890;8123;Soponya;47,0167;18,45
2891;8124;Káloz;46,95;18,4833
2892;8125;Sárkeresztúr;47;18,55
2893;8126;Sárszentágota;46,9667;18,5667
2894;8127;Aba;47,0333;18,5167
2895;8130;Enying;46,9333;18,25
2896;8131;Enying;46,9333;18,25
2897;8132;Lepsény;47;18,25
2898;8133;Mezőszentgyörgy;47;18,2833
2899;8134;Mátyásdomb;46,9167;18,35
2900;8135;Dég;46,8667;18,45
2901;8136;Lajoskomárom;46,85;18,35
2902;8137;Mezőkomárom;46,8333;18,2833
2903;8138;Szabadhídvég;46,8167;18,2833
2904;8142;Úrhida;47,1333;18,3333
2905;8143;Sárszentmihály;47,15;18,3333
2906;8144;Sárkeszi;47,1667;18,2833
2907;8145;Nádasdladány;47,1333;18,25
2908;8146;Jenő;47,1;18,25
2909;8151;Szabadbattyán;47,1167;18,3833
2910;8152;Kőszárhegy;47,1;18,3333
2911;8153;Kőszárhegy;47,1;18,3333
2912;8154;Polgárdi;47,05;18,3
2913;8156;Kisláng;46,9667;18,3833
2914;8157;Füle;47,05;18,25
2915;8161;Ősi;47,15;18,2
2916;8162;Küngös;47,0667;18,1833
2917;8163;Csajág;47,05;18,1833
2918;8164;Balatonfőkajár;47,0167;18,2167
2919;8171;Balatonvilágos;46,9667;18,1667
2920;8172;Balatonvilágos;46,9667;18,1667
2921;8173;Balatonvilágos;46,9667;18,1667
2922;8174;Balatonkenese;47,0333;18,1167
2923;8175;Balatonfűzfő;47,0667;18,05
2924;8181;Berhida;47,1167;18,1333
2925;8182;Berhida;47,1167;18,1333
2926;8183;Papkeszi;47,0833;18,0833
2927;8184;Papkeszi;47,0833;18,0833
2928;8191;Öskü;47,1667;18,0833
2929;8192;Hajmáskér;47,15;18,0167
2930;8193;Sóly;47,1333;18,0333
2931;8194;Vilonya;47,1167;18,0667
2932;8195;Királyszentistván;47,1;18,05
2933;8196;Litér;47,1;18,0167
2934;8200;Veszprém;47,1;17,9167
2935;8201;Veszprém;47,1;17,9167
2936;8202;Veszprém;47,1;17,9167
2937;8204;Veszprém;47,1;17,9167
2938;8205;Veszprém;47,1;17,9167
2939;8206;Veszprém;47,1;17,9167
2940;8207;Veszprém;47,1;17,9167
2941;8220;Balatonalmádi;47,033;18,0164
2942;8221;Balatonalmádi;47,0333;18,0167
2943;8222;Balatonalmádi;47,0333;18,0167
2944;8225;Szentkirályszabadja;47,05;17,9667
2945;8226;Alsóörs;46,9833;17,9833
2946;8227;Felsőörs;47,0167;17,95
2947;8228;Lovas;47;17,9667
2948;8229;Csopak;46,9833;17,9333
2949;8229;Paloznak;46,9833;17,95
2950;8230;Balatonfüred;46,95;17,8833
2951;8230;Balatonszőlős;46,9616;17,875
2952;8231;Balatonszőlős;46,9667;17,8333
2953;8232;Balatonszőlős;46,9667;17,8333
2954;8233;Balatonszőlős;46,9667;17,8333
2955;8236;Balatonszőlős;46,9667;17,8333
2956;8237;Tihany;46,9167;17,9
2957;8241;Aszófő;46,9333;17,8333
2958;8242;Örvényes;46,9167;17,8167
2959;8242;Balatonudvari;46,9;17,8167
2960;8243;Balatonakali;46,8833;17,75
2961;8244;Dörgicse;46,9167;17,7167
2962;8245;Pécsely;46,95;17,7833
2963;8245;Vászoly;46,9333;17,7667
2964;8246;Tótvázsony;47,0167;17,7833
2965;8247;Hidegkút;47;17,8333
2966;8248;Veszprémfajsz;47,0333;17,9
2967;8248;Nemesvámos;47,05;17,8833
2968;8251;Zánka;46,8833;17,6833
2969;8252;Balatonszepezd;46,85;17,6667
2970;8253;Révfülöp;46,8333;17,6333
2971;8254;Kővágóörs;46,85;17,6
2972;8254;Kékkút;46,85;17,5667
2973;8255;Balatonrendes;46,8333;17,5833
2974;8256;Salföld;46,8333;17,55
2975;8256;Ábrahámhegy;46,8167;17,5667
2976;8257;Salföld;46,8333;17,55
2977;8258;Badacsonytomaj;46,8;17,5167
2978;8261;Badacsonytomaj;46,8;17,5167
2979;8263;Badacsonytördemic;46,8167;17,4833
2980;8264;Szigliget;46,8;17,4333
2981;8265;Hegymagas;46,8333;17,4333
2982;8271;Mencshely;46,95;17,7
2983;8272;Balatoncsicsó;46,9333;17,6667
2984;8272;Szentjakabfa;46,9333;17,6667
2985;8272;Szentantalfa;46,9167;17,6833
2986;8272;Óbudavár;46,9333;17,7
2987;8272;Tagyon;46,9;17,6833
2988;8273;Monoszló;46,9;17,65
2989;8274;Köveskál;46,8833;17,6
2990;8275;Balatonhenye;46,9167;17,6167
2991;8281;Szentbékkálla;46,8833;17,5667
2992;8282;Mindszentkálla;46,8667;17,55
2993;8283;Káptalantóti;46,85;17,5167
2994;8284;Kisapáti;46,85;17,4667
2995;8284;Nemesgulács;46,8333;17,4833
2996;8286;Gyulakeszi;46,8667;17,4833
2997;8291;Vöröstó;46,9667;17,7167
2998;8291;Barnag;46,9833;17,75
2999;8291;Nagyvázsony;46,9833;17,7
3000;8291;Pula;47;17,65
3001;8292;Öcs;47;17,6167
3002;8294;Kapolcs;46,95;17,6167
3003;8294;Vigántpetend;46,9667;17,6333
3004;8295;Taliándörögd;46,9833;17,5667
3005;8296;Hegyesd;46,9167;17,5167
3006;8296;Monostorapáti;46,9167;17,5667
3007;8297;Hegyesd;46,9167;17,5167
3008;8300;Raposka;46,8806;17,4362
3009;8300;Tapolca;46,8833;17,4333
3010;8301;Raposka;46,85;17,4333
3011;8302;Raposka;46,85;17,4333
3012;8303;Raposka;46,85;17,4333
3013;8308;Zalahaláp;46,9167;17,4667
3014;8308;Sáska;46,9333;17,4833
3015;8311;Nemesvita;46,8167;17,3667
3016;8312;Balatonederics;46,8167;17,3833
3017;8313;Balatongyörök;46,75;17,3667
3018;8314;Vonyarcvashegy;46,75;17,3167
3019;8315;Gyenesdiás;46,7667;17,2833
3020;8316;Vállus;46,85;17,3
3021;8316;Várvölgy;46,8667;17,3
3022;8318;Lesencefalu;46,85;17,35
3023;8318;Lesencetomaj;46,85;17,3667
3024;8319;Lesenceistvánd;46,8667;17,35
3025;8321;Uzsa;46,9;17,3333
3026;8330;Sümeg;46,9833;17,2833
3027;8331;Sümeg;46,9833;17,2833
3028;8341;Szalapa;46,9833;17,15
3029;8341;Kisvásárhely;47;17,2
3030;8341;Mihályfa;46,9833;17,1833
3031;8342;Óhíd;46,9667;17,1833
3032;8344;Hetyefő;47,05;17,1667
3033;8344;Zalaerdőd;47,05;17,1333
3034;8345;Dabronc;47,0333;17,1667
3035;8346;Gógánfa;47,0167;17,1833
3036;8347;Ukk;47,05;17,2167
3037;8348;Megyer;47,0667;17,2
3038;8348;Zalameggyes;47,0833;17,2167
3039;8348;Rigács;47,0667;17,2167
3040;8349;Zalagyömörő;47,0167;17,2333
3041;8351;Sümegprága;46,9333;17,2833
3042;8352;Bazsi;46,9333;17,25
3043;8353;Vindornyalak;46,8833;17,2
3044;8353;Zalaszántó;46,8833;17,2333
3045;8354;Karmacs;46,8333;17,1833
3046;8354;Zalaköveskút;46,85;17,15
3047;8354;Vindornyafok;46,85;17,1833
3048;8355;Vindornyaszőlős;46,9;17,1667
3049;8356;Nagygörbő;46,9333;17,1833
3050;8356;Kisgörbő;46,9333;17,1667
3051;8357;Döbröce;46,9333;17,2
3052;8357;Sümegcsehi;46,95;17,2167
3053;8360;Keszthely;46,7658;17,2574
3054;8361;Keszthely;46,7667;17,25
3055;8362;Keszthely;46,7667;17,25
3056;8363;Keszthely;46,7667;17,25
3057;8364;Keszthely;46,7667;17,25
3058;8371;Nemesbük;46,8167;17,15
3059;8372;Cserszegtomaj;46,8;17,2167
3060;8373;Rezi;46,85;17,2167
3061;8380;Felsőpáhok;46,7899;17,1838
3062;8380;Hévíz;46,7833;17,1667
3063;8381;Felsőpáhok;46,7833;17,1667
3064;8391;Sármellék;46,7167;17,1667
3065;8392;Zalavár;46,6667;17,1667
3066;8393;Szentgyörgyvár;46,75;17,1333
3067;8394;Alsópáhok;46,7667;17,1833
3068;8400;Ajka;47,1;17,5667
3069;8401;Ajka;47,1;17,5667
3070;8403;Ajka;47,1;17,5667
3071;8404;Ajka;47,1;17,5667
3072;8408;Ajka;47,1;17,5667
3073;8409;Úrkút;47,0833;17,6333
3074;8411;Úrkút;47,0833;17,6333
3075;8412;Úrkút;47,0833;17,6333
3076;8413;Eplény;47,2167;17,9167
3077;8414;Olaszfalu;47,2333;17,9167
3078;8415;Nagyesztergár;47,2833;17,9
3079;8416;Dudar;47,3;17,95
3080;8417;Csetény;47,3167;18
3081;8418;Bakonyoszlop;47,35;17,9333
3082;8419;Csesznek;47,35;17,8833
3083;8420;Zirc;47,2667;17,8667
3084;8422;Bakonynána;47,2833;17,9667
3085;8423;Szápár;47,3167;18,0333
3086;8424;Jásd;47,2833;18,0333
3087;8425;Lókút;47,2;17,8667
3088;8426;Pénzesgyőr;47,2333;17,7833
3089;8427;Bakonybél;47,25;17,7333
3090;8428;Borzavár;47,3;17,8333
3091;8429;Porva;47,3167;17,8167
3092;8430;Bakonyszentkirály;47,3667;17,8833
3093;8431;Bakonyszentlászló;47,4;17,825
3094;8432;Fenyőfő;47,4;17,825
3095;8433;Bakonygyirót;47,4;17,825
3096;8434;Románd;47,4;17,825
3097;8435;Gic;47,4333;17,7667
3098;8436;Bakonypéterd;47,4;17,825
3099;8437;Lázi;47,4;17,825
3100;8438;Veszprémvarsány;47,4;17,825
3101;8439;Sikátor;47,4;17,825
3102;8440;Herend;47,1333;17,75
3103;8441;Márkó;47,1167;17,8167
3104;8442;Hárskút;47,1833;17,8167
3105;8443;Bánd;47,1167;17,8
3106;8444;Szentgál;47,1167;17,7333
3107;8445;Csehbánya;47,1833;17,6833
3108;8445;Városlőd;47,15;17,65
3109;8446;Kislőd;47,15;17,6167
3110;8447;Kislőd;47,15;17,6167
3111;8448;Kislőd;47,15;17,6167
3112;8449;Magyarpolány;47,1667;17,55
3113;8451;Magyarpolány;47,1667;17,55
3114;8452;Halimba;47,0333;17,5333
3115;8452;Szőc;47,0167;17,5167
3116;8454;Nyirád;47;17,45
3117;8455;Pusztamiske;47,0667;17,45
3118;8456;Noszlop;47,1833;17,4667
3119;8457;Bakonypölöske;47,2;17,4833
3120;8458;Oroszi;47,15;17,4167
3121;8460;Devecser;47,1;17,4333
3122;8461;Devecser;47,1;17,4333
3123;8468;Kolontár;47,0833;17,4833
3124;8469;Kamond;47,1333;17,2
3125;8471;Nemeshany;47,0667;17,3667
3126;8471;Káptalanfa;47,0667;17,35
3127;8471;Bodorfa;47,0667;17,3333
3128;8473;Gyepükaján;47,05;17,3333
3129;8474;Csabrendek;47,0167;17,3
3130;8475;Hosztót;47,0833;17,25
3131;8475;Veszprémgalsa;47,1;17,2833
3132;8475;Szentimrefalva;47,0667;17,2833
3133;8476;Zalaszegvár;47,1;17,2333
3134;8477;Apácatorna;47,1167;17,3
3135;8477;Tüskevár;47,1167;17,3167
3136;8477;Kisberzseny;47,1;17,2667
3137;8478;Somlójenő;47,1167;17,3667
3138;8479;Borszörcsök;47,1333;17,4
3139;8481;Somlóvásárhely;47,1167;17,3833
3140;8482;Doba;47,1667;17,3833
3141;8483;Kisszőlős;47,2;17,3333
3142;8483;Somlószőlős;47,1667;17,3667
3143;8484;Vid;47,2167;17,35
3144;8484;Somlóvecse;47,2;17,35
3145;8484;Nagyalásony;47,2333;17,35
3146;8485;Dabrony;47,25;17,3333
3147;8491;Karakószörcsök;47,1333;17,2833
3148;8492;Kerta;47,1667;17,2833
3149;8493;Iszkáz;47,1667;17,3
3150;8494;Kiscsősz;47,2;17,2833
3151;8495;Csögle;47,2167;17,2667
3152;8496;Kispirit;47,2;17,25
3153;8496;Nagypirit;47,2;17,2333
3154;8497;Adorjánháza;47,2333;17,25
3155;8497;Egeralja;47,2333;17,25
3156;8500;Pápa;47,3333;17,4667
3157;8501;Pápa;47,3333;17,4667
3158;8502;Pápa;47,3333;17,4667
3159;8503;Pápa;47,3333;17,4667
3160;8505;Pápa;47,3333;17,4667
3161;8510;Pápa;47,3333;17,4667
3162;8511;Pápa;47,3333;17,4667
3163;8512;Nyárád;47,2833;17,3667
3164;8513;Mihályháza;47,3;17,3333
3165;8514;Mezőlak;47,3333;17,3667
3166;8515;Békás;47,3333;17,35
3167;8516;Kemeneshőgyész;47,35;17,3
3168;8517;Magyargencs;47,3667;17,3
3169;8518;Kemenesszentpéter;47,4333;17,2333
3170;8521;Nagyacsád;47,3667;17,3667
3171;8522;Nemesgörzsöny;47,4;17,3667
3172;8523;Egyházaskesző;47,4167;17,3333
3173;8523;Várkesző;47,4333;17,3167
3174;8531;Várkesző;47,4333;17,3167
3175;8532;Marcaltő;47,4333;17,3667
3176;8533;Malomsok;47,45;17,4
3177;8534;Csikvánd;47,4667;17,45
3178;8541;Takácsi;47,4;17,4833
3179;8542;Vaszar;47,4;17,5167
3180;8543;Gecse;47,45;17,5333
3181;8544;Szerecseny;47,4667;17,55
3182;8545;Gyarmat;47,4667;17,5
3183;8551;Nagygyimót;47,3333;17,55
3184;8552;Vanyola;47,3833;17,5833
3185;8553;Lovászpatona;47,4333;17,6333
3186;8554;Nagydém;47,4333;17,6833
3187;8555;Bakonytamási;47,4167;17,7333
3188;8556;Pápateszér;47,3833;17,7
3189;8557;Bakonyság;47,4;17,65
3190;8557;Bakonyszentiván;47,4;17,6667
3191;8558;Csót;47,3667;17,6167
3192;8561;Adásztevel;47,3;17,55
3193;8562;Nagytevel;47,3;17,5667
3194;8563;Homokbödöge;47,3;17,6
3195;8564;Ugod;47,3167;17,6
3196;8565;Béb;47,35;17,6
3197;8571;Bakonykoppány;47,3333;17,6833
3198;8572;Bakonyszücs;47,3333;17,6833
3199;8581;Németbánya;47,2167;17,65
3200;8581;Bakonyjákó;47,2167;17,6
3201;8582;Farkasgyepű;47,2;17,6333
3202;8591;Farkasgyepű;47,2;17,6333
3203;8591;Nóráp;47,2667;17,4667
3204;8592;Dáka;47,2833;17,4333
3205;8593;Pápadereske;47,3;17,4
3206;8594;Pápasalamon;47,2333;17,4333
3207;8595;Kup;47,25;17,4667
3208;8596;Pápakovácsi;47,2667;17,4833
3209;8597;Ganna;47,2333;17,5333
3210;8597;Döbrönte;47,2333;17,55
3211;8598;Döbrönte;47,2333;17,55
3212;8600;Siófok;46,9058;18,0485
3213;8601;Siófok;46,9;18,05
3214;8602;Siófok;46,9;18,05
3215;8604;Siófok;46,9;18,05
3216;8609;Siófok;46,9;18,05
3217;8611;Siófok;46,9;18,05
3218;8612;Nyim;46,8;18,1167
3219;8613;Balatonendréd;46,8333;17,9833
3220;8614;Bálványos;46,7833;17,95
3221;8617;Kőröshegy;46,8333;17,9
3222;8618;Kereki;46,8;17,9167
3223;8619;Pusztaszemes;46,7667;17,9333
3224;8621;Zamárdi;46,8833;17,95
3225;8622;Szántód;46,8667;17,9
3226;8623;Balatonföldvár;46,85;17,8833
3227;8624;Balatonszárszó;46,8333;17,8333
3228;8625;Szólád;46,7833;17,85
3229;8626;Teleki;46,7667;17,8333
3230;8627;Kötcse;46,75;17,8667
3231;8628;Nagycsepely;46,75;17,8333
3232;8630;Balatonboglár;46,7667;17,6667
3233;8631;Balatonboglár;46,7667;17,6667
3234;8634;Balatonboglár;46,7667;17,6667
3235;8635;Ordacsehi;46,7333;17,6167
3236;8636;Balatonszemes;46,8167;17,7833
3237;8637;Balatonőszöd;46,8;17,8
3238;8638;Balatonlelle;46,7833;17,6833
3239;8640;Fonyód;46,7333;17,55
3240;8641;Birján;46,7111;17,4194
3241;8642;Birján;46,7111;17,4194
3242;8644;Birján;46,7111;17,4194
3243;8646;Balatonfenyves;46,7167;17,5
3244;8647;Balatonmáriafürdő;46,7;17,3833
3245;8647;Balatonkeresztúr;46,7;17,3833
3246;8648;Balatonkeresztúr;46,7;17,3833
3247;8649;Balatonberény;46,7167;17,3167
3248;8651;Balatonszabadi;46,8833;18,1333
3249;8652;Siójut;46,8833;18,1333
3250;8653;Ádánd;46,8667;18,1667
3251;8654;Ságvár;46,8333;18,1167
3252;8655;Som;46,8;18,15
3253;8656;Nagyberény;46,8;18,1667
3254;8658;Bábonymegyer;46,75;18,1167
3255;8660;Tab;46,7333;18,0333
3256;8660;Zala;46,7333;18
3257;8660;Torvaj;46,7667;18,05
3258;8660;Sérsekszőlős;46,7667;18,0167
3259;8660;Lulla;46,7833;18,0333
3260;8666;Bedegkér;46,65;18,0667
3261;8666;Somogyegres;46,6667;18,0333
3262;8667;Kánya;46,7;18,0667
3263;8668;Tengőd;46,7;18,1
3264;8669;Miklósi;46,65;18
3265;8671;Kapoly;46,7333;17,9667
3266;8672;Zics;46,6833;17,9833
3267;8673;Somogymeggyes;46,7167;17,9167
3268;8674;Nágocs;46,6667;17,9667
3269;8675;Andocs;46,65;17,9333
3270;8676;Karád;46,6833;17,85
3271;8681;Visz;46,7333;17,7833
3272;8681;Látrány;46,75;17,75
3273;8683;Somogytúr;46,7;17,7667
3274;8684;Somogybabod;46,6667;17,7833
3275;8685;Gamás;46,6167;17,7667
3276;8691;Gamás;46,6167;17,7667
3277;8692;Gyugy;46,6833;17,6833
3278;8692;Szőlősgyörök;46,7167;17,6833
3279;8693;Kisberény;46,6333;17,6667
3280;8693;Lengyeltóti;46,6667;17,65
3281;8694;Hács;46,65;17,6833
3282;8695;Buzsák;46,65;17,5833
3283;8696;Táska;46,6167;17,5333
3284;8697;Öreglak;46,6;17,6167
3285;8698;Pamuk;46,55;17,65
3286;8698;Somogyvár;46,5833;17,6667
3287;8699;Somogyvámos;46,5667;17,6833
3288;8700;Csömend;46,5667;17,5
3289;8700;Marcali;46,5833;17,4167
3290;8701;Csömend;46,5667;17,5
3291;8705;Somogyszentpál;46,65;17,4833
3292;8706;Nikla;46,5833;17,5167
3293;8707;Pusztakovácsi;46,5333;17,5833
3294;8707;Libickozma;46,5167;17,5333
3295;8708;Somogyfajsz;46,5167;17,5667
3296;8709;Somogyfajsz;46,5167;17,5667
3297;8710;Balatonszentgyörgy;46,6833;17,3
3298;8711;Vörs;46,6667;17,2667
3299;8712;Balatonújlak;46,6667;17,3833
3300;8713;Kéthely;46,65;17,4
3301;8714;Kéthely;46,65;17,4
3302;8714;Kelevíz;46,5167;17,4167
3303;8716;Gadány;46,5167;17,4
3304;8716;Mesztegnyő;46,5;17,4333
3305;8716;Hosszúvíz;46,5167;17,45
3306;8717;Szenyér;46,4667;17,3833
3307;8717;Nemeskisfalud;46,4333;17,3667
3308;8718;Tapsony;46,4667;17,3333
3309;8719;Böhönye;46,4;17,4
3310;8721;Vése;46,4167;17,3
3311;8722;Nemesdéd;46,4333;17,25
3312;8723;Varászló;46,4333;17,2167
3313;8724;Inke;46,4;17,2
3314;8725;Iharosberény;46,3667;17,1167
3315;8726;Somogycsicsó;46,3167;17,1333
3316;8726;Iharos;46,3333;17,1
3317;8728;Pogányszentpéter;46,3833;17,0667
3318;8731;Hollád;46,6333;17,3167
3319;8731;Tikos;46,6333;17,3
3320;8732;Főnyed;46,6333;17,2667
3321;8732;Sávoly;46,5833;17,2667
3322;8732;Szegerdő;46,6333;17,2833
3323;8733;Somogysámson;46,5833;17,3
3324;8734;Somogyzsitfa;46,5667;17,3
3325;8735;Csákány;46,5333;17,2833
3326;8736;Szőkedencs;46,55;17,25
3327;8737;Somogysimonyi;46,4833;17,2167
3328;8738;Nemesvid;46,5;17,2667
3329;8739;Nagyszakácsi;46,4833;17,3167
3330;8741;Zalaapáti;46,7333;17,1167
3331;8741;Bókaháza;46,7667;17,1
3332;8742;Esztergályhorváti;46,7;17,1167
3333;8743;Zalaszabar;46,65;17,1167
3334;8744;Orosztony;46,6333;17,0667
3335;8745;Kerecseny;46,6167;17,05
3336;8746;Nagyrada;46,6167;17,1167
3337;8747;Garabonc;46,5833;17,1333
3338;8747;Zalamerenye;46,5667;17,1
3339;8749;Zalakaros;46,5667;17,1333
3340;8751;Zalakomár;46,55;17,1833
3341;8752;Zalakomár;46,55;17,1833
3342;8753;Balatonmagyaród;46,6;17,1833
3343;8754;Galambok;46,5167;17,1333
3344;8756;Kisrécse;46,5;17,0667
3345;8756;Csapi;46,5333;17,1
3346;8756;Zalasárszeg;46,5;17,0833
3347;8756;Nagyrécse;46,4833;17,05
3348;8761;Zalaigrice;46,75;17,0167
3349;8761;Pacsa;46,7167;17,0167
3350;8762;Gétye;46,7667;17,0667
3351;8762;Szentpéterúr;46,7667;17,0333
3352;8764;Dióskál;46,6667;17,05
3353;8764;Zalaszentmárton;46,7;17,0667
3354;8765;Egeraracsa;46,6667;17,0833
3355;8767;Pötréte;46,6833;16,95
3356;8767;Felsőrajk;46,6833;17
3357;8767;Alsórajk;46,65;17
3358;8771;Hahót;46,6425;16,9236
3359;8772;Zalaszentbalázs;46,5878;16,9186
3360;8772;Börzönce;46,5833;16,9
3361;8773;Pölöskefő;46,6;16,95
3362;8773;Kacorlak;46,5667;16,9667
3363;8774;Kilimán;46,6333;17
3364;8774;Gelse;46,6;17
3365;8774;Gelsesziget;46,5667;17
3366;8776;Magyarszerdahely;46,55;16,9333
3367;8776;Bocska;46,55;16,9167
3368;8776;Magyarszentmiklós;46,5344;16,9383
3369;8777;Fűzvölgy;46,5167;16,95
3370;8777;Homokkomárom;46,5;16,9167
3371;8777;Hosszúvölgy;46,5167;16,9333
3372;8778;Újudvar;46,5333;17
3373;8782;Ligetfalva;46,8333;17,0667
3374;8782;Zalacsány;46,8;17,1167
3375;8782;Tilaj;46,8;17,05
3376;8784;Kehidakustány;46,85;17,1
3377;8785;Kallósd;46,8667;17,0667
3378;8785;Kehidakustány;46,85;17,1
3379;8788;Zalaszentlászló;46,8833;17,1167
3380;8788;Sénye;46,9;17,1333
3381;8789;Sénye;46,9;17,1333
3382;8790;Zalaszentgrót;46,95;17,0833
3383;8792;Zalavég;47;17,0333
3384;8793;Zalavég;47;17,0333
3385;8795;Zalavég;47;17,0333
3386;8796;Türje;46,9833;17,1
3387;8797;Batyk;46,9833;17,0333
3388;8798;Zalabér;46,9667;17,0333
3389;8799;Dötk;46,95;17,0167
3390;8799;Pakod;46,9667;17
3391;8800;Nagykanizsa;46,4618;17,0102
3392;8801;Nagykanizsa;46,5142;16,9717
3393;8802;Nagykanizsa;46,5142;16,9717
3394;8803;Nagykanizsa;46,5142;16,9717
3395;8804;Nagykanizsa;46,5142;16,9717
3396;8808;Nagykanizsa;46,5142;16,9717
3397;8809;Nagykanizsa;46,5142;16,9717
3398;8821;Nagybakónak;46,55;17,05
3399;8822;Zalaújlak;46,55;17,0833
3400;8824;Sand;46,4167;17,1333
3401;8825;Miháld;46,45;17,1333
3402;8825;Pat;46,4333;17,1833
3403;8827;Zalaszentjakab;46,4833;17,1333
3404;8831;Zalaszentjakab;46,4833;17,1333
3405;8831;Liszó;46,3667;17
3406;8834;Murakeresztúr;46,3522;16,8781
3407;8835;Fityeház;46,3667;16,9167
3408;8840;Csurgónagymarton;46,3;17,0833
3409;8840;Csurgó;46,2667;17,1
3410;8849;Szenta;46,25;17,1833
3411;8851;Gyékényes;46,2378;17,0053
3412;8852;Zákány;46,2744;16,9511
3413;8852;Gyékényes;46,2378;17,0053
3414;8853;Zákányfalu;46,2858;16,9926
3415;8854;Őrtilos;46,2797;16,9294
3416;8855;Belezna;46,3278;16,94
3417;8856;Nemespátró;46,3167;17,0167
3418;8856;Surd;46,3192;16,9706
3419;8857;Nemespátró;46,3167;17,0167
3420;8858;Somogybükkösd;46,3;17
3421;8858;Porrogszentkirály;46,2833;17,05
3422;8858;Porrogszentpál;46,2833;17,0167
3423;8858;Porrog;46,2833;17,0333
3424;8861;Szepetnek;46,4308;16,905
3425;8862;Semjénháza;46,4;16,85
3426;8863;Molnári;46,3833;16,8333
3427;8864;Tótszerdahely;46,4;16,8
3428;8865;Tótszentmárton;46,4167;16,8167
3429;8866;Becsehely;46,4458;16,7928
3430;8866;Petrivente;46,4333;16,85
3431;8868;Kistolmács;46,4833;16,75
3432;8868;Letenye;46,4286;16,7306
3433;8868;Zajk;46,4833;16,7167
3434;8868;Murarátka;46,4531;16,685
3435;8872;Szentmargitfalva;46,5;16,6667
3436;8872;Muraszemenye;46,4667;16,6167
3437;8873;Csörnyeföld;46,5008;16,6319
3438;8874;Kerkaszentkirály;46,5;16,5833
3439;8874;Dobri;46,5167;16,5833
3440;8876;Tormafölde;46,5386;16,5944
3441;8877;Tornyiszentmiklós;46,515;16,5578
3442;8878;Lovászi;46,55;16,5667
3443;8879;Kerkateskánd;46,5833;16,5833
3444;8879;Szécsisziget;46,5667;16,6
3445;8881;Sormás;46,45;16,9167
3446;8882;Eszteregnye;46,4667;16,8833
3447;8883;Rigyác;46,4667;16,8667
3448;8885;Borsfa;46,5167;16,7833
3449;8885;Valkonya;46,5;16,8167
3450;8886;Oltárc;46,5272;16,8372
3451;8887;Bázakerettye;46,5233;16,7294
3452;8887;Lasztonya;46,5667;16,7167
3453;8888;Lispeszentadorján;46,5333;16,7
3454;8888;Kiscsehi;46,5167;16,6667
3455;8888;Maróc;46,55;16,6667
3456;8891;Bánokszentgyörgy;46,5456;16,7872
3457;8891;Várfölde;46,5667;16,7667
3458;8893;Bucsuta;46,5667;16,85
3459;8893;Szentliszló;46,5756;16,8239
3460;8895;Pusztamagyaród;46,6;16,8333
3461;8896;Pusztaszentlászló;46,6369;16,8442
3462;8897;Söjtör;46,6672;16,8583
3463;8900;Zalaegerszeg;46,84;16,8439
3464;8901;Zalaegerszeg;46,84;16,8439
3465;8902;Zalaegerszeg;46,84;16,8439
3466;8903;Zalaegerszeg;46,84;16,8439
3467;8904;Zalaegerszeg;46,84;16,8439
3468;8905;Zalaegerszeg;46,84;16,8439
3469;8906;Zalaegerszeg;46,84;16,8439
3470;8907;Zalaegerszeg;46,84;16,8439
3471;8908;Zalaegerszeg;46,84;16,8439
3472;8909;Zalaegerszeg;46,84;16,8439
3473;8911;Kiskutas;46,9167;16,8
3474;8911;Nagykutas;46,9236;16,8078
3475;8912;Kispáli;46,9167;16,8167
3476;8912;Nagypáli;46,9167;16,85
3477;8913;Egervár;46,9336;16,8553
3478;8913;Lakhegy;46,9333;16,8667
3479;8913;Gősfa;46,9667;16,8667
3480;8914;Vasboldogasszony;46,95;16,8833
3481;8915;Nemesrádó;46,7833;17
3482;8917;Dobronhegy;46,8167;16,75
3483;8917;Pálfiszeg;46,7833;16,7333
3484;8917;Milejszeg;46,8;16,75
3485;8918;Csonkahegyhát;46,7983;16,7242
3486;8918;Németfalu;46,8208;16,6736
3487;8919;Kustánszeg;46,7839;16,6875
3488;8921;Zalaszentiván;46,8886;16,8994
3489;8921;Zalaszentlőrinc;46,9167;16,8833
3490;8921;Alibánfa;46,8833;16,9333
3491;8921;Pethőhenye;46,8833;16,9167
3492;8923;Nemesapáti;46,8667;16,95
3493;8924;Alsónemesapáti;46,8481;16,935
3494;8925;Nemessándorháza;46,7833;16,95
3495;8925;Búcsúszentlászló;46,7861;16,9314
3496;8925;Nemesszentandrás;46,7667;16,95
3497;8925;Kisbucsa;46,8167;16,95
3498;8925;Nemeshetés;46,8;16,9167
3499;8929;Pölöske;46,75;16,9333
3500;8931;Vöckönd;46,8833;16,95
3501;8931;Kemendollár;46,9;16,9667
3502;8932;Gyűrűs;46,8833;17
3503;8932;Pókaszepetk;46,9233;16,9683
3504;8932;Zalaistvánd;46,9167;16,9833
3505;8934;Bezeréd;46,8667;17,0167
3506;8935;Orbányosfa;46,85;16,9833
3507;8935;Almásháza;46,85;17,05
3508;8935;Nagykapornak;46,8167;17
3509;8935;Misefa;46,8;16,9833
3510;8935;Padár;46,85;17,0167
3511;8936;Zalaszentmihály;46,725;16,9494
3512;8943;Bocfölde;46,7833;16,8333
3513;8943;Csatár;46,7833;16,8833
3514;8944;Sárhida;46,75;16,85
3515;8945;Bak;46,7292;16,8464
3516;8946;Tófej;46,6703;16,8056
3517;8946;Baktüttös;46,7;16,8167
3518;8946;Pusztaederics;46,65;16,8
3519;8947;Szentkozmadombja;46,6833;16,7667
3520;8947;Zalatárnok;46,7019;16,7628
3521;8948;Barlahida;46,7158;16,7025
3522;8948;Nova;46,6839;16,6839
3523;8949;Mikekarácsonyfa;46,65;16,7
3524;8951;Gutorfölde;46,6414;16,7383
3525;8951;Csertalakos;46,65;16,7
3526;8953;Szentpéterfölde;46,6167;16,7667
3527;8954;Ortaháza;46,6167;16,6833
3528;8956;Kányavár;46,5667;16,6833
3529;8956;Pördefölde;46,5833;16,7167
3530;8956;Páka;46,5894;16,6506
3531;8957;Csömödér;46,6083;16,6442
3532;8957;Kissziget;46,6167;16,6667
3533;8957;Hernyék;46,65;16,65
3534;8957;Zebecke;46,65;16,6833
3535;8958;Iklódbördőce;46,6;16,6167
3536;8960;Lenti;46,6217;16,5392
3537;8961;Lenti;46,6217;16,5392
3538;8966;Lenti;46,6217;16,5392
3539;8969;Bödeháza;46,65;16,4167
3540;8969;Zalaszombatfa;46,6333;16,45
3541;8969;Gáborjánháza;46,6333;16,4167
3542;8969;Szijártóháza;46,6333;16,45
3543;8971;Zalabaksa;46,6997;16,5522
3544;8971;Kerkabarabás;46,6833;16,5667
3545;8973;Felsőszenterzsébet;46,75;16,45
3546;8973;Magyarföld;46,7833;16,4167
3547;8973;Alsószenterzsébet;46,75;16,4833
3548;8973;Ramocsa;46,7833;16,45
3549;8973;Csesztreg;46,7136;16,5203
3550;8973;Kerkafalva;46,7667;16,5
3551;8973;Kerkakutas;46,7667;16,5
3552;8975;Szentgyörgyvölgy;46,7244;16,4156
3553;8976;Nemesnép;46,7006;16,4625
3554;8976;Márokföld;46,7167;16,45
3555;8977;Baglad;46,6833;16,4833
3556;8977;Lendvajakabfa;46,6833;16,45
3557;8977;Resznek;46,6619;16,4792
3558;8978;Belsősárd;46,65;16,4833
3559;8978;Lendvadedes;46,5833;16,5167
3560;8978;Gosztola;46,5833;16,5333
3561;8978;Rédics;46,6142;16,4775
3562;8978;Külsősárd;46,6333;16,5
3563;8981;Gellénháza;46,7614;16,7878
3564;8981;Lickóvadamos;46,75;16,7667
3565;8983;Babosdöbréte;46,8167;16,7833
3566;8983;Nagylengyel;46,7833;16,7667
3567;8983;Ormándlak;46,75;16,75
3568;8984;Iborfia;46,7333;16,75
3569;8984;Petrikeresztúr;46,7333;16,7333
3570;8984;Gombosszeg;46,75;16,7333
3571;8985;Becsvölgye;46,7667;16,7
3572;8986;Pusztaapáti;46,7667;16,6167
3573;8986;Szilvágy;46,7333;16,6333
3574;8986;Pórszombat;46,7264;16,5781
3575;8988;Kálócfa;46,75;16,5667
3576;8988;Kozmadombja;46,7667;16,55
3577;8989;Dobronhegy;46,8167;16,75
3578;8990;Pálfiszeg;46,7833;16,7333
3579;8991;Hottó;46,85;16,75
3580;8991;Teskánd;46,8469;16,7758
3581;8991;Böde;46,8375;16,7206
3582;8992;Zalaboldogfa;46,9;16,7667
3583;8992;Boncodfölde;46,8667;16,7333
3584;8992;Bagod;46,8781;16,7444
3585;8992;Hagyárosbörönd;46,9;16,7167
3586;8994;Zalaszentgyörgy;46,8667;16,7167
3587;8994;Kávás;46,8667;16,7167
3588;8995;Keménfa;46,8333;16,6333
3589;8995;Salomvár;46,8489;16,6633
3590;8996;Zalacséb;46,8603;16,6639
3591;8997;Zalaháshágy;46,89;16,6328
3592;8998;Vaspör;46,9161;16,65
3593;8998;Ozmánbük;46,9167;16,6833
3594;8999;Csöde;46,8167;16,5333
3595;8999;Zalalövő;46,8483;16,5936
3596;9000;Győr;47,6076;17,7819
3597;9001;Győr;47,6076;17,7819
3598;9002;Győr;47,6076;17,7819
3599;9003;Győr;47,6076;17,7819
3600;9004;Győr;47,6076;17,7819
3601;9005;Győr;47,6076;17,7819
3602;9006;Győr;47,6076;17,7819
3603;9007;Győr;47,6076;17,7819
3604;9008;Győr;47,6076;17,7819
3605;9009;Győr;47,6076;17,7819
3606;9010;Győr;47,6076;17,7819
3607;9011;Győr;47,6076;17,7819
3608;9012;Győr;47,6076;17,7819
3609;9013;Győr;47,6076;17,7819
3610;9019;Győr;47,6076;17,7819
3611;9020;Győr;47,6076;17,7819
3612;9021;Győr;47,6076;17,7819
3613;9022;Győr;47,6076;17,7819
3614;9023;Győr;47,6076;17,7819
3615;9024;Győr;47,6076;17,7819
3616;9025;Győr;47,6076;17,7819
3617;9026;Győr;47,6076;17,7819
3618;9027;Győr;47,6076;17,7819
3619;9028;Győr;47,6076;17,7819
3620;9029;Győr;47,6076;17,7819
3621;9030;Győr;47,6076;17,7819
3622;9061;Vámosszabadi;47,7667;17,65
3623;9062;Vének;47,7333;17,7667
3624;9062;Kisbajcs;47,75;17,6833
3625;9063;Nagybajcs;47,7667;17,7
3626;9071;Gönyű;47,7333;17,8333
3627;9072;Nagyszentjános;47,7167;17,8833
3628;9073;Bőny;47,65;17,8667
3629;9074;Rétalap;47,6;17,9167
3630;9081;Győrújbarát;47,6;17,65
3631;9082;Nyúl;47,5833;17,6833
3632;9083;Écs;47,55;17,7167
3633;9084;Győrság;47,5667;17,75
3634;9085;Pázmándfalu;47,5667;17,7833
3635;9086;Töltéstava;47,6167;17,7333
3636;9088;Bakonypéterd;47,4;17,825
3637;9089;Lázi;47,4;17,825
3638;9090;Pannonhalma;47,55;17,75
3639;9091;Ravazd;47,5167;17,75
3640;9092;Tarjánpuszta;47,5;17,7833
3641;9093;Győrasszonyfa;47,5;17,8
3642;9094;Tápszentmiklós;47,5;17,85
3643;9095;Táp;47,5167;17,8333
3644;9096;Nyalka;47,55;17,8167
3645;9097;Mezőörs;47,5667;17,8833
3646;9098;Mezőörs;47,5667;17,8833
3647;9099;Pér;47,6167;17,8
3648;9100;Tét;47,5167;17,5167
3649;9111;Tényő;47,5333;17,65
3650;9112;Sokorópátka;47,4833;17,7
3651;9113;Koroncó;47,6;17,5333
3652;9121;Győrszemere;47,55;17,5667
3653;9122;Felpéc;47,5167;17,6
3654;9123;Kajárpéc;47,4833;17,6333
3655;9124;Gyömöre;47,5;17,5667
3656;9125;Szerecseny;47,4667;17,55
3657;9126;Gyarmat;47,4667;17,5
3658;9127;Csikvánd;47,4667;17,45
3659;9131;Mórichida;47,5167;17,4167
3660;9132;Árpás;47,5167;17,4
3661;9133;Rábaszentmiklós;47,5333;17,4167
3662;9133;Kisbabot;47,55;17,4167
3663;9134;Bodonhely;47,5667;17,4
3664;9135;Rábaszentmihály;47,5833;17,4333
3665;9136;Rábacsécsény;47,5833;17,4333
3666;9136;Mérges;47,6;17,45
3667;9141;Ikrény;47,65;17,5333
3668;9142;Rábapatona;47,6333;17,4833
3669;9143;Enese;47,65;17,4167
3670;9144;Kóny;47,6333;17,3667
3671;9145;Bágyogszovát;47,5833;17,3667
3672;9146;Rábapordány;47,5667;17,3333
3673;9147;Dör;47,6;17,3
3674;9151;Abda;47,7;17,55
3675;9152;Börcs;47,6833;17,5
3676;9153;Öttevény;47,7333;17,4833
3677;9154;Mosonszentmiklós;47,7333;17,3833
3678;9155;Lébény;47,7333;17,3833
3679;9161;Győrsövényház;47,7;17,3667
3680;9162;Bezi;47,6667;17,4
3681;9163;Fehértó;47,6833;17,35
3682;9164;Markotabödöge;47,6833;17,3167
3683;9165;Cakóháza;47,7;17,2833
3684;9165;Rábcakapi;47,7;17,2833
3685;9165;Tárnokréti;47,7167;17,3167
3686;9167;Bősárkány;47,6833;17,25
3687;9168;Acsalag;47,6833;17,2
3688;9169;Maglóca;47,6667;17,2833
3689;9169;Barbacs;47,65;17,3
3690;9171;Győrújfalu;47,7167;17,6167
3691;9172;Győrzámoly;47,7333;17,5833
3692;9173;Győrladamér;47,75;17,5667
3693;9174;Dunaszeg;47,7667;17,55
3694;9175;Dunaszentpál;47,7833;17,5
3695;9176;Mecsér;47,8;17,4833
3696;9177;Ásványráró;47,8333;17,5
3697;9178;Hédervár;47,8333;17,4667
3698;9181;Kimle;47,8333;17,3667
3699;9182;Károlyháza;47,6333;17,5833
3700;9183;Károlyháza;47,6333;17,5833
3701;9184;Kunsziget;47,7333;17,5167
3702;9200;Mosonmagyaróvár;47,8667;17,2833
3703;9201;Mosonmagyaróvár;47,8667;17,2833
3704;9202;Mosonmagyaróvár;47,8667;17,2833
3705;9203;Mosonmagyaróvár;47,8667;17,2833
3706;9211;Feketeerdő;47,9333;17,2833
3707;9221;Levél;47,9;17,2
3708;9222;Hegyeshalom;47,9167;17,1667
3709;9223;Bezenye;47,9667;17,2167
3710;9224;Rajka;48;17,2
3711;9225;Dunakiliti;47,9667;17,2833
3712;9226;Dunasziget;47,9333;17,3667
3713;9228;Halászi;47,8833;17,3333
3714;9231;Máriakálnok;47,8667;17,3167
3715;9232;Darnózseli;47,85;17,4333
3716;9233;Lipót;47,8667;17,4667
3717;9234;Kisbodak;47,9;17,4167
3718;9235;Dunaremete;47,8833;17,4333
3719;9235;Püski;47,8833;17,4
3720;9241;Jánossomorja;47,8;17,1167
3721;9242;Jánossomorja;47,8;17,1167
3722;9243;Várbalog;47,85;17,0833
3723;9244;Újrónafő;47,8;17,2
3724;9245;Mosonszolnok;47,85;17,1833
3725;9300;Csorna;47,6167;17,25
3726;9301;Csorna;47,6167;17,25
3727;9311;Pásztori;47,55;17,2667
3728;9312;Szilsárkány;47,55;17,2667
3729;9313;Rábacsanak;47,5333;17,3
3730;9314;Egyed;47,5167;17,35
3731;9315;Sobor;47,4833;17,3833
3732;9316;Rábaszentandrás;47,45;17,3333
3733;9317;Szany;47,4667;17,3
3734;9321;Farád;47,6;17,2
3735;9322;Rábatamási;47,5833;17,1667
3736;9323;Jobaháza;47,5833;17,2
3737;9324;Potyond;47,55;17,1833
3738;9324;Bogyoszló;47,5667;17,1833
3739;9325;Sopronnémeti;47,5333;17,2167
3740;9326;Szil;47,5;17,2333
3741;9327;Rábasebes;47,4333;17,2333
3742;9327;Vág;47,45;17,2167
3743;9330;Kapuvár;47,6;17,0333
3744;9331;Kapuvár;47,6;17,0333
3745;9332;Kapuvár;47,6;17,0333
3746;9339;Kapuvár;47,6;17,0333
3747;9341;Kisfalud;47,5167;17,1
3748;9342;Mihályi;47,5167;17,1
3749;9343;Beled;47,4667;17,1
3750;9343;Vásárosfalu;47,45;17,1167
3751;9343;Edve;47,45;17,1333
3752;9344;Rábakecöl;47,4333;17,1167
3753;9345;Páli;47,4667;17,1667
3754;9346;Magyarkeresztúr;47,5167;17,1667
3755;9346;Vadosfa;47,5;17,1333
3756;9346;Zsebeháza;47,5167;17,2
3757;9351;Babót;47,5667;17,0833
3758;9352;Veszkény;47,6;17,0833
3759;9353;Szárföld;47,6;17,1167
3760;9354;Osli;47,6333;17,0833
3761;9361;Hövej;47,55;17,0167
3762;9362;Himod;47,5167;17,0167
3763;9363;Gyóró;47,5;17,0167
3764;9364;Cirák;47,4667;17,0333
3765;9365;Dénesfa;47,45;17,0333
3766;9371;Vitnyéd;47,5833;16,9833
3767;9372;Csapod;47,5167;16,9167
3768;9373;Pusztacsalád;47,4833;16,9
3769;9374;Iván;47,45;16,9167
3770;9375;Répceszemere;47,4333;16,9833
3771;9375;Csáfordjánosfa;47,4167;16,95
3772;9375;Csér;47,4167;16,9333
3773;9400;Sopron;47,672;16,5852
3774;9401;Sopron;47,6833;16,6
3775;9402;Sopron;47,6833;16,6
3776;9403;Sopron;47,6833;16,6
3777;9404;Sopron;47,6833;16,6
3778;9405;Sopron;47,6833;16,6
3779;9406;Sopron;47,6833;16,6
3780;9407;Sopron;47,6833;16,6
3781;9408;Sopron;47,6833;16,6
3782;9409;Sopron;47,6833;16,6
3783;9421;Fertőrákos;47,7167;16,65
3784;9422;Harka;47,6333;16,6
3785;9423;Ágfalva;47,6833;16,5167
3786;9431;Fertőd;47,6167;16,8667
3787;9433;Fertőd;47,6167;16,8667
3788;9434;Fertőd;47,6167;16,8667
3789;9435;Sarród;47,6333;16,8667
3790;9436;Fertőszéplak;47,6167;16,8333
3791;9437;Hegykő;47,6167;16,8
3792;9438;Sarród;47,6333;16,8667
3793;9441;Agyagosszergény;47,6167;16,95
3794;9442;Fertőendréd;47,6;16,9167
3795;9443;Petőháza;47,6;16,9
3796;9444;Fertőszentmiklós;47,5833;16,8833
3797;9451;Röjtökmuzsaj;47,55;16,8333
3798;9451;Ebergőc;47,5667;16,8167
3799;9461;Lövő;47,5;16,7833
3800;9462;Völcsej;47,4833;16,7667
3801;9463;Sopronhorpács;47,4833;16,7333
3802;9464;Und;47,4833;16,7
3803;9471;Nemeskér;47,4833;16,8
3804;9472;Újkér;47,4667;16,8167
3805;9473;Egyházasfalu;47,4667;16,7667
3806;9474;Szakony;47,4333;16,7167
3807;9474;Gyalóka;47,45;16,7
3808;9475;Répcevis;47,45;16,6833
3809;9476;Zsira;47,45;16,6833
3810;9481;Pinnye;47,5833;16,7667
3811;9482;Nagylózs;47,5667;16,7833
3812;9483;Sopronkövesd;47,55;16,75
3813;9484;Pereszteg;47,6;16,7333
3814;9485;Nagycenk;47,6;16,7
3815;9491;Hidegség;47,6333;16,75
3816;9492;Fertőhomok;47,6167;16,7667
3817;9493;Fertőboz;47,6333;16,7
3818;9494;Fertőboz;47,6333;16,7
3819;9495;Kópháza;47,6333;16,65
3820;9500;Celldömölk;47,25;17,15
3821;9501;Celldömölk;47,25;17,15
3822;9502;Celldömölk;47,25;17,15
3823;9503;Celldömölk;47,25;17,15
3824;9511;Kemenesmihályfa;47,2833;17,1167
3825;9512;Ostffyasszonyfa;47,3167;17,05
3826;9513;Csönge;47,3361;17,1139
3827;9514;Kenyeri;47,3833;17,0833
3828;9515;Pápoc;47,4167;17,1333
3829;9516;Vönöck;47,3167;17,1667
3830;9517;Kemenessömjén;47,3;17,1333
3831;9521;Kemenesszentmárton;47,3;17,1667
3832;9522;Kemenesmagasi;47,3333;17,2167
3833;9523;Szergény;47,3167;17,2667
3834;9531;Mersevát;47,2833;17,2167
3835;9532;Külsővat;47,3;17,2333
3836;9533;Nemesszalók;47,2833;17,3
3837;9534;Vinár;47,3167;17,2833
3838;9534;Marcalgergelyi;47,3167;17,2667
3839;9541;Vinár;47,125;17,175
3840;9542;Nemeskocs;47,2;17,1833
3841;9542;Boba;47,2;17,1833
3842;9544;Kemenespálfa;47,1333;17,1833
3843;9545;Jánosháza;47,1167;17,1667
3844;9547;Karakó;47,1167;17,2
3845;9548;Nemeskeresztúr;47,1;17,2
3846;9549;Keléd;47,0833;17,1167
3847;9551;Mesteri;47,2167;17,0833
3848;9552;Vásárosmiske;47,2;17,0667
3849;9553;Köcsk;47,1833;17,0833
3850;9553;Kemeneskápolna;47,2;17,1167
3851;9554;Borgáta;47,1667;17,0833
3852;9554;Egyházashetye;47,1667;17,1167
3853;9555;Kissomlyó;47,1333;17,1
3854;9556;Duka;47,181;17,0929
3855;9561;Nagysimonyi;47,2667;17,0667
3856;9561;Tokorcs;47,2667;17,1
3857;9600;Sárvár;47,255;16,944
3858;9601;Sárvár;47,25;16,9333
3859;9602;Sárvár;47,25;16,9333
3860;9608;Sárvár;47,25;16,9333
3861;9609;Sárvár;47,25;16,9333
3862;9611;Csénye;47,2333;16,8667
3863;9612;Porpác;47,25;16,8
3864;9612;Bögöt;47,25;16,8
3865;9621;Ölbő;47,3;16,8667
3866;9622;Szeleste;47,3167;16,8333
3867;9623;Répceszentgyörgy;47,35;16,85
3868;9624;Chernelházadamonya;47,35;16,85
3869;9625;Bő;47,3667;16,8
3870;9625;Gór;47,3667;16,8
3871;9631;Hegyfalu;47,35;16,8833
3872;9632;Sajtoskál;47,4;16,8667
3873;9633;Simaság;47,4167;16,85
3874;9634;Iklanberény;47,4167;16,8
3875;9634;Lócs;47,4;16,8167
3876;9635;Zsédeny;47,3333;16,9
3877;9636;Pósfa;47,3333;16,85
3878;9641;Rábapaty;47,3;16,9333
3879;9643;Jákfa;47,3333;16,9667
3880;9651;Uraiújfalu;47,3667;16,9833
3881;9652;Nick;47,4;17,0167
3882;9653;Répcelak;47,4167;17,0167
3883;9654;Csánig;47,3944;17,0056
3884;9661;Vasegerszeg;47,3667;16,9167
3885;9662;Tompaládony;47,3833;16,9
3886;9662;Mesterháza;47,3667;16,8667
3887;9663;Nemesládony;47,4;16,8833
3888;9664;Nagygeresd;47,3833;16,9167
3889;9665;Vámoscsalád;47,3833;16,9667
3890;9671;Sitke;47,2333;17,0333
3891;9672;Gérce;47,2167;17,0167
3892;9673;Káld;47,1667;17,05
3893;9674;Vashosszúfalu;47,1167;17,0667
3894;9675;Bögöte;47,1667;17,0367
3895;9676;Hosszúpereszteg;47,1;17,0167
3896;9681;Sótony;47,2;16,95
3897;9682;Nyőgér;47,1833;16,9333
3898;9683;Bejcgyertyános;47,15;16,925
3899;9684;Egervölgy;47,1167;16,9167
3900;9685;Szemenye;47,1;16,9
3901;9700;Szombathely;47,2448;16,6168
3902;9701;Szombathely;47,2333;16,6167
3903;9702;Szombathely;47,2333;16,6167
3904;9703;Szombathely;47,2333;16,6167
3905;9704;Szombathely;47,2333;16,6167
3906;9705;Szombathely;47,2333;16,6167
3907;9706;Szombathely;47,2333;16,6167
3908;9707;Szombathely;47,2333;16,6167
3909;9708;Szombathely;47,2333;16,6167
3910;9709;Szombathely;47,2333;16,6167
3911;9710;Szombathely;47,2333;16,6167
3912;9719;Szombathely;47,2333;16,6167
3913;9721;Gencsapáti;47,2833;16,6
3914;9722;Perenye;47,3;16,5833
3915;9723;Lukácsháza;47,35;16,5833
3916;9724;Gyöngyösfalu;47,3167;16,5833
3917;9725;Kőszegszerdahely;47,3333;16,5167
3918;9725;Cák;47,35;16,5167
3919;9725;Kőszegdoroszló;47,35;16,55
3920;9726;Velem;47,35;16,5
3921;9727;Bozsok;47,3333;16,5
3922;9730;Kőszeg;47,3833;16,55
3923;9731;Kőszeg;47,3833;16,55
3924;9732;Kőszeg;47,3833;16,55
3925;9733;Horvátzsidány;47,4167;16,6167
3926;9733;Kiszsidány;47,4167;16,65
3927;9733;Ólmod;47,4167;16,6
3928;9734;Peresznye;47,4333;16,65
3929;9735;Csepreg;47,4;16,7167
3930;9736;Tormásliget;47,3846;16,6321
3931;9737;Bük;47,3833;16,75
3932;9738;Tömörd;47,3667;16,6833
3933;9739;Pusztacsó;47,3333;16,6333
3934;9739;Kőszegpaty;47,3333;16,65
3935;9739;Nemescsó;47,35;16,6167
3936;9740;Pusztacsó;47,3333;16,6333
3937;9741;Vassurány;47,2833;16,7
3938;9742;Salköveskút;47,3;16,7
3939;9743;Söpte;47,2833;16,65
3940;9744;Vasasszonyfa;47,3167;16,6667
3941;9745;Meszlen;47,3333;16,7
3942;9746;Acsád;47,3167;16,7333
3943;9747;Vasszilvágy;47,3;16,75
3944;9748;Vát;47,2833;16,7833
3945;9749;Nemesbőd;47,2667;16,7333
3946;9751;Vép;47,2333;16,7333
3947;9752;Bozzai;47,2;16,7667
3948;9752;Kenéz;47,2;16,7833
3949;9754;Pecöl;47,2;16,8333
3950;9754;Megyehíd;47,2167;16,8333
3951;9756;Ikervár;47,2;16,9
3952;9757;Meggyeskovácsi;47,1667;16,8667
3953;9761;Táplánszentkereszt;47,2;16,7
3954;9762;Tanakajd;47,2;16,7333
3955;9763;Vasszécseny;47,1833;16,7667
3956;9764;Csempeszkopács;47,15;16,8
3957;9766;Rábatöttös;47,125;16,8333
3958;9766;Zsennye;47,1167;16,8167
3959;9766;Rum;47,1333;16,85
3960;9771;Balogunyom;47,1667;16,65
3961;9772;Kisunyom;47,15;16,65
3962;9773;Sorokpolány;47,1333;16,6667
3963;9774;Gyanógeregye;47,1167;16,7667
3964;9774;Sorkikápolna;47,1333;16,7
3965;9774;Sorkifalud;47,1333;16,7333
3966;9775;Nemeskolta;47,15;16,7667
3967;9776;Püspökmolnári;47,1;16,8
3968;9777;Rábahídvég;47,0667;16,75
3969;9781;Egyházashollós;47,05;16,6833
3970;9782;Nemesrempehollós;47,0833;16,6833
3971;9783;Egyházasrádóc;47,0833;16,6167
3972;9784;Rádóckölked;47,0833;16,6
3973;9784;Harasztifalu;47,05;16,55
3974;9784;Nagykölked;47,0667;16,55
3975;9789;Sé;47,2333;16,5667
3976;9791;Dozmat;47,2333;16,5167
3977;9791;Torony;47,2333;16,5333
3978;9792;Bucsu;47,2667;16,5
3979;9793;Narda;47,2333;16,4667
3980;9794;Felsőcsatár;47,2167;16,45
3981;9795;Vaskeresztes;47,2;16,45
3982;9796;Horvátlövő;47,1833;16,45
3983;9796;Pornóapáti;47,15;16,4667
3984;9797;Nárai;47,2;16,5667
3985;9798;Ják;47,1333;16,5833
3986;9799;Szentpéterfa;47,1;16,4833
3987;9800;Vasvár;47,05;16,8
3988;9801;Vasvár;47,05;16,8
3989;9811;Andrásfa;46,9667;16,8
3990;9812;Telekes;46,9389;16,7725
3991;9813;Gersekarát;46,9739;16,7467
3992;9813;Sárfimizdó;46,95;16,7167
3993;9814;Halastó;46,95;16,7
3994;9821;Hegyhátszentpéter;46,9833;16,8167
3995;9821;Győrvár;46,9878;16,8417
3996;9823;Pácsony;47,0167;16,8667
3997;9824;Olaszfa;47,0167;16,8833
3998;9825;Oszkó;47,0333;16,8833
3999;9826;Petőmihályfa;46,9833;16,7833
4000;9831;Bérbaltavár;47,0167;16,9667
4001;9832;Nagytilaj;46,9733;16,9653
4002;9833;Csehi;47,0333;16,95
4003;9834;Csehimindszent;47,05;16,95
4004;9835;Mikosszéplak;47,0333;16,9833
4005;9836;Csipkerek;47,0667;16,95
4006;9841;Kám;47,1;16,8833
4007;9842;Alsóújlak;47,05;16,8
4008;9900;Körmend;47,0167;16,6
4009;9901;Körmend;47,0167;16,6
4010;9909;Magyarnádalja;47;16,5333
4011;9909;Körmend;47,0167;16,6
4012;9912;Magyarszecsőd;47,0333;16,65
4013;9912;Molnaszecsőd;47,05;16,6833
4014;9913;Döröske;47,0167;16,7
4015;9913;Szarvaskend;46,9833;16,6833
4016;9913;Nagymizdó;46,9833;16,6667
4017;9914;Döbörhegy;46,9833;16,7
4018;9915;Nádasd;46,9636;16,6192
4019;9915;Katafa;46,9833;16,6333
4020;9915;Hegyháthodász;46,9333;16,65
4021;9915;Hegyhátsál;46,9667;16,65
4022;9917;Halogy;46,9667;16,5667
4023;9917;Daraboshegy;46,9667;16,5667
4024;9918;Felsőmarác;46,9333;16,5167
4025;9919;Csákánydoroszló;46,9708;16,5069
4026;9921;Vasalja;47,0167;16,5167
4027;9922;Pinkamindszent;47,0333;16,4833
4028;9923;Kemestaródfa;47;16,5167
4029;9931;Ivánc;46,9333;16,5
4030;9931;Hegyhátszentmárton;46,9333;16,4833
4031;9932;Viszák;46,8833;16,5
4032;9933;Őrimagyarósd;46,8883;16,5397
4033;9934;Felsőjánosfa;46,85;16,5667
4034;9934;Szaknyér;46,8667;16,5333
4035;9934;Hegyhátszentjakab;46,8661;16,5547
4036;9935;Szőce;46,8833;16,5833
4037;9936;Kisrákos;46,8667;16,5
4038;9937;Pankasz;46,8333;16,5
4039;9938;Szatta;46,8;16,4833
4040;9938;Nagyrákos;46,8333;16,4667
4041;9941;Ispánk;46,8667;16,45
4042;9941;Őriszentpéter;46,8408;16,4294
4043;9942;Szalafő;46,8667;16,3667
4044;9943;Kondorfa;46,895;16,4017
4045;9944;Bajánsenye;46,8;16,3833
4046;9944;Kerkáskápolna;46,7833;16,4333
4047;9945;Kercaszomor;46,7833;16,3667
4048;9946;Magyarszombatfa;46,7628;16,3467
4049;9946;Velemér;46,7333;16,3833
4050;9951;Rátót;46,9667;16,4333
4051;9952;Gasztony;46,9625;16,4594
4052;9953;Nemesmedves;47;16,4
4053;9953;Vasszentmihály;46,9667;16,4167
4054;9954;Rönök;46,9833;16,35
4055;9955;Rönök;46,9833;16,35
4056;9961;Rábagyarmat;46,9406;16,4286
4057;9962;Csörötnek;46,9514;16,3764
4058;9962;Magyarlak;46,95;16,35
4059;9970;Szentgotthárd;46,9519;16,3256
4060;9971;Szentgotthárd;46,9519;16,3256
4061;9981;Szentgotthárd;46,9519;16,3256
4062;9982;Apátistvánfalva;46,9006;16,2647
4063;9982;Kétvölgy;46,8833;16,2167
4064;9982;Orfalu;46,8833;16,2833
4065;9983;Alsószölnök;46,9278;16,2086
4066;9983;Szakonyfalu;46,9167;16,2333
4067;9985;Felsőszölnök;46,8797;16,1731
4068;2087;Piliscsaba;47,6167;18,8333
4069;2099;Pilisszentkereszt;47,7;18,9
4070;2738;Cegléd;47,1667;19,8
4071;2835;Tata;47,65;18,3167
4072;2921;Komárom;47,7333;18,1167
4073;3024;Lőrinci;47,7333;19,6833
4074;3065;Pásztó;47,9167;19,7
4075;3078;Bátonyterenye;47,9667;19,8333
4076;3082;Pásztó;47,9167;19,7
4077;3141;Salgótarján;48,1167;19,8167
4078;3147;Kazár;48,05;19,8667
4079;3221;Gyöngyös;47,7833;19,9333
4080;3232;Gyöngyös;47,7833;19,9333
4081;3233;Gyöngyös;47,7833;19,9333
4082;3234;Mátraszentimre;47,9167;19,8833
4083;3244;Parád;47,9167;20,0333
4084;3625;Ózd;48,2167;20,3
4085;3651;Ózd;48,2167;20,3
4086;3661;Ózd;48,2167;20,3
4087;3662;Ózd;48,2167;20,3
4088;3783;Edelény;48,3;20,7333
4089;3923;Gesztely;48,1;20,9667
4090;3944;Sátoraljaújhely;48,4;21,6667
4091;3945;Sátoraljaújhely;48,4;21,6667
4092;3988;Sátoraljaújhely;48,4;21,6667
4093;4067;Egyek;47,6333;20,9
4094;4074;Hajdúböszörmény;47,6667;21,5167
4095;4078;Debrecen;47,7675;21,24
4096;4079;Debrecen;47,7675;21,24
4097;4086;Hajdúböszörmény;47,6667;21,5167
4098;4162;Szerep;47,2333;21,15
4099;4246;Nyíregyháza;47,95;21,7167
4100;4252;Nyíradony;47,6833;21,9167
4101;4253;Nyíradony;47,6833;21,9167
4102;4446;Tiszaeszlár;48,05;21,4667
4103;4447;Tiszalök;48,0167;21,3833
4104;4481;Nyíregyháza;47,95;21,7167
4105;4486;Tiszatelek;48,2;21,8
4106;4551;Nyíregyháza;47,95;21,7167
4107;5095;Tiszavárkony;47,0667;20,1833
4108;5152;Jászberény;47,5;19,9167
4109;5212;Törökszentmiklós;47,1833;20,4167
4110;5213;Fegyvernek;47,2667;20,5333
4111;5349;Kenderes;47,25;20,6833
4112;5461;Tiszaföldvár;46,9833;20,25
4113;5623;Békéscsaba;46,6833;21,1
4114;5671;Békéscsaba;46,6833;21,1
4115;5752;Medgyesegyháza;46,5;21,0333
4116;6044;Kecskemét;46,9;19,7833
4117;6648;Csongrád;46,7;20,15
4118;7018;Sárbogárd;46,8833;18,6333
4119;7019;Sárbogárd;46,8833;18,6333
4120;7027;Paks;46,6333;18,8667
4121;7187;Bonyhád;46,3;18,5333
4122;7409;Kaposvár;46,3667;17,8
4123;7557;Barcs;45,96;17,4586
4124;7714;Mohács;45,9931;18,6831
4125;7715;Mohács;45,9931;18,6831
4126;8054;Balinka;47,3167;18,1833
4127;8172;Balatonkenese;47,0333;18,1167
4128;8173;Balatonkenese;47,0333;18,1167
4129;8184;Balatonfűzfő;47,0667;18,05
4130;8236;Balatonfüred;46,95;17,8833
4131;8257;Badacsonytomaj;46,8;17,5167
4132;8297;Tapolca;46,8833;17,4333
4133;8411;Veszprém;47,1;17,9167
4134;8412;Veszprém;47,1;17,9167
4135;8447;Ajka;47,1;17,5667
4136;8448;Ajka;47,1;17,5667
4137;8451;Ajka;47,1;17,5667
4138;8531;Marcaltő;47,4333;17,3667
4139;8591;Pápa;47,3333;17,4667
4140;8598;Pápa;47,3333;17,4667
4141;8691;Balatonboglár;46,7667;17,6667
4142;8709;Marcali;46,5833;17,4167
4143;8714;Marcali;46,5833;17,4167
4144;8785;Zalaszentgrót;46,95;17,0833
4145;8789;Zalaszentgrót;46,95;17,0833
4146;8793;Zalaszentgrót;46,95;17,0833
4147;8795;Zalaszentgrót;46,95;17,0833
4148;8831;Nagykanizsa;46,4618;17,0102
4149;9183;Mosonszentmiklós;47,7333;17,3833
4150;9434;Sarród;47,6333;16,8667
4151;9494;Sopron;47,672;16,5852
4152;9541;Celldömölk;47,25;17,15
4153;9740;Bük;47,3833;16,75
4154;9955;Szentgotthárd;46,9519;16,3256
